chain,name,address,phone,hours,latitude,longitude,category_id,google_maps_url,type
BRAVO,Bravo Əhmədli,Ramiz Quliyev küçəsi 4,+994 12 404 27 16,24/7,40.375206,49.944489,2237,"https://www.google.com/maps/dir/?api=1&origin=&destination=40.375206,49.944489&travelmode=driver",Hiper
BRAVO,Bravo Koroğlu m/s,Heydər Əliyev prospekti 172,+994 12 404 09 89,24/7,40.418194,49.913635,2237,"https://www.google.com/maps/dir/?api=1&origin=&destination=40.418194,49.913635&travelmode=driver",Hiper
BRAVO,Bravo 20 Yanvar m/s,Tbilisi Prospekti 3007,+994 12 525 20 08,24/7,40.401619,49.811024,2237,"https://www.google.com/maps/dir/?api=1&origin=&destination=40.401619,49.811024&travelmode=driver",Hiper
BRAVO,Bravo Gənclik Mall,Fətəli Xan Xoyski prospekti 14,+994 12 525 20 08,9:00 - 23:00,40.400177,49.852364,2236,"https://www.google.com/maps/dir/?api=1&origin=&destination=40.400177,49.852364&travelmode=driver",Super
BRAVO,Bravo Xətai m/s,Babak prospekti,+994 12 525 20 08,24/7,40.387726,49.874157,2237,"https://www.google.com/maps/dir/?api=1&origin=&destination=40.387726,49.874157&travelmode=driver",Hiper
BRAVO,Bravo 28 Mall,Azadlıq prospekti 15А,+994 12 525 20 08,09:00 - 23:00,40.379128,49.846539,2236,"https://www.google.com/maps/dir/?api=1&origin=&destination=40.379128,49.846539&travelmode=driver",Super
BRAVO,Bravo Əsəd Əhmədov küç.,Əsəd Əhmədov küçəsi (Yeni Yasamal yaşayış massivi),+994 12 525 20 08,24/7,40.393997,49.795109,2236,"https://www.google.com/maps/dir/?api=1&origin=&destination=40.393997,49.795109&travelmode=driver",Super
BRAVO,Bravo Şəmkir,Bakı-Qazax şossesi 406-cı km,+994 12 525 20 08,07:00 - 02:00,40.853363,46.031227,2236,"https://www.google.com/maps/dir/?api=1&origin=&destination=40.853363,46.031227&travelmode=driver",Super
BRAVO,Bravo 8 Noyabr pr.,8 noyabr pr. 102B,+994 12 525 20 08,07:00 - 02:00,40.373058,49.926048,2236,"https://www.google.com/maps/dir/?api=1&origin=&destination=40.373058,49.926048&travelmode=driver",Super
BRAVO,Bravo Mərdəkan şossesi,Mərdəkan Şosesi,+994 12 525 20 08,24/7,40.462429,50.082314,2236,"https://www.google.com/maps/dir/?api=1&origin=&destination=40.462429,50.082314&travelmode=driver",Super
BRAVO,Bravo Yeni Günəşli,İlqar Musayev küçəsi,+994 12 525 20 08,07:00 - 02:00,40.386593,49.975250,2236,"https://www.google.com/maps/dir/?api=1&origin=&destination=40.386593,49.975250&travelmode=driver",Super
BRAVO,Bravo Ramiz Qəmbərov küç.,"Bakıxanov qəsəbəsi, Ramiz Qəmbərov küçəsi 2566",+994 12 525 20 08,08:00 - 02:00,40.412334,49.954147,2236,"https://www.google.com/maps/dir/?api=1&origin=&destination=40.412334,49.954147&travelmode=driver",Super
BRAVO,Bravo Sumqayıt,Üzeyir Hacıbəyov küçəsi 2,+994 12 525 20 08,08:00 - 02:00,40.573364,49.691227,2236,"https://www.google.com/maps/dir/?api=1&origin=&destination=40.573364,49.691227&travelmode=driver",Super
BRAVO,Bravo Şövkət Məmmədova küç.,Şövkət Məmmədova küçəsi 2,+994 12 525 20 08,24/7,40.419731,49.846649,2236,"https://www.google.com/maps/dir/?api=1&origin=&destination=40.419731,49.846649&travelmode=driver",Super
BRAVO,Bravo 20-ci sahə,Şahlar Allahverdiyev küçəsi 6B,+994 12 525 20 08,24/7,40.329807,49.818363,2236,"https://www.google.com/maps/dir/?api=1&origin=&destination=40.329807,49.818363&travelmode=driver",Super
BRAVO,Bravo Lökbatan,"Lökbatan qəsəbəsi, 28 May küçəsi",+994 12 525 20 08,24/7,40.322475,49.732838,2236,"https://www.google.com/maps/dir/?api=1&origin=&destination=40.322475,49.732838&travelmode=driver",Super
BRAVO,Bravo Mirəsədulla Mirqasımov küç.,Mirəsədulla Mirqasımov küçəsi,+994 12 525 20 08,07:00 - 23:00,40.395706,49.840885,2235,"https://www.google.com/maps/dir/?api=1&origin=&destination=40.395706,49.840885&travelmode=driver",Market
BRAVO,Bravo Gəncə Mall,"Heydər Əliyev prospekti 433, Gəncə Mall 1-ci mərtəbə",+994 12 525 20 08,09:00 - 23:00,40.677006,46.359890,2235,"https://www.google.com/maps/dir/?api=1&origin=&destination=40.677006,46.359890&travelmode=driver",Market
BRAVO,Bravo Şüvəlan,"Şüvəlan qəsəbəsi, Polis Akademiyasının yaxınlığı",+994 12 525 20 08,,40.486343,50.166718,2236,"https://www.google.com/maps/dir/?api=1&origin=&destination=40.486343,50.166718&travelmode=driver",Super
BRAVO,Bravo Xırdalan,Heydər Əliyev prospekti,+994 12 525 20 08,07:00 - 02:00,40.450523,49.744705,2236,"https://www.google.com/maps/dir/?api=1&origin=&destination=40.450523,49.744705&travelmode=driver",Super
BRAVO,"Bravo ""Park Azure"" yaşayış kompleksi",Afiyəddin Cəlilov küçəsi 27A,+994 12 525 22 28,07:00 - 02:00,40.379177,49.875526,2236,"https://www.google.com/maps/dir/?api=1&origin=&destination=40.379177,49.875526&travelmode=driver",Super
BRAVO,Bravo Globus Center,Cəfər Cabbarlı küçəsi 609,+994 12 525 22 28,07:00 - 01:00,40.385128,49.828129,2236,"https://www.google.com/maps/dir/?api=1&origin=&destination=40.385128,49.828129&travelmode=driver",Super
BRAVO,Bravo Dəniz Mall,"Neftçilər prospekti 26A, Dəniz Mall 1-ci mərtəbəsi",+994 12 525 20 08,09:00 - 23:00 (only in summer 09:00 - 02:00),40.358597,49.838146,2236,"https://www.google.com/maps/dir/?api=1&origin=&destination=40.358597,49.838146&travelmode=driver",Super
BRAVO,"Bravo ""Sabah Residence"" yaşayış kompleksi",Xanlar Əliyev küçəsi 10,+994 12 525 20 08,07:00 - 23:00,40.350815,49.832806,2235,"https://www.google.com/maps/dir/?api=1&origin=&destination=40.350815,49.832806&travelmode=driver",Market
BRAVO,"Bravo ""Bağçalı şəhər"" yaşayış kompleksi","Sumqayıt şəhəri, Sülh küçəsi 20B",+994 12 525 20 08,08:00 - 23:00,40.574696,49.643204,2235,"https://www.google.com/maps/dir/?api=1&origin=&destination=40.574696,49.643204&travelmode=driver",Market
BRAVO,Bravo Zefir Mall,"Xarici Dairəvi Yol 8, Zefir Mall 1-ci mərtəbə",+994 12 525 20 08,09:00 - 23:00,40.376522,49.793922,2235,"https://www.google.com/maps/dir/?api=1&origin=&destination=40.376522,49.793922&travelmode=driver",Market
BRAVO,"Bravo ""Şokolad Tower"" yaşayış kompleksi",Həsən bəy Zərdabi prospekti,+994 12 525 20 08,07:00 - 02:00,40.380783,49.809059,2235,"https://www.google.com/maps/dir/?api=1&origin=&destination=40.380783,49.809059&travelmode=driver",Market
BRAVO,Bravo Əsəd Əhmədov küç.22,"Əsəd Əhmədov küçəsi, Xarici Dairəvi yol 22",+994 12 525 20 08,07:00 - 02:00,40.388050,49.787800,2235,"https://www.google.com/maps/dir/?api=1&origin=&destination=40.388050,49.787800&travelmode=driver",Market
BRAVO,Bravo Şüvəlan Park,Almas İldırım küçəsi 68,+994 12 525 20 08,09:00 - 23:00 (only in summer 09:00 - 00:00),40.484509,50.183918,2235,"https://www.google.com/maps/dir/?api=1&origin=&destination=40.484509,50.183918&travelmode=driver",Market
BRAVO,Bravo Gəncə Avtovağzal,Gəncə-Şəmkir şossesi sağ tərəfi,+994 12 525 20 08,08:00 - 23:00,40.701084,46.321404,2235,"https://www.google.com/maps/dir/?api=1&origin=&destination=40.701084,46.321404&travelmode=driver",Market
BRAVO,Bravo Amburan Mall,"Bilgəh qəsəbəsi, Amburan Mall 1-ci mərtəbəsi",+994 12 525 20 08,09:00 - 23:00 (only in summer 24/7),40.588303,50.058319,2235,"https://www.google.com/maps/dir/?api=1&origin=&destination=40.588303,50.058319&travelmode=driver",Market
BRAVO,"Bravo ""Şərifzadə Center"" yaşayış kompleksi",Abbas Mirzə Şərifzadə küçəsi 380A,+994 12 525 20 08,07:00 - 02:00,40.383671,49.804050,2236,"https://www.google.com/maps/dir/?api=1&origin=&destination=40.383671,49.804050&travelmode=driver",Super
BRAVO,Bravo Mir Cəlal küç.,"4-cü mkr, Mir Cəlal küçəsi 2A",+994 12 404 04 80,07:00-23:00,40.412987,49.804237,2235,"https://www.google.com/maps/dir/?api=1&origin=&destination=40.412987,49.804237&travelmode=driver",Market
BRAVO,Bravo Səməd Vurğun küç.,Səməd Vurğun küçəsi,+994 12 525 20 08,07:00 - 02:00,40.386280,49.837585,2236,"https://www.google.com/maps/dir/?api=1&origin=&destination=40.386280,49.837585&travelmode=driver",Super
BRAVO,Bravo A.M.Şərifzadə küç.,"Abbas Mirzə Şərifzadə Küçəsi 231-233, 2 saylı Bakı Tibb kollecinin yaxınlığında",+994 12 525 20 08,07:00 - 02:00,40.398560,49.801273,2235,"https://www.google.com/maps/dir/?api=1&origin=&destination=40.398560,49.801273&travelmode=driver",Market
BRAVO,Bravo Qış Parkı,"Məhəmməd Füzuli küçəsi, Qış parkı ilə üzbəüz",+994 12 525 20 08,24/7,40.376831,49.835712,2236,"https://www.google.com/maps/dir/?api=1&origin=&destination=40.376831,49.835712&travelmode=driver",Super
BRAVO,Bravo Babək pr.,"Babək prospekti 94, Sərhədçi İdman kompleksinin yaxınlığı",+994 12 404 04 80,07:00 - 02:00,40.394787,49.963158,2235,"https://www.google.com/maps/dir/?api=1&origin=&destination=40.394787,49.963158&travelmode=driver",Market
BRAVO,"Bravo ""Qəsr"" yaşayış kompleksi","Masazır qəsəbəsi, Əliağa Vahid küçəsi 281",+994 12 525 20 08,08:00 - 23:00,40.484016,49.757584,2235,"https://www.google.com/maps/dir/?api=1&origin=&destination=40.484016,49.757584&travelmode=driver",Market
BRAVO,Bravo Azadlıq pr.,"Nərimanov rayonu, Azadlıq prospekti 145",+994 12 404 04 80,24/7,40.401787,49.837296,2236,"https://www.google.com/maps/dir/?api=1&origin=&destination=40.401787,49.837296&travelmode=driver",Super
BRAVO,Bravo İstanbul Evləri,"Binəqədi rayonu, Əcəmi Naxçıvani küçəsi 39L",+994 12 404 04 80,07:00 - 02:00,40.416210,49.840031,2235,"https://www.google.com/maps/dir/?api=1&origin=&destination=40.416210,49.840031&travelmode=driver",Market
BRAVO,Bravo Fətəli xan Xoyski küç.,"Fətəli xan Xoyski küçəsi, 5 №-li xəstəxana yaxınlığı",+994 12 525 20 08,24/7,40.403156,49.864838,2236,"https://www.google.com/maps/dir/?api=1&origin=&destination=40.403156,49.864838&travelmode=driver",Super
BRAVO,"Bravo ""Renessance Palace"" yaşayış kompleksi",Zahid Xəlilov Küçəsi 576,+994 12 525 20 08,07:00 - 02:00,40.384518,49.812393,2235,"https://www.google.com/maps/dir/?api=1&origin=&destination=40.384518,49.812393&travelmode=driver",Market
BRAVO,"Bravo ""Park Xətai"" yaşayış kompleksi",Gəncə prospekti 2942A,+994 12 525 20 08,07:00 - 02:00,40.365807,49.959637,2235,"https://www.google.com/maps/dir/?api=1&origin=&destination=40.365807,49.959637&travelmode=driver",Market
BRAVO,"Bravo ""Whitestone"" yaşayış kompleksi",Qarabağ küçəsi 68,+994 12 525 20 08,07:00 - 02:00,40.391796,49.860645,2235,"https://www.google.com/maps/dir/?api=1&origin=&destination=40.391796,49.860645&travelmode=driver",Market
BRAVO,"Bravo ""Roseville"" yaşayış kompleksi",Kazım Kazımzadə küçəsi 30,+994 12 525 20 08,08:00 - 23:00,40.390942,49.849545,2235,"https://www.google.com/maps/dir/?api=1&origin=&destination=40.390942,49.849545&travelmode=driver",Market
BRAVO,Bravo Sabit Orucov küç.,Sabit Orucov küçəsi 13,+994 12 525 20 08,07:00 - 23:00,40.380573,49.866737,2235,"https://www.google.com/maps/dir/?api=1&origin=&destination=40.380573,49.866737&travelmode=driver",Market
BRAVO,"Bravo Yasamal ""Asan Xidmət""",Abbas Mirzə Şərifzadə küçəsi 66,+994 12 525 20 08,07:00 - 23:00,40.378220,49.804775,2235,"https://www.google.com/maps/dir/?api=1&origin=&destination=40.378220,49.804775&travelmode=driver",Market
BRAVO,Bravo Bakıxanov Mall,"Bakıxanov qəsəbəsi, Yavər Əliyev küçəsi 132",+994 12 525 20 08,08:00 - 23:00,40.432003,49.954494,2235,"https://www.google.com/maps/dir/?api=1&origin=&destination=40.432003,49.954494&travelmode=driver",Market
BRAVO,Bravo Elşən Süleymanov küç.,Elşən Süleymanov küçəsi 137A,+994 12 525 20 08,08:00 - 02:00,40.409325,49.956383,2238,"https://www.google.com/maps/dir/?api=1&origin=&destination=40.409325,49.956383&travelmode=driver",Ekspres
BRAVO,Bravo Yavər Əliyev küç.,Yavər Əliyev küçəsi 10,+994 12 525 20 08,08:00 - 23:00,40.437290,49.959236,2235,"https://www.google.com/maps/dir/?api=1&origin=&destination=40.437290,49.959236&travelmode=driver",Market
BRAVO,Bravo Təbriz küç.,Təbriz küçəsi 41,+994 12 525 20 08,06:00 - 02:00,40.393024,49.857925,2235,"https://www.google.com/maps/dir/?api=1&origin=&destination=40.393024,49.857925&travelmode=driver",Market
BRAVO,Bravo Bilgəh,"Nardaran qəsəbəsi, Azərbaycan Qadını küçəsi",+994 12 525 20 08,09:00 - 23:00 (only in summer 24/7),40.554775,50.022442,2235,"https://www.google.com/maps/dir/?api=1&origin=&destination=40.554775,50.022442&travelmode=driver",Market
BRAVO,Bravo Adil İsgəndərov küç.,"Gəncə şəhəri, Adil İsgəndərov küçəsi 2",+994 12 525 20 08,24/7,40.677341,46.371674,2235,"https://www.google.com/maps/dir/?api=1&origin=&destination=40.677341,46.371674&travelmode=driver",Market
BRAVO,Bravo Adil Məmmədov küç.,Adil Məmmədov küçəsi 42C,+994 12 525 20 08,08:00 - 23:00,40.421795,49.809044,2235,"https://www.google.com/maps/dir/?api=1&origin=&destination=40.421795,49.809044&travelmode=driver",Market
BRAVO,Bravo Xəqani küç.,Xaqani küçəsi 26/32,+994 12 525 20 08,07:00-02:00,40.374973,49.850178,2238,"https://www.google.com/maps/dir/?api=1&origin=&destination=40.374973,49.850178&travelmode=driver",Ekspres
BRAVO,Bravo Bülbül küç.,Bülbül prospekti 18,+994 12 525 20 08,24/7,40.374413,49.843643,2238,"https://www.google.com/maps/dir/?api=1&origin=&destination=40.374413,49.843643&travelmode=driver",Ekspres
BRAVO,"Bravo ""Life Center"" yaşayış kompleksi","Nərimanov rayonu, Əhməd Rəcəbli prospekti",+994 12 525 20 08,07:00 - 02:00,40.403027,49.867691,2238,"https://www.google.com/maps/dir/?api=1&origin=&destination=40.403027,49.867691&travelmode=driver",Ekspres
BRAVO,Bravo Sabunçu,"Sabunçu qəsəbəsi, №3 xəstəxana yaxınlığı",+994 12 525 20 08,07:00 - 00:00,40.443058,49.942692,2238,"https://www.google.com/maps/dir/?api=1&origin=&destination=40.443058,49.942692&travelmode=driver",Ekspres
BRAVO,"Bravo ""Rahatlıq məkanı"" yaşayış kompleksi",Əlif Hacıyev küçəsi,+994 12 525 20 08,07:00 - 02:00,40.416355,49.933159,2235,"https://www.google.com/maps/dir/?api=1&origin=&destination=40.416355,49.933159&travelmode=driver",Market
BRAVO,Bravo Axundov parkı,Əhməd Cavad küçəsi 3,+994 12 525 20 08,07:00-07:00,40.368645,49.830395,2238,"https://www.google.com/maps/dir/?api=1&origin=&destination=40.368645,49.830395&travelmode=driver",Ekspres
BRAVO,"Bravo ""Azinko"" yaşayış kompleksi",Əliyar Əliyev küçəsi 26,+994 12 525 20 08,07:00 - 02:00,40.406548,49.876183,2238,"https://www.google.com/maps/dir/?api=1&origin=&destination=40.406548,49.876183&travelmode=driver",Ekspres
BRAVO,Bravo M.K.Atatürk pr.,Mustafa Kamal Atatürk prospekti 27,+994 12 525 20 08,24/7,40.408398,49.847549,2238,"https://www.google.com/maps/dir/?api=1&origin=&destination=40.408398,49.847549&travelmode=driver",Ekspres
BRAVO,"Bravo ""Bakı Tennis Akademiyası""","8-ci mkr, İbrahimpaşa Dadaşov küçəsi",+994 12 525 20 08,07:00 - 02:00,40.422466,49.842594,2238,"https://www.google.com/maps/dir/?api=1&origin=&destination=40.422466,49.842594&travelmode=driver",Ekspres
BRAVO,Bravo Məhəmməd Xiyabani küç.,Məhəmməd Xiyabani küçəsi 202A,+994 12 525 20 08,07:00 - 00:00,40.399067,49.792599,2238,"https://www.google.com/maps/dir/?api=1&origin=&destination=40.399067,49.792599&travelmode=driver",Ekspres
BRAVO,Bravo Sumqayıt Dəmiryol st.,Sumqayıt Dəmiryolu stanstiyası,+994 12 525 20 08,06:30 - 00:00,40.561970,49.681252,2238,"https://www.google.com/maps/dir/?api=1&origin=&destination=40.561970,49.681252&travelmode=driver",Ekspres
BRAVO,Bravo Hüseyn Seyidzadə küç.,Hüseyn Seyidzadə küçəsi 56,+994 12 525 20 08,07:00 - 23:00,40.415878,49.819038,2238,"https://www.google.com/maps/dir/?api=1&origin=&destination=40.415878,49.819038&travelmode=driver",Ekspres
BRAVO,Bravo Xalqlar Dostluğu m/s,Bəhruz Nuriyev küçəsi 2383,+994 12 525 20 08,07:00 - 00:00,40.402592,49.955204,2238,"https://www.google.com/maps/dir/?api=1&origin=&destination=40.402592,49.955204&travelmode=driver",Ekspres
BRAVO,Bravo Cəmşid Naxçıvanski küç.,Cəmşid Naxçıvanski küçəsi 51,+994 12 525 20 08,00:00 - 00:00,40.406052,49.949257,2238,"https://www.google.com/maps/dir/?api=1&origin=&destination=40.406052,49.949257&travelmode=driver",Ekspres
BRAVO,Bravo Binəqədi,"Binəqədi rayonu, Xarici Dairəvi küçəsi 16C",+994 12 525 20 08,08:00 -23:00,40.430470,49.850700,2238,"https://www.google.com/maps/dir/?api=1&origin=&destination=40.430470,49.850700&travelmode=driver",Ekspres
BRAVO,Bravo Gəncə Dəmiryol st.,Zülfü Hacıyev küçəsi 8,+994 12 525 20 08,08:00 - 22:00,40.713882,46.367138,2238,"https://www.google.com/maps/dir/?api=1&origin=&destination=40.713882,46.367138&travelmode=driver",Ekspres
BRAVO,Bravo Sabunçu Dəmiryol st.,Əsildar Məmmədəliyev küçəsi,+994 12 525 20 08,07:00 - 23:00,40.446301,49.946194,2238,"https://www.google.com/maps/dir/?api=1&origin=&destination=40.446301,49.946194&travelmode=driver",Ekspres
BRAVO,Bravo Gəncə pr.,"Əhmədli qəsəbəsi, Gəncə prospekti",+994 12 525 20 08,07:00 - 23:00,40.358143,49.961662,2238,"https://www.google.com/maps/dir/?api=1&origin=&destination=40.358143,49.961662&travelmode=driver",Ekspres
BRAVO,Bravo Əbdülvahab Salamzadə küç.,Əbdülvahab Salamzadə küçəsi 7,+994 12 525 20 08,07:00 - 02:00,40.393284,49.810108,2238,"https://www.google.com/maps/dir/?api=1&origin=&destination=40.393284,49.810108&travelmode=driver",Ekspres
BRAVO,Bravo Zahid Xəlilov küç.,Zahid Xəlilov küçəsi 568,+994 12 525 20 08,07:00 - 02:00,40.379364,49.811714,2238,"https://www.google.com/maps/dir/?api=1&origin=&destination=40.379364,49.811714&travelmode=driver",Ekspres
BRAVO,"Bravo ""Rifah Plaza"" yaşayış kompleksi",Mirəsədulla Mirqasımov küçəsi 8,+994 12 525 20 08,07:00 - 00:00,40.394775,49.838371,2238,"https://www.google.com/maps/dir/?api=1&origin=&destination=40.394775,49.838371&travelmode=driver",Ekspres
BRAVO,Bravo 20 Yanvar küç.,"Nəsimi rayonu, 20 Yanvar Küçəsi",+994 12 525 20 08,07:00 - 23:00,40.412437,49.809032,2238,"https://www.google.com/maps/dir/?api=1&origin=&destination=40.412437,49.809032&travelmode=driver",Ekspres
BRAVO,Bravo Sahil m/s,Xəqani küçəsi 21,+994 12 525 20 08,07:00 - 02:00,40.373371,49.844433,2238,"https://www.google.com/maps/dir/?api=1&origin=&destination=40.373371,49.844433&travelmode=driver",Ekspres
BRAVO,Bravo Ceyhun Hacıbəyli küç.,Ceyhun Hacıbəyli küçəsi 8,+994 12 525 20 08,07:00 - 02:00,40.385174,49.848789,2238,"https://www.google.com/maps/dir/?api=1&origin=&destination=40.385174,49.848789&travelmode=driver",Ekspres
BRAVO,Bravo Svetlana Məmmədova küç.,Svetlana Məmmədova küçəsi 122,+994 12 525 20 08,07:00 - 02:00,40.424446,49.823261,2238,"https://www.google.com/maps/dir/?api=1&origin=&destination=40.424446,49.823261&travelmode=driver",Ekspres
BRAVO,"Bravo ""Park Bayıl"" yaşayış kompleksi",Qurban Abbasov küçəsi 27,+994 12 525 20 08,07:00 - 23:00,40.344589,49.838936,2238,"https://www.google.com/maps/dir/?api=1&origin=&destination=40.344589,49.838936&travelmode=driver",Ekspres
BRAVO,"Bravo ""Sea Breeze"" yaşayış kompleksi","Nardaran qəsəbəsi, ""Sea Breeze"" yaşayış kompleksi",+994 12 525 20 08,24/7,40.587234,49.985023,2238,"https://www.google.com/maps/dir/?api=1&origin=&destination=40.587234,49.985023&travelmode=driver",Ekspres
BRAVO,Bravo 20 Yanvar m/s,Həsən bəy Zərdabi prospekti 811,+994 12 525 20 08,07:00 - 23:00,40.403976,49.806622,2238,"https://www.google.com/maps/dir/?api=1&origin=&destination=40.403976,49.806622&travelmode=driver",Ekspres
BRAVO,Bravo Azərbaycan pr.,Azərbaycan prospekti 23,+994 12 525 20 08,07:00 - 00:00,40.372826,49.832901,2238,"https://www.google.com/maps/dir/?api=1&origin=&destination=40.372826,49.832901&travelmode=driver",Ekspres
BRAVO,Bravo Əliəşrəf Əlizadə küç.,Əliəşrəf Əlizadə küçəsi 65,+994 12 525 20 08,07:00 - 23:00,40.411240,49.870834,2238,"https://www.google.com/maps/dir/?api=1&origin=&destination=40.411240,49.870834&travelmode=driver",Ekspres
BRAVO,Bravo Cavadxan küç.,Cavadxan küçəsi 4A,+994 12 525 20 08,07:00 - 23:00,40.419746,49.818203,2238,"https://www.google.com/maps/dir/?api=1&origin=&destination=40.419746,49.818203&travelmode=driver",Ekspres
BRAVO,Bravo Bəşir Səfəroğlu küç.,Təbriz Xəlilbəyli küçəsi 31A,+994 12 525 20 08,24/7,40.373669,49.833820,2238,"https://www.google.com/maps/dir/?api=1&origin=&destination=40.373669,49.833820&travelmode=driver",Ekspres
BRAVO,Bravo Bəkir Çobanzadə küç.,Bəkir Çobanzada küçəsi 46A,+994 12 525 20 08,07:00 - 23:00,40.411163,49.931221,2238,"https://www.google.com/maps/dir/?api=1&origin=&destination=40.411163,49.931221&travelmode=driver",Ekspres
BRAVO,"Bravo ""Park City"" yaşayış kompleksi",Rüstəm Rüstəmov küçəsi 72A,+994 12 525 20 08,08:00 - 22:00,40.410393,49.950638,2238,"https://www.google.com/maps/dir/?api=1&origin=&destination=40.410393,49.950638&travelmode=driver",Ekspres
BRAVO,Bravo Akim Abbasov küç.,General Akim Abbasov küçəsi 1,+994 12 525 20 08,07:00 - 00:00,40.385593,49.804523,2238,"https://www.google.com/maps/dir/?api=1&origin=&destination=40.385593,49.804523&travelmode=driver",Ekspres
BRAVO,Bravo Sabit Rəhman küç.,Sabit Rəhman küçəsi 82B,+994 12 525 20 08,07:00 - 23:00,40.399803,49.833710,2238,"https://www.google.com/maps/dir/?api=1&origin=&destination=40.399803,49.833710&travelmode=driver",Ekspres
BRAVO,Bravo Məhəmməd Hadi küç. 136,Məhəmməd Hadi küçəsi 136A,+994 12 525 20 08,07:00 - 23:00,40.390984,49.953701,2238,"https://www.google.com/maps/dir/?api=1&origin=&destination=40.390984,49.953701&travelmode=driver",Ekspres
BRAVO,"Bravo ""Çinar Park"" yaşayış kompleksi",Ziya Bünyadov prospekti 1965,+994 12 525 20 08,07:00 - 23:00,40.415352,49.857815,2238,"https://www.google.com/maps/dir/?api=1&origin=&destination=40.415352,49.857815&travelmode=driver",Ekspres
BRAVO,Bravo M.F.Axundov küç.,Mirzə Fətəli Axundov küçəsi 179,+994 12 525 20 08,08:00 - 02:00,40.383011,49.825718,2238,"https://www.google.com/maps/dir/?api=1&origin=&destination=40.383011,49.825718&travelmode=driver",Ekspres
BRAVO,Bravo Nəsimi küç.,"Nizami rayonu, Nəsimi küçəsi 214",+994 12 525 20 08,07:00 - 23:00,40.414333,49.945320,2238,"https://www.google.com/maps/dir/?api=1&origin=&destination=40.414333,49.945320&travelmode=driver",Ekspres
BRAVO,Bravo Süleyman Vəzirov küç.,Xocalı Prospekti 29,+994 12 525 20 08,07:00 - 02:00,40.383778,49.870468,2238,"https://www.google.com/maps/dir/?api=1&origin=&destination=40.383778,49.870468&travelmode=driver",Ekspres
BRAVO,Bravo Səttar Bəhlulzadə küç.,Səttar Bəhlulzadə küçəsi 1,+994 12 525 20 08,07:00 - 00:00,40.413254,49.837021,2238,"https://www.google.com/maps/dir/?api=1&origin=&destination=40.413254,49.837021&travelmode=driver",Ekspres
BRAVO,Bravo A.Bakıxanov küç.,Abbasqulu ağa Bakıxanov küçəsi 35-37,+994 12 525 20 08,07:00 - 23:00,40.390858,49.845531,2238,"https://www.google.com/maps/dir/?api=1&origin=&destination=40.390858,49.845531&travelmode=driver",Ekspres
BRAVO,Bravo S.Ə.Şirvani küç.,Seyid Əzim Şirvani küçəsi 29,+994 12 525 20 08,07:00 - 00:00,40.392990,49.959721,2238,"https://www.google.com/maps/dir/?api=1&origin=&destination=40.392990,49.959721&travelmode=driver",Ekspres
BRAVO,Bravo Xan Şuşinski küç.,Xan Şuşinski küçəsi,+994 12 525 20 08,07:00 - 00:00,40.398853,49.836044,2238,"https://www.google.com/maps/dir/?api=1&origin=&destination=40.398853,49.836044&travelmode=driver",Ekspres
BRAVO,"Bravo ""Gülüstan Residence"" yaşayış kompleksi",Bülbül prospekti 60,+994 12 525 20 08,07:00 - 00:00,40.380642,49.841648,2238,"https://www.google.com/maps/dir/?api=1&origin=&destination=40.380642,49.841648&travelmode=driver",Ekspres
BRAVO,Bravo Cəlil Məmmədquluzadə küç.,Cəlil Məmmədquluzadə küçəsi 998,+994 12 525 20 08,07:00 - 23:00,40.395691,49.829384,2238,"https://www.google.com/maps/dir/?api=1&origin=&destination=40.395691,49.829384&travelmode=driver",Ekspres
BRAVO,Bravo İbrahimpaşa Dadaşov küç.,İbrahimpaşa Dadaşov küçəsi 57,+994 12 525 20 08,07:00 - 23:00,40.411991,49.843002,2238,"https://www.google.com/maps/dir/?api=1&origin=&destination=40.411991,49.843002&travelmode=driver",Ekspres
BRAVO,Bravo A.M.Şərifzadə küç. 301,Abbas Mirzə Şərifzadə küçəsi 301A,+994 12 525 20 08,07:00 - 23:00,40.391216,49.802288,2238,"https://www.google.com/maps/dir/?api=1&origin=&destination=40.391216,49.802288&travelmode=driver",Ekspres
BRAVO,Bravo Həzi Aslanov m/s,Məhəmməd Hadi küçəsi 76,+994 12 525 20 08,07:00 - 02:00,40.373547,49.953789,2238,"https://www.google.com/maps/dir/?api=1&origin=&destination=40.373547,49.953789&travelmode=driver",Ekspres
BRAVO,Bravo Hüseyn Cavid pr.,Hüseyn Cavid prospekti 55,+994 12 525 20 08,07:00 - 00:00,40.377781,49.815750,2238,"https://www.google.com/maps/dir/?api=1&origin=&destination=40.377781,49.815750&travelmode=driver",Ekspres
BRAVO,"Bravo ""Ağ şəhər"" yaşayış kompleksi",Xəqani Rüstəmov küçəsi 23,+994 12 525 20 08,07:00 - 23:00,40.382687,49.880829,2238,"https://www.google.com/maps/dir/?api=1&origin=&destination=40.382687,49.880829&travelmode=driver",Ekspres
BRAVO,Bravo Zərifə Əliyeva küç.,Zərifə Əliyeva prospekti 55,+994 12 525 20 08,07:00 - 00:00,40.375481,49.857346,2238,"https://www.google.com/maps/dir/?api=1&origin=&destination=40.375481,49.857346&travelmode=driver",Ekspres
BRAVO,Bravo Nəsib bəy Yusifbəyli küç.,Nəsib bəy Yusifbəyli küçəsi 74,+994 12 525 20 08,07:00 - 00:00,40.398125,49.840244,2238,"https://www.google.com/maps/dir/?api=1&origin=&destination=40.398125,49.840244&travelmode=driver",Ekspres
BRAVO,"Bravo ""Zümrüd Residence"" yaşayış kompleksi",Ələsgər Hüseynov küçəsi 5,+994 12 525 20 08,08:00 - 23:00,40.397938,49.862251,2238,"https://www.google.com/maps/dir/?api=1&origin=&destination=40.397938,49.862251&travelmode=driver",Ekspres
BRAVO,Bravo Mehdi Hüseynzadə küç.,"Xırdalan şəhəri, Mehdi Hüseynzadə küçəsi 26",+994 12 525 20 08,07:00 - 00:00,40.459766,49.744411,2238,"https://www.google.com/maps/dir/?api=1&origin=&destination=40.459766,49.744411&travelmode=driver",Ekspres
BRAVO,Bravo Özbəkistan küç.,"Nizami rayonu, Mehdi Abbasov küçəsi 15A",+994 12 525 20 08,07:00 - 23:00,40.414879,49.927147,2238,"https://www.google.com/maps/dir/?api=1&origin=&destination=40.414879,49.927147&travelmode=driver",Ekspres
BRAVO,Bravo Ağa Nemətulla küç.,Ağa Nemətulla küçəsi 209,+994 12 525 20 08,07:00 - 02:00,40.407623,49.868450,2238,"https://www.google.com/maps/dir/?api=1&origin=&destination=40.407623,49.868450&travelmode=driver",Ekspres
BRAVO,"Bravo ""Qurtuluş"" yaşayış kompleksi -1","Masazır qəsəbəsi, İstiqlaliyyət küçəsi",+994 12 525 20 08,07:00 - 23:00,40.490860,49.754726,2238,"https://www.google.com/maps/dir/?api=1&origin=&destination=40.490860,49.754726&travelmode=driver",Ekspres
BRAVO,Bravo Səid Rüstəmov küç.,"Səbail rayonu, Həsən Abdullayev küçəsi",+994 12 525 20 08,07:00 - 00:00,40.368454,49.829170,2238,"https://www.google.com/maps/dir/?api=1&origin=&destination=40.368454,49.829170&travelmode=driver",Ekspres
BRAVO,Bravo Hövsan,"Hövsan qəsəbəsi, İlqar Əhlimanov küçasi 159D",+994 12 525 20 08,07:00 - 23:00,40.360592,50.078354,2238,"https://www.google.com/maps/dir/?api=1&origin=&destination=40.360592,50.078354&travelmode=driver",Ekspres
BRAVO,Bravo Xırdalan -2,"Xırdalan şəhəri, Heydər Əliyev prospekti 240",+994 12 525 20 08,08:00 - 02:00,40.455780,49.736412,2238,"https://www.google.com/maps/dir/?api=1&origin=&destination=40.455780,49.736412&travelmode=driver",Ekspres
BRAVO,Bravo Üzeyir Hacıbəyov küç.,"Səbail rayonu, Səməd Vurğun küçəsi 3",+994 12 525 20 08,24/7,40.371468,49.842682,2238,"https://www.google.com/maps/dir/?api=1&origin=&destination=40.371468,49.842682&travelmode=driver",Ekspres
BRAVO,Bravo Əhmədli m/s,"Xətai rayonu, Məhəmməd Hadi küçəsi182",+994 12 525 20 08,07:00-02:00,40.385784,49.953472,2238,"https://www.google.com/maps/dir/?api=1&origin=&destination=40.385784,49.953472&travelmode=driver",Ekspres
BRAVO,Bravo Maştağa,"Maştağa qəsəbəsi, Nizami küçəsi 97",+994 12 525 20 08,08:00 - 23:00,40.531670,49.991234,2238,"https://www.google.com/maps/dir/?api=1&origin=&destination=40.531670,49.991234&travelmode=driver",Ekspres
BRAVO,Bravo Buzovna,"Mərdəkan qəsəbəsi, Buzovna-Mərdəkan yolu",,08:00 - 23:00,40.511261,50.140347,2238,"https://www.google.com/maps/dir/?api=1&origin=&destination=40.511261,50.140347&travelmode=driver",Ekspres
BRAVO,Bravo Binəqədi şossesi,"Binəqədi qəsəbəsi, Binəqədi şossesi, 1-ci küçə",,08:00 - 23:00,40.449390,49.843666,2235,"https://www.google.com/maps/dir/?api=1&origin=&destination=40.449390,49.843666&travelmode=driver",Market
BRAVO,Bravo Tovuz,"Tovuz şəhəri, Həzi Aslanov küçəsi",,08:00 - 23:00,40.991013,45.615772,2235,"https://www.google.com/maps/dir/?api=1&origin=&destination=40.991013,45.615772&travelmode=driver",Market
BRAVO,"Bravo Premium ""Sea Breeze""","Nardaran qəsəbəsi, “Sea Breeze” istirahət və yaşayış kompleksi",,7/24,40.588493,49.987320,,"https://www.google.com/maps/dir/?api=1&origin=&destination=40.588493,49.987320&travelmode=driver",Premium
BRAVO,"Bravo ""AAAF Park"" yaşayış kompleksi","H.Əliyev prospekti 167,  AAAF park yasayis kompleksi 28 saylı küçə, bina 5",,07:00 - 23:00,40.459625,49.720074,2238,"https://www.google.com/maps/dir/?api=1&origin=&destination=40.459625,49.720074&travelmode=driver",Ekspres
BRAVO,Bravo İsmayıl Hidayətzadə,"Nərimanov rayonu, İsmayıl Hidayətzadə küçəsi ev 130",,7/24,40.393917,49.872150,2235,"https://www.google.com/maps/dir/?api=1&origin=&destination=40.393917,49.872150&travelmode=driver",Market
BRAVO,Bravo Xırdalan H.Əliyev pr-2,"Xırdalan şəhəri, H.Əliyev prospekti 263",,07:00 - 00:00,40.463448,49.724785,2235,"https://www.google.com/maps/dir/?api=1&origin=&destination=40.463448,49.724785&travelmode=driver",Market
BRAVO,Bravo Qədir Məmmədov,"Xətai rayonu, Qədir Məmmədov 40",,08:00 - 02:00,40.368393,49.948143,2235,"https://www.google.com/maps/dir/?api=1&origin=&destination=40.368393,49.948143&travelmode=driver",Market
BRAVO,Bravo A.Abbaszadə küç.,"Badamdar qəsəbəsi, Abbasqulu Abbaszadə küçəsi 59 A",,08:00 - 23:00,40.355026,49.816319,2238,"https://www.google.com/maps/dir/?api=1&origin=&destination=40.355026,49.816319&travelmode=driver",Ekspres
BRAVO,Bravo Xudu Məmmədov,"Xətai rayonu, Əhmədli qəsəbəsi, Xudu Məmmədov küçəsi",,8:00-23:00,0.000000,0.000000,2235,"https://www.google.com/maps/dir/?api=1&origin=&destination=0.000000,0.000000&travelmode=driver",Market
BRAVO,Bravo Qala yolu,"Qala qəsəbəsi, 3 Nömrəli Zeytun Savxozunun ərazisi",,07:00 - 23:00,40.456032,50.142788,2235,"https://www.google.com/maps/dir/?api=1&origin=&destination=40.456032,50.142788&travelmode=driver",Market
BRAVO,Bravo Afiyəddin Cəlilov,,,07:00-02:00,40.377525,49.865719,2238,"https://www.google.com/maps/dir/?api=1&origin=&destination=40.377525,49.865719&travelmode=driver",Ekspres
BRAVO,Bravo Lənkəran,"Lənkəran rayonu, Şilavar kəndi",,08:00 - 23:00,38.757114,48.833950,2236,"https://www.google.com/maps/dir/?api=1&origin=&destination=38.757114,48.833950&travelmode=driver",Super
BRAVO,Bravo Almas İldırım,,,07:00-02:00,40.486629,50.169556,2235,"https://www.google.com/maps/dir/?api=1&origin=&destination=40.486629,50.169556&travelmode=driver",Market
BRAVO,Bravo Şamaxı,"Şamaxı şəhəri, Məmməd Əmin Rəsulzadə küçəsi 28,30",,24/7,40.641991,48.635811,2235,"https://www.google.com/maps/dir/?api=1&origin=&destination=40.641991,48.635811&travelmode=driver",Market
BRAVO,Bravo Göyçay,"Göyçay şəhəri, Nizami küçəsi 214 A",,24/7,40.651539,47.750381,2235,"https://www.google.com/maps/dir/?api=1&origin=&destination=40.651539,47.750381&travelmode=driver",Market
BRAVO,Bravo Zirə,"Zirə qəsəbəsi, Cəlal Əliyev küçəsi",,08:00 - 23:00,40.382217,50.287785,2238,"https://www.google.com/maps/dir/?api=1&origin=&destination=40.382217,50.287785&travelmode=driver",Ekspres
BRAVO,Bravo Lənkəran Dosa Mall,"Lənkəran şəhəri, Dosa Mall, Fikrət Məmmədov küçəsi 23",,08:00 - 23:00,38.754219,48.852238,2235,"https://www.google.com/maps/dir/?api=1&origin=&destination=38.754219,48.852238&travelmode=driver",Market
BRAVO,Bravo Şuşa,"Şuşa şəhəri, Əhməd bəy Ağaoğlu küçəsi",+994 12 404 27 16,8:00-22:00,39.753689,46.742970,2238,"https://www.google.com/maps/dir/?api=1&origin=&destination=39.753689,46.742970&travelmode=driver",Ekspres
BRAVO,Bravo İsmayıllı,"İsmayıllı şəhəri, Nizami Gəncəvi küçəsi",+994 12 404 27 16,08:00-23:00,40.788719,48.172428,2235,"https://www.google.com/maps/dir/?api=1&origin=&destination=40.788719,48.172428&travelmode=driver",Market
BRAVO,Bravo- City Park Mall,"Ağ şəhər, Babək prospekti və Süleyman Vəzirov küçəsinin kəsişməsi",+994 12 404 27 16,9:00-22:00,40.389160,49.890148,2235,"https://www.google.com/maps/dir/?api=1&origin=&destination=40.389160,49.890148&travelmode=driver",Market
ARAZ,Araz Azadlıq,"Binəqədi rayon, 8 mkr, İbrahimpaşa Dadaşov küçəsi 91",055-515-85-01,08:00 - 23:00,40.424877,49.842583,,,
ARAZ,Araz Günəşli-7,"Suraxanı ray., Yeni Günəşli qəs, Baku",924,08:00 - 23:00,40.3713,49.978374,,,
ARAZ,Araz Günəşli-8,"128 İnqilab İsmayılov, Baku",924,08:00 - 23:00,40.359932,49.97031,,,
ARAZ,Araz Əhmədli-10,"Bakı ş.,Xətai r-nu, Məhəmməd Hadi ev. 2337-ci məhəllə",924,08:00 - 23:00,40.381763,49.953346,,,
ARAZ,Araz Xətai-4,Bakı şəh. Xətai ray.Xəqani Rüstəmov ev 21m,924,08:00 - 23:00,40.38356,49.880394,,,
ARAZ,Araz Qaraçuxur,"Suraxanı rayonu, A.Alicanov küçəsi 17",055-515-85-02,07:30 - 23:00,40.401577,49.978172,,,
ARAZ,Araz Neftçilər,"Nizami rayonu, Şərifli küçəsi 25",055-515-85-03,24\7,40.413345,49.949493,,,
ARAZ,Araz Olimpik Supermarket,"Nəsimi rayonu, Mərdanov qardaşları 137",055-515-85-04,24\7,40.401173,49.831348,,,
ARAZ,Araz Elmlər,"Yasamal rayonu, Şəhriyar küçəsi, 6 nömrəli binanın 1-ci mərtəbəsi",055-515-85-05,07:00 - 23:00,40.377277,49.810387,,,
ARAZ,Araz Xırdalan-1,"Xırdalan şəhəri, Mehdi Hüseynzadə küçəsi",055-515-85-07,07:00  - 00:00,40.455425,49.740528,,,
ARAZ,Araz Xəzər-1,"Xətai rayonu, Əhmədli qəsəbəsi, Gəncə prospekti",055-515-85-08,07:00 - 23:00,40.362541,49.961208,,,
ARAZ,Araz Buzovna-1,"Xəzər rayonu, Buzovna qəsəbəsi, Heydər Eyvazov küçəsi 47",055-515-85-11,07:00 - 02:00,40.516827,50.102386,,,
ARAZ,Araz Binə-1,"Xəzər rayonu, Binə qəsəbəsi,  Ə.İsazadə küçəsi 5",055-515-85-13,07:00 - 23:00,40.45015,50.087662,,,
ARAZ,Araz Günəşli-1,"Suraxani rayonu, Yeni Günəşli qəsəbəsi",055-515-85-14,07:30 - 23:00,40.383633,49.982338,,,
ARAZ,Araz Statistika,"Yasamal rayonu, İnşaatçılar prospekti 31",055-515-85-17,24\7,40.383541,49.823162,,,
ARAZ,Araz Savalan,"Sabunçu rayonu, Maştağa qəsəbəsi, Zabrat - Maştağa şossesinin sağ tərəfində 27 saylı sahə",055-515-85-16,07:00 - 02:00,40.507488,49.975842,,,
ARAZ,Araz Sumqayıt-1,"Sumqayıt şəhəri, 32-ci məhəllə",055-515-85-18,08:00 - 23:00,40.590523,49.674782,,,
ARAZ,Araz Masazır-1,"Masazır qəsəbəsi, Əliağa Vahid küçəsi",055-515-85-19,07:00 - 00:00,40.458031,49.756222,,,
ARAZ,Araz Nərimanov-1,"Nərimanov rayonu, 1936-cı məhəllə, Ağa Nemətulla",055-515-85-20,24\7,40.396942,49.878723,,,
ARAZ,Araz-20 Yanvar-1,"Nəsimi rayonu, Tbilisi prospekti, Alatava 2",055-515-85-22,24\7,40.398094,49.814079,,,
ARAZ,Spar C.Hacıbəyli,"Nərimanov rayonu, Bakıxanov k.  məhəllə 758-59",055-515-85-23,08:00 - 00:00,40.390354,49.846695,,,
ARAZ,Araz Masazır-2,"Abşeron rayonu, Masazır qəsəbəsi, , Əliağa Vahid küçəsi",055-515-85-24,24\7,40.478794,49.753513,,,
ARAZ,Araz Qaraçuxur-2,"Suraxanı rayonu, Qaraçuxur qəsəbəsi, Yusub Ayvazov küçəsi 2C",055-515-85-25,07:00 - 23:00,40.392796,49.981812,,,
ARAZ,Araz Bakıxanov-2,"Sabunçu rayonu, Bakıxanov qəsəbəsi, Nizami İsmayılov küçəsi, 59 nömrəli  bina",055-515-85-27,07:00 - 23:00,40.423592,49.969093,,,
ARAZ,Araz Nərimanov-2,"Nərimanov rayonu, Ağa Nemətulla küçəsi,  ev 70a",055-515-85-29,07:00 - 23:00,40.408989,49.86784,,,
ARAZ,Araz Şüvəlan,"Xəzər rayonu,  Şüvələn qəsəbəsi,  A.İldırım küçəsi 11 ",055-515-85-30,07:00 - 02:00,40.487041,50.169903,,,
ARAZ,Araz Şamaxı-1,Şamaxı Şəhəri S.Ə.Şirvani 84 A,924,08:00-23:00,40.625885,48.647251,,,
ARAZ,Araz Qarayev-2,Qara Qarayev prokspekti 1/10,055-515-85-32,24\7,40.419823,49.925358,,,
ARAZ,Araz Binə-7,"Xəzər rayonu, Binə ŞTQ, Hövsan Südçülük Sovxoz, ev 56.",924,08:00-23:00,40.42675,50.111225,,,
ARAZ,Araz Mehdiabad-1,"Abşeron rayonu, Mehdiabad qəsəbəsi, Fatmai şossesi",055-515-85-33,07:00 - 23:00,40.495823,49.855896,,,
ARAZ,Araz Hövsan-5,"Bakı şəh, Suraxanı ray, Hövsan qəs, İ.Əhlimanov küç . 114",924,08:00-23:00,40.360092,50.076019,,,
ARAZ,Araz Binəqədi-1,"Binəqədi rayonu, Binəqədi ŞTQ 2-ci mədən",055-515-85-36,07:00 - 23:00,40.472164,49.834324,,,
ARAZ,Araz Yasamal 3,"Yasamal rayonu, H.Zərdabi prospekti, 593-cü məhəllə ",055-515-85-37,08:00 - 23:00,40.385921,49.808319,,,
ARAZ,Araz Zığ-1,"Bakı Şəhəri, Xətai Rayonu, Naximov küçəsi",924,08:00-23:00,40.342697,49.968891,,,
ARAZ,Araz Hövsan Ekspress,"Suraxanı rayonu, Hövsan qəsəbəsi, İ.Əhlimanov küçəsi 225",055-515-85-40,07:30 - 02:00,40.360741,50.080055,,,
ARAZ,Araz Binə-6,Bakı Şəhəri Xəzər Rayonu Binə ŞTQ ev.29-cu Binə küçəsi m 79,924,08:00-23:00,40.465946,50.081497,,,
ARAZ,Araz Məhəmmədi,"Abşeron rayonu, Məhəmmədi kəndi, GöyQurşağı-Məmmədli yaşayış kompleksi, bina1",055-515-85-41,24\7,40.511566,49.941521,,,
ARAZ,Araz Zabitlər Parkı,Bakı Şəhəri Nəsimi Rayonu Mərdanov Qardaşları ev 156 A,924,08:00-23:00,40.386452,49.835487,,,
ARAZ,Araz Şuşa-1 (Suraxanı),"Suraxanı rayonu, Bülbülə qəsəbəsi, Samir Əliyev küçəsi",055-515-85-43,07:00 - 23:00,40.449623,50.00983,,,
ARAZ,Araz Qəbələ-1,Qəbələ Rayonu Zarağan,924,08:00-23:00,40.931667,47.804417,,,
ARAZ,Araz Atatürk,"Nərimanov rayonu, A,Salamzadə, ev35V, 1104-cü məhəllə",055-515-85-44,07:00 - 23:00,40.409195,49.84499,,,
ARAZ,Araz Naxçıvan-1,"Naxçıvan şəhəri, Heydər Əliyev prospekti 19.",924,08:00-23:00,39.213707,45.407768,,,
ARAZ,Araz Qala,"Xəzər rayonu, Qala qəsəbəsi, 3 saylı Zeytun sovxoz küçəsi, ev 120A",055-515-85-47,07:30 - 23:00,40.448582,50.162071,,,
ARAZ,Araz 20 Yanvar-3,"Bakı şəhəri, Nəsimi rayonu, Cavad xan küçəsi, 7saylı bina",924,08:00-23:00,40.419868,49.818478,,,
ARAZ,Araz Binə-2,"Xəzər rayonu,  Donuz kökəltmə sovxozu",055-515-85-48,07:00 - 23:00,40.446251,50.089901,,,
ARAZ,Araz Binə-5,"Bakı şəhəri, Xəzər rayonu, Binə qəsəbəsi, ev 1390 G.",924,08:00 - 23:00,40.483742,50.074295,,,
ARAZ,Araz Masazır-10,"Abşeron rayonu, Masazır qəsəbəsi Ş. Qurbanov küçəsi 37 A",924,08:00-23:00,40.480236,49.757275,,,
ARAZ,Spar 3-cü mkr,"Nəsimi rayonu, Cavadxan küçəsi 3 MKN 3005-ci məhəllə",055-515-85-39,07:00  - 00:00,40.407032,49.813011,,,
ARAZ,Araz Binə-9,"Xəzər rayonu, Binə qəsəbəsi, 176-cı Binə küçəsi",924,08:00-23:00,40.415096,50.120758,,,
ARAZ,Araz NZS,"Xətai rayonu, Rəşid Bağırov küçəsi 25",055-515-85-49,07:30 - 23:00,40.386482,49.906094,,,
ARAZ,Araz G. Mehmandarov,"Xətai rayonu, G. Mehmandarov 1.",924,08:00-23:00,40.371807,49.967678,,,
ARAZ,Araz Əhmədli-2,"Xətai rayonu,  Məhəmməd Hadi küçəsi 41",055-515-85-50,24\7,40.38504,49.954525,,,
ARAZ,Araz Saray-1,"Abşeron rayonu, Saray qəsəbəsi",055-515-85-52,24\7,40.52412,49.687569,,,
ARAZ,Araz Xətai-1,"Xətai rayonu, Babək prospekti, 10 D",055-515-85-53,08:00 - 23:00,40.388191,49.871136,,,
ARAZ,Araz Xırdalan-9,"Abşeron rayonu, Xırdalan şəhəri, Səttar Bəhlulzadə küçəsi 178",924,08:00-23:00,40.457157,49.717297,,,
ARAZ,Araz Əhmədli-3,"Xətai rayonu, Məhəmməd Hadi küçəsi 51M",055-515-85-54,24\7,40.380466,49.954262,,,
ARAZ,Araz Xırdalan-10,"Abşeron rayonu, Xırdalan şəhəri, H.Əliyev prospekti 11, ev 1",924,08:00-23:00,40.447041,49.749111,,,
ARAZ,Araz Çobanzadə,"Nizami rayonu, Bəkir Çobanzadə küçəsi 216",055-515-85-55,07:00 - 23:00,40.402859,49.936935,,,
ARAZ,Araz Xırdalan-11,"Abşeron rayonu, Xırdalan şəhəri, Mehdi Hüseynzadə küçəsi, ev 313",924,08:00-23:00,40.453003,49.737488,,,
ARAZ,Araz 9-cu mkr-1,"Binəqədi rayonu, 9 mkr, H.Seyidzadə küçəsi 38",055-515-85-56,07:00 - 23:00,40.421204,49.809101,,,
ARAZ,Araz Xırdalan-12,"Abşeron rayonu, Xırdalan şəhəri, Həzi Aslanov küçəsi",924,08:00-23:00,40.456203,49.744072,,,
ARAZ,Spar Axundov-1,"Səbail rayonu, B.Sərdarov küçəsi 15",055-515-85-57,24\7,40.367928,49.827564,,,
ARAZ,Araz Biləcəri-9,"Binəqədi rayonu, Biləcəri qəsəbəsi, DSK yolu, döngə 4",924,08:00-23:00,40.448639,49.802551,,,
ARAZ,Araz Qarayev-3,"Nizami rayonu, Tofiq Abbasov küçəsi 38, bina 7",055-515-85-59,07:00 - 23:00,40.41967,49.931591,,,
ARAZ,Araz Naxçıvan-2,"Naxçıvan MR, Naxçıvan şəhəri N.Tusi küçəsi 11",924,24\7,39.19672,45.420361,,,
ARAZ,Araz 8-ci km-1,"Nizami rayonu, C.Naxçıvanski küçəsi 66 A, giriş 1 və 2",055-515-85-62,07:30 - 23:00,40.405621,49.955521,,,
ARAZ,Araz Culfa-1,"Naxçıvan MR, Culfa rayonu, Bənəniyar kəndi",924,24\7,39.153946,45.660088,,,
ARAZ,Araz 8-ci km-2,"Nizami rayonu, E.Süleymanov 2566 blok-B, mərtəbə 1",055-515-85-63,07:30 - 02:00,40.409245,49.952496,,,
ARAZ,Araz Xankəndi-1,Xankəndi şəhəri,924,08:23:00,39.826801,46.765903,,,
ARAZ,Araz Hövsan-2,"Suraxanı rayonu, Hövsan Qəsəbəsi, Elman Qasıməv küçəsi 227 A",055-515-85-64,07:30 - 23:00,40.364113,50.073154,,,
ARAZ,Araz Siyəzən-2,"Siyəzən şəhəri, Heydər Əliyev pr",924,08:00-23:00,41.073528,49.113808,,,
ARAZ,Araz Cəfər Xəndan,"Binəqədi rayonu, M.Ə.Rəsulzadə qəsəbəsi, Cəfər Xəndan küçəsi",055-515-85-69,08:00 - 02:00,40.415562,49.828979,,,
ARAZ,Araz Kəlbəcər-1,Kəlbəcər rayonu,924,08:00-23:00,40.109859,46.041611,,,
ARAZ,Araz Badamdar-1,"Səbail rayonu, Badamdar qəsəbəsi, 1 yaşayış massivi",055-515-85-66,08:00 - 02:00,40.350906,49.810612,,,
ARAZ,Araz Xırdalan-13,"Xırdalan şəhəri, N.Zeynalova küçəsi",924,24\7,40.456528,49.743999,,,
ARAZ,Araz Şəfayət Mehdiyev,"Yasamal rayonu, Ə.Ələkbərov küçəsi 1054 - cü məhəllə",055-515-85-68,08:00 - 23:00,40.393955,49.815659,,,
ARAZ,Araz 4-cü mkr-1,"Bakı şəhəri, Nəsimi rayonu, H.Seyidzadə küçəsi 4 mkr",924,08:00-23:00,40.416084,49.813141,,,
ARAZ,Araz Şərifzadə,"Bakı şəhəri, Şərfizadə küçəsi ünvanı",055-515-85-67,24\7,40.38195,49.804306,,,
ARAZ,Araz 5-ci mkr-1,"Bakı şəhər, 5-ci mkr, Asif Məhərrəmov küçəsi",924,08:00-23:00,40.408207,49.810246,,,
ARAZ,Araz Zirə-1,"Bakı şəhəri, Xəzər rayonu, Zirə qəsəbəsi.",0912,08:00-23:00,40.422523,50.242409,,,
ARAZ,Araz Bakıxanov-7,"Bakıxanov rayonu, Nazim İsmayılov küçəsi",924,08:00-23:00,40.418884,49.972206,,,
ARAZ,Araz Müşfiqabad-1,Bakı şəh. Müşfiqabad qəs. YYM1  22-ci Müşfik küç ev 81,0924,08:00-23:00,40.47226,49.613789,,,
ARAZ,Araz Bərdə-1,Bərdə rayonu,924,08:00-23:00,40.399303,47.12291,,,
ARAZ,Araz Qarayev-4,"Nizami rayonu, Qara Qarayev prospekti 25A ",055-515-85-72,07:00 - 23:00,40.418156,49.933064,,,
ARAZ,Araz Biləcəri-10,Biləcəri qəsəbəsi,924,08:00-23:00,40.451138,49.83025,,,
ARAZ,Araz Gəncə-4,"Gəncə şəhəri, 127B Atatürk prospekti",924,08:00-23:00,40.697212,46.361439,,,
ARAZ,Araz Xırdalan-2,"Abşeron rayonu, Xırdalan şəhəri, H.Əliyev prospekti 7",055-515-85-70,24\7,40.441345,49.771458,,,
ARAZ,Araz Goran-1,Goran qəsəbəsi,924,08:00-23:00,40.645805,46.852001,,,
ARAZ,Araz 6-cı mkr,"Binəqədi rayonu, 6-cı mkr, İ.Haşımov küçəsi 1 A ",055-515-85-74,07:00 - 23:00,40.426498,49.827896,,,
ARAZ,Araz Xətai-7,Sabit Orucov küçəsi,924,08:00-23:00,40.380768,49.872719,,,
ARAZ,Araz Ə.Hüseynzadə,"Nəsimi rayonu, Ə.Hüseynzadə küçəsi 84",055-515-85-78,07:00 - 23:00,40.381153,49.83456,,,
ARAZ,Araz Olimpik,"Nəsimi rayonu, Mərdanov qardaşları 137",924,08:00-23:00,40.401173,49.831348,,,
ARAZ,Araz Xəzər-2,"Xətai rayonu, Əhmədli qəsəbəsi, Gəncə prospekti 135",055-515-85-77,24\7,40.363373,49.960487,,,
ARAZ,Araz Mehdiabad-5,Mehdiabad rayonu,924,08:00-23:00,40.48668,49.838909,,,
ARAZ,Araz Buzovna-2,"Buzovna qəsəbəsi, Buzovna-Maştağa yolunun sağ tərəfi, Zagulba yolu",055-515-85-83,07:00 - 00:00,40.519325,50.095387,,,
ARAZ,Araz Mərdəkan-3,Sergey Yesenin küçəsi,924,08:00-23:00,40.488583,50.152863,,,
ARAZ,Araz Mirəli Qaşqay,"Nəsimi rayonu, Kavoreçkin küçəsi ilə Mirəli Qaşqay küçəsinin kəsişməsi",055-515-85-88,07:00 - 02:00,40.388119,49.845379,,,
ARAZ,Məhəmmədi-4,Məhəmmədi rayonu,924,08:00-23:00,40.507187,49.911816,,,
ARAZ,Spar Tarqovu,"Nəsimi rayonu, Səməd Vurğun küçəsi 19",055-515-85-94,24\7,40.374855,49.841648,,,
ARAZ,Araz Neapol-3,Neapol küçəsi,924,08:00-23:00,40.382526,49.963722,,,
ARAZ,Araz Elmlər-3,"Yasamal rayonu, Firudin Ağayev 9 ",055-515-85-95,08:00 - 23:00,40.375843,49.811668,,,
ARAZ,Araz Polad Həşimov,Polad Həşimov küçəsi,924,08:00-23:00,40.342556,49.968834,,,
ARAZ,Araz Yasamal-1,"Yasamal rayonu, M.Seyidov küçəsi 41E, 3148-ci məhəllə",055-515-85-10,08:00 - 02:00,40.382133,49.807125,,,
ARAZ,Araz Səməd Vurğun-1,"Nəsimi rayonu, Səməd Vurğun küçəsi",924,08:00-23:00,40.386639,49.837029,,,
ARAZ,Araz Zaqatala,"Zaqatala rayonu, Faiq Əmirov küçəsi 25 (Zaqatala mall)",055-498-83-83,07:00 - 23:00,41.629333,46.634918,,,
ARAZ,Araz Şamaxinka-1,"Bakı şəhəri, Moskva küçəsi",924,08:00-23:00,40.4072,49.806225,,,
ARAZ,Araz İmişli,"İmişli rayonu, İmişli şəhəri, Baki küçəsi",055-515-85-99,07:00 - 23:00,39.867607,48.060246,,,
ARAZ,Araz Tarqovu-1,Yusif Mammadaliyev küçəsi,924,08:00-23:00,40.368942,49.83839,,,
ARAZ,Araz Sumqayıt-3,"Sumqayıt şəhəri, 9-cu mikrorayon, Üzeyir Hacıbəyov küçəsi 23",055-515-85-79,24\7,40.57011,49.689014,,,
ARAZ,Araz Nərimanov-12,"Bakı şəhəri, Nərimanov rayonu Ə.Orucəliyev küçəsi",924,08:00-23:00,40.40097,49.86964,,,
ARAZ,Araz Xətai-2,"Xətai rayonu, Həsən Salmani küçəsi 17",055-400-85-18,07:00 - 23:00,40.383804,49.861237,,,
ARAZ,Araz Mingəçevir-3,Mingəçevir şəhəri. A.Puşkin küçəsi 24,924,08:00-23:00,40.76897,47.058693,,,
ARAZ,Araz Xalqlar,"Nizami rayonu, Q.Qarayev prospekti 93 L",055-400-85-19,07:00 - 23:00,40.402458,49.950615,,,
ARAZ,Araz Cavidan-1,"Bakı şəhəri, Nəsimi rayonu, Azadlıq pr",924,08:00-23:00,40.403473,49.836613,,,
ARAZ,Araz Masazır-3,"Abşeron rayonu, Masazır qəsəbəsi, Bakı-Sumqayıt yolu",055-515-85-09,07:00 - 00:00,40.458031,49.756222,,,
ARAZ,Araz Şərur-1,"Şərur şəhəri, M.Müşfiq küçəsi 2A",924,08:00-23:00,39.554306,44.980389,,,
ARAZ,Spar 28 May Ekspress,"Nəsimi rayonu, Səməd Vurğun küçəsi 50",055-400-85-21,08:00 - 23:00,40.377731,49.85207,,,
ARAZ,Araz Sumqayıt-13,"Abşeron rayonu, Stansiya Sumqayıt, 1001 ailəlik yaşayış kompleksi",924,08:00-23:00,40.556442,49.584805,,,
ARAZ,Araz Nərimanov-3,"Nərimanov rayonu, N.Hacıyev və F.Yusifov küçəsinin kəsişməsi, 1950-ci məhəllə",055-400-85-20,07:00 - 23:00,40.402119,49.874187,,,
ARAZ,Araz Ramana-3,"Bakı şəhəri, Yeni Suraxanı qəsəbəsi, Mərkəzi küçəsi. 4P saylı sahə",924,08:00-23:00,40.44511,50.010807,,,
ARAZ,Araz Badamdar-4,"Bakı şəhəri, Səbail rayonu. Badamdar qəsəbəsi",924,07:00-23:00,40.344528,49.810417,,,
ARAZ,Araz Günəşli-2,"Suraxanı rayonu, Yeni Günəşli D yaşayış sahəsi, 26-cı bina",055-400-85-24,07:30 - 23:00,40.368992,49.975765,,,
ARAZ,Araz Güzdək-1,"Abşeron rayonu, Güzdək qəsəbəsi, Aşağı Güzdək yolu.",0552509204,07:00 - 00:00,40.461224,49.661766,,,
ARAZ,Araz Qum adası,"Suraxanı rayonu, Zığ-Hövsan şossesi, Qum adası yolu",055-400-85-25,07:30 - 23:00,40.348434,49.998703,,,
ARAZ,Araz Şağan-3,"Xəzər rayonu, Şağan qəsəbəsi, 114-cü Mərdəkan küçəsi",0552509454,24\7,40.510738,50.14196,,,
ARAZ,Araz Buzovna-3 Minimarket,"Xəzər rayonu, Zaqulba qəsəbəsi, R.İmanov küçəsi",055-400-85-28,07:30 - 23:00,40.523682,50.099937,,,
ARAZ,Araz Badamdar-5,"Səbail rayonu, Badamdar qəsəbəsi, Ə.Nəzərov küçəsi 33A",924,07:00-23:00,40.340721,49.806973,,,
ARAZ,Araz 7-ci mkr,"Binəqədi rayonu, 7 mkr, 3123-cü məhəllə",055-400-85-26,07:00 - 23:00,40.432804,49.850559,,,
ARAZ,Araz Azadlıq-5,"Bakı şəhəri, Binəqədi rayonu, İ.Dadaşov küçəsi 70A",924,07:00-23:00,49.842918,40.41964,,,
ARAZ,Araz Yeni Yasamal-6,"Bakı şəhəri, Yasamal rayonu, Xarici dairəvi yolu ev 38",924,07:00-23:00,40.392529,49.787807,,,
ARAZ,Araz 6-cı mkr 2,"Binəqədi rayonu, 6-cı mkr, Svetlana Məmmədova küçəsi 209 F",055-400-85-38,07:00 - 23:00,40.425941,49.830589,,,
ARAZ,Araz Saray-5,"Abşeron rayonu, Saray qəsəbəsi, M.Hüseyn küçəsi",924,07:00-23:00,40.539555,49.718723,,,
ARAZ,Araz Sumqayıt-5,"Sumqayıt şəhəri, 9-cu mkr Ü.Hacıbəyov və Koroğlu küçələrinin kəsişməsi",055-400-85-32,24\7,40.566978,49.685425,,,
ARAZ,Araz Xocavənd-1,Xocavənd şəhəri,924,07:00-23:00,39.792583,47.114471,,,
ARAZ,Araz Daşkəsən,"Daşkəsən şəhəri, Nizami küç. 14",055-400-85-34,07:00 - 23:00,40.523411,46.08263,,,
ARAZ,Araz Tovuz-1,"Tovuz şəhəri, M.H.Şəhriyar küçəsi 19",924,07:00-23:00,40.992027,45.614361,,,
ARAZ,Araz Gəncə-2,"Gəncə şəhəri, Yeni Gəncə qəsəbəsi, Ə.Mehmandarov küçəsi",055-400-85-36,24\7,40.675087,46.334614,,,
ARAZ,Araz Xırdalan-14,"Xırdalan şəhəri, Q.Aslanov 80",924,07:00-23:00,40.452301,49.752071,,,
ARAZ,Araz Saatlı,"Saatlı şəhəri, H.Əliyev pr. 240",055-400-85-35,07:00 - 00:00,39.927883,48.35894,,,
ARAZ,Araz Sumqayıt-14,"Sumqayıt şəhəri, Dənizkənarı Park",924,07:00-23:00,40.583889,49.690277,,,
ARAZ,Araz Məhəmmədi-2,"Abşeron rayonu, Zabrat dairəsi, Məhəmmədi kəndi istiqaməti",055-400-85-39,07:30 - 23:00,40.497093,49.949776,,,
ARAZ,Araz Zaqatala-3,"Zaqatala şəhəri, Heydər Əliyev pr. 67A",924,07:00-23:00,41.632751,46.647667,,,
ARAZ,Araz 7-ci mkr-2,"Binəqədi rayonu, F.Məlikov küçəsi 18A",055-400-85-40,07:00 - 23:00,40.428905,49.852238,,,
ARAZ,Araz Ağdam-1,"Ağdam rayonu, Quzanlı qəsəbəsi",924,07:00-23:00,40.163055,47.155834,,,
ARAZ,Araz N.Yusifbəyli,"Nəsimi rayonu, Nəsib bəy Yusifbəyli küçəsi 94",055-400-85-42,07:00 - 23:00,40.398041,49.839874,,,
ARAZ,Araz Xətai - 8,"Bakı şəhəri, Xətai rayonu, A.Cəlilov küçəsi",924,07:00-23:00,40.378418,49.874779,,,
ARAZ,Araz Sahil,"Qaradağ rayonu, Sahil qəsəbəsi, Məhərrəm Seyidov küçəsi 15",055-400-85-46,08:00 - 23:00,40.224918,49.572365,,,
ARAZ,Araz Saray-4,"Abşeron rayonu, Saray qəsəbəsi. M.Ə.Rəsulzadə küçəsi",99455 250 98 01,07:00-23:00,40.530277,49.714474,,,
ARAZ,Araz Bakıxanov-4,"Sabunçu rayonu, Bakıxanov qəsəbəsi, N.İsmayılov küçəsi 15",055-400-85-48,07:00 - 23:00,40.428715,49.962269,,,
ARAZ,Araz Biləcəri,"Binəqədi rayonu, Biləcəri qəsəbəsi, M.Hüseyn küçəsi 17",055-400-85-50,24\7,40.436199,49.803444,,,
ARAZ,Araz Zaqulba,"Xəzər rayonu, Zaqulba qəsəbəsi, R.İmanov küçəsi",055 400 85 28,07:30 - 23:00,40.523680,50.099936,,,
ARAZ,Araz Neftçilər-2 Ekspress,"Nizami rayonu, R.Rüstəmov küçəsi 12c",055-400-85-49,07:00 - 23:00,40.406391,49.93837,,,
ARAZ,Araz Günəşli-4,"Suraxanı rayonu, Samir Cəfərov, ev2, V massivi",055 864 95 30,07:30 - 23:00,40.386672,49.982624,,,
ARAZ,Araz Həzi Aslanov-1,"Xətai rayonu, M.Hadi küçəsi 73A",055-400-85-53,08:00-23:00,40.372826,49.954556,,,
ARAZ,Araz İnqilab-2,"Nərimanov rayonu, Möhsün Sənani küçəsi, 34 (ASAN xidmətin yaxınlğı);",055 900 67 24,07:00 - 23:00,40.398655,49.837013,,,
ARAZ,Araz Mehdiabad-2,"Mehdiabad qəsəbəsi, 28 May küçəsi (Mehdiabad ticarət mərkəzinin 1-ci mərtəbəsi)",055-400-85-52,07:00 - 00:00,40.487946,49.854427,,,
ARAZ,Araz Ələt-1,"Bakı şəhəri, Qaradağ rayonu, Ələt qəsəbəsi, K. Məmmədov küçəsi, keçid 1587.",924,08:00 - 23:00,39.954826,49.409958,,,
ARAZ,Araz Xırdalan-3,"Xırdalan şəh., AAAF Park yaşayış kompleksi",055-400-85-58,07:00 - 23:00,40.457169,49.722996,,,
ARAZ,Araz Beyləqan-1,"Beyləqan rayonu, Qarallar kəndi.",924,08:00-23:00,39.766944,47.876571,,,
ARAZ,Araz Pirallahı-3,"Pirallahı rayonu, Əzizbəyov küçəsi, ev 26.",924,08:00-23:00,40.455872,50.337098,,,
ARAZ,Araz 7-ci mkr-3,"Binəqədi ray., 7-ci mkr, S.S.Axundov küç. 3C",055-400-85-60,07:00 - 23:00,40.42688,49.84948,,,
ARAZ,Araz Həzi Aslanov-5,Bakı şəh. Xətai ray. M.Hadi küç kəsişmı 2944A məhəll,924,08:00-23:00,40.371348,49.953333,,,
ARAZ,Araz Sabunçu,"Sabunçu qəs., Ə.Məmmədəliyev küç. 18A (Sabunçu xəstəxanasının yaxınlığı)",055-400-85-57,07:00 - 23:00,40.444942,49.943359,,,
ARAZ,Araz Əhmədli-8,"Xətai rayonu ,Əhmədli qəs , LütfiZadə küç, 2347 48-ci məhəllə, Baku",924,08:00-23:00,40.386250791158254,49.96586769981091,,,
ARAZ,Araz Mingəçevir,"Mingəçevir şəhəri, Heydər Əliyev prospekti",055-400-85-62,24\7,40.771084,47.041107,,,
ARAZ,Araz 8-ci km-3,"Bakı şəhəri, 8-ci km",924,08:00-23:00,40.402481,49.950594,,,
ARAZ,Araz Ceyranbatan,"Abşeron rayonu, Ceyranbatan qəsəbəsi, Bakı-Sumqayıt şossesi",055-400-85-63,24\7,40.543705,49.663124,,,
ARAZ,Araz 9-cu mkr-3,"Binəqədi r-nu,9mkr, ev 11 A Məmmədov küçəsi, Baku",924,08:00-23:00,40.419409,49.808347,,,
ARAZ,Araz Zabrat,"Zabrat qəsəbəsi, Neftçilər küçəsi",055-400-85-56,07:00 - 23:00,40.476822,49.93829,,,
ARAZ,Araz Məhəmmədi-4,Məhəmmədi rayonu,924,08:00-23:00,40.507188,49.911814,,,
ARAZ,Araz Günəşli-3,"Suraxanı rayonu, Qaraçuxur qəsəbəsi, İlqar Musayev küçəsi, Qartal heykəlinin yaxınlığı",055-400-85-61,24\7,40.385021,49.971889,,,
ARAZ,Araz Bülbülə-1,Bülbülə qəsəbəsi,924,08:00-23:00,40.4363611,49.9944444,,,
ARAZ,Araz Suraxanı,"Suraxanı rayonu, Yeni Suraxanı ŞTQ 14 iyul ev. 24",055 400 85 76,07:00 - 23:00,40.432659,50.033588,,,
ARAZ,Araz Müşfiqabad-2,"Bakı şəhəri, Binəqədi rayonu 28 may, İzlivnoy küçəsi",924,07:00-23:00,40.4655833,49.6284444,,,
ARAZ,Araz Nizami,"Yasamal rayonu, 422-ci məhəllə, Mirzə İbrahimov küçəsi 53, 1-ci mərtəbə",055 252 26 07,08:00 - 23:00,40.377922,49.83287,,,
ARAZ,Araz Saray-3,"Abşeron rayonu, Saray qəsəbəsi, M.Əsədov küç 1 ev 3",924,07:00-23:00,40.5501667,49.7125278,,,
ARAZ,Araz Kürdəxanı,"Kürdəxanı qəsəbəsi, Əjdər Məlikov küçəsi",055 215 12 89,07:30 - 02:00,40.547504,49.911598,,,
ARAZ,Araz Əhmədli-11,"Bakı şəhəri, Xətai rayonu, Xocalı prospekti 13/15",924,07:00-23:00,40.3847778,49.9648056,,,
ARAZ,Araz Azadlıq-3,"Nərimanov rayonu, məhəllə 944. S. Rəhman küçəsi",055-400-85-12,24\7,40.401096,49.837719,,,
ARAZ,Araz 9-cu mkr-4,"Bakı şəhəri, Binəqədi rayonu, Mir Cəlal küç 139A",924,07:00 - 23:00,40.416972,49.8061667,,,
ARAZ,Araz İnqilab-1,Nərimanov rayonu. Akademik Mirəli Qaşqay küçəsi. ev 94. 1-ci mərtəbə,055-400-85-13,08:00 - 23:00,40.40155,49.839767,,,
ARAZ,Araz Xırdalan-16,"Abşeron rayonu, Xırdalan şəhəri, 26-cı məhəllə. M.Hüseynzadə küçəsi",924,07:00-23:00,40.461889,49.747222,,,
ARAZ,Araz Elmlər,Yasamal rayonu. Ə. Ələkbərov küç. 510,055 400 85 02,24\7,40.371037,49.818111,,,
ARAZ,Araz Saray-7,"Abşeron rayonu, Saray qəsəbəsi",924,07:00-23:00,40.512173,49.724495,,,
ARAZ,Araz Space,"Yasamal rayonu, Hüseyn Cavid prospekti 17A",055-400-85-09,08:00 - 00:00,40.366989,49.815624,,,
ARAZ,Araz Cəbrayıl-1,Cəbrayıl rayonu,924,07:00-23:00,39.402504,47.090481,,,
ARAZ,Araz Yasamal Superstore,Yasamal rayonu. Ə. Haqverdiyev küçəsi. məhəllə 574,055-400-85-10,24\7,40.380329,49.811092,,,
ARAZ,Araz Bərdə-3,"Bərdə rayonu, Ü.Hacıbəyov küçəsi",924,07:00-23:00,40.374626,47.119759,,,
ARAZ,Araz Statistika-2,Yasamal rayonu. M. H. Naxçıvani 15,055-400-85-04,24\7,40.38372,49.826378,,,
ARAZ,Araz İmişli-2,"İmişli rayonu, M.M.Rəsulzadə küçəsi, ev 3",924,07:00-23:00,39.868668,48.061634,,,
ARAZ,Araz Planet,Nizami rayonu. M. Abbasov 50 B,055-400-85-15,07:00 - 23:00,40.412628,49.933979,,,
ARAZ,Araz Balakən -1,"Balakən şəhəri, H.Əliyev pr",924,07:00-23:00,41.706028,46.424252,,,
ARAZ,Araz 7-ci mkr-4,"Binəqədi rayonu, 7-ci mkr, Xarici Dairəvi küçəsi bina 22 blok 1",055-400-85-01,07:00 - 23:00,40.430744,49.850845,,,
ARAZ,Araz Hövsan-6,"Bakı şəhəri, Surxanı rayonu, Hövsan qəsəbəsi, Xudafərin küçəsi 26B",924,07:00-23:00,40.386295,50.069744,,,
ARAZ,Araz Rəsulzadə,"Binəqədi rayonu, M.Ə.Rəsulzadə qəsəbəsi, Azadlıq prospekti 157",055-400-85-11,07:00 - 23:00,40.436234,49.84486,,,
ARAZ,Araz Bayıl-4,"Səbayil rayonu, Bibiheybet qəsəbəsi, Salyan şosesi 3-cü km",924,07:00-23:00,40.319473,49.827171,,,
ARAZ,Araz Binəqədi Minimarket,"Binəqədi rayonu, Gülməmməd Ramazanov küçəsi, (1 sayli qarışıq mallar mağazasi) 2-ci mədən, korpus 52",055 400 85 05,07:00 - 23:00,40.466389,49.829311,,,
ARAZ,Araz Xırdalan-15,"Abşeron rayonu, Xırdalan şəhəri, H. Əliyev pr 518",924,07:00-23:00,40.443745,49.756519,,,
ARAZ,Araz 9-cu mkr-2,"Binəqədi rayonu, 9-cu mikrorayon, Mir Cəlal küçəsi 59 K",055-400-85-14,07:00  - 00:00,40.418823,49.811012,,,
ARAZ,Araz Şıxlinski -2,"Bakı şəhəri, Xətai rayonu, G.Şıxlınski küçəsi, 2942D ev 51C",924,07:00-23:00,40.362774,49.965450,,,
ARAZ,Araz Neapol,"Xətai rayonu, General Şıxlınski küçəsi 55",055 400 85 03,24\7,40.383411,49.96664,,,
ARAZ,Araz Tusi-3,"Bakı şəhəri, Xətai rayonu, N.Tusi küçəsi, 2942",924,07:00-23:00,40.366737,49.962383,,,
ARAZ,Araz Xəzər-3,"Xətai rayonu, Gəncə prospekti,  məhəllə 29/42",055-400-85-06,24\7,40.367821,49.959778,,,
ARAZ,Araz Yeni Yasamal-7,"Bakı şəhəri, Yasamal rayonu. Alatava - 7 küçəsi, ev 72",924,07:00-23:00,40.386726,49.789989,,,
ARAZ,Araz Bayıl,"Səbail rayonu, Salyan şössesi, 20-ci ünvan",055-400-85-08,24\7,40.330032,49.818501,,,
ARAZ,Araz Qaradağ-2,"Bakı şəhəri, Qaradağ rayonu. Sahil qəsəbəsi. Salyan şosesi, 34-cü məhəllə.",924,07:00-23:00,40.226093,49.569191,,,
ARAZ,Araz Novxanı,"Abşeron rayonu, Novxanı kəndi",055-400-85-16,07:00 - 00:00,40.537113,49.783222,,,
ARAZ,Araz Xəzər-5,"Bakı şəhəri, Xətai rayonu. Gəncə pr 38.",924,07:00-23:00,40.366962,49.959930,,,
ARAZ,Araz Quba,"Quba rayonu, Heydər Əliyev pr.",055-400-85-07,24\7,41.362682,48.522152,,,
ARAZ,Araz Sahil-2,"Bakı şəhəri, Qaradağ rayonu, Sahil qəsəbəsi. Ş.Əsgərov küçəsi ev.4",924,07:00-23:00,40.226662,49.580124,,,
ARAZ,Yeni Günəşli-4 Minimarket," Suraxanı rayonu, Samir Cəfərov, ev2, V massivi",055 864 95 30,07:30 - 23:00,40.386673,49.982624,,,
ARAZ,Araz Biləcəri-11,"Bakı şəhəri, Binəqədi rayonu. Biləcəri qəsəbəsi.",924,07:00-23:00,40.443085,49.809643,,,
ARAZ,Yeni Yasamal-1 Minimarket,"Yasamal rayonu, Yeni Yasamal 1, ev 1H",055 202 65 24,08:00 - 23:00,40.399357,49.796963,,,
ARAZ,Araz Nərimanov-13,"Bakı şəhəri, Nərimanov rayonu, Fətəli Xan Xoyski ev 118A",924,07:00-23:00,40.402447,49.861652,,,
ARAZ,Araz Badamdar-2,"Səbail rayonu, Badamdar qəsəbəsi, Tofiq Məmmədov ",055 202 65 46,07:00 - 23:00,40.338688,49.807571,,,
ARAZ,Araz 8 mkr-04,"Bakı şəhəri, Binəqədi rayonu, Naxçıvani küçəsi 5A",924,07:00-23:00,40.413773,49.839310,,,
ARAZ,Araz 20 Yanvar-2,"Nəsimi rayonu, Məmmədcəfər Cəfərov küçəsi, 3006 məhəllə",055 201 83 73,07:00 - 23:00,40.406013,49.811314,,,
ARAZ,Araz Şərifzadə - 5,"Bakı şəhəri, Yasamal rayonu, Şərifzadə küçəsi 33",924,07:00-23:00,40.373787,49.805511,,,
ARAZ,Araz Yeni Yasamal-1,"Yasamal rayonu, Mirəli Seyidov küçəsi ",055 400 85 87,07:00 - 23:00,40.378197,49.807732,,,
ARAZ,Araz Sumqayıt-16,"Sumqayıt şəhəri, 6-cı mikrorayon.",924,07:00-23:00,40.580120,49.687832,,,
ARAZ,Araz Saray-2,"Abşeron rayonu, Saray qəsəbəsi, Məhəmməd Əsədov küçəsi",055 400 85 79,24\7,40.547703,49.712955,,,
ARAZ,Araz Saray-6,"Abşeron rayonu, Saray qəsəbəsi",924,07:00-23:00,40.547359,49.715008,,,
ARAZ,Araz Sumqayıt-6,"Sumqayıt şəhəri, Koroğlu küçəsi, 41-ci məhəllə, Koroğlu prospekti",055 226 51 10,24\7,40.576138,49.669239,,,
ARAZ,Araz Sumqayıt-15,"Abşeron rayonu, Pirəkeşgül. Azərbaycan küçəsi 236",924,07:00-23:00,40.555504,49.583477,,,
ARAZ,Araz Xırdalan-4,"Xırdalan şəhəri, Nizami Gəncəvi küçəsi",055 414 24 74,07:00 - 23:00,40.459122,49.744308,,,
ARAZ,Araz Mehdiabad-7,Abşeron ray.Mehdiabad qəsəbəsi,055 457 49 29 ,07:00-23:00,40.486191,49.838112,,,
ARAZ,Araz Nərimanov-4,"Nərimanov rayonu, Ə.Əliyev küçəsi",055 226 51 12,24\7,40.403919,49.87785,,,
ARAZ,Araz Bərdə-4,"Bərdə rayonu, Birinci Qaradəmirçi kəndi",924,07:00-23:00,40.350727,47.161537,,,
ARAZ,Araz N.Tusi-1,"Xətai rayonu, N.Tusi küçəsi",055 300 83 77,07:00 - 23:00,40.376137,49.960976,,,
ARAZ,Araz Masazır- 11,"Abşeron rayonu, Masazır qəsəbəsi, Masazır şossesi",924,07:00-23:00,40.481262,49.756310,,,
ARAZ,Araz Qarabağ,"Nərimanov rayonu, Qarabağ küçəsi",055 256 78 20,24\7,40.389351,49.857647,,,
ARAZ,Araz Masazır-12,"Abşeron rayonu, Masazır Kəndi, Qaçaq Nəbi",924,07:00-23:00,40.459938,49.762440,,,
ARAZ,Araz 8-ci km-4,"Nizami rayonu, Cəmşid Naxçivanı küçəsi 90 ",055 500 74 67,07:00 - 23:00,40.408443,49.958,,,
ARAZ,Araz Binəqədi-6,"Bakı şəhəri, Binəqədi rayonu, Binəqədi qəsəbəsi. G.Ramazanov küçəsi 129A",924,07:00-23:00,40.466602,49.827625,,,
ARAZ,Araz Binə-3,"Xəzər rayonu, Binə qəsəbəsi, Ə.İsazadə küçəsi",055 525 30 15,07:00 - 23:00,40.446709,50.089024,,,
ARAZ,Araz Elmlər-4,"Bakı şəhəri, Yasamal rayonu. M.Müşfiq küçəsi. Ev 1",924,07:00-23:00,40.362114,49.818459,,,
ARAZ,Araz Günəşli-5,"Suraxanı rayonu, Yeni Günəşli qəsəbəsi, AB massivi 127",055 500 97 76,07:00 - 23:00,40.383377,49.974869,,,
ARAZ,Araz Şərifzadə-6,"Bakı şəhəri, Yasamal rayonu. A.M Şərifzadə küçəsi",+994555101613,24/7,40.398590,49.801376,,,
ARAZ,Araz Azadlıq-2,"Nəsimi rayonu, Azadlıq prospekti və Vladislav Plotnikov küçəsinin kəsişməsi",055 900 08 11,24\7,40.385242,49.844257,,,
ARAZ,Araz Zığ -2,"Bakı şəhəri, Suraxanı rayonu. Zığ qəsəbəsi. P.Şirinov küç 81",+994555101611,08:00-00:00,40.386238,50.026978,,,
ARAZ,Araz 8-ci km-5,"Nizami rayonu, B.Nuriyev küçəsi",055 900 67 88,07:00 - 23:00,40.402145,49.955322,,,
ARAZ,Araz Hökməli -1,"Abşeron rayonu, Hökməli qəsəbəsi",+99455 510 02 07,24/7,40.436420,49.729332,,,
ARAZ,Araz Bilgəh,"Sabunçu rayonu, Nardaran qəsəbəsi, 9 Z saylı ərazi ",055 900 67 89,07:00 - 23:00,40.555054,50.022453,,,
ARAZ,Araz Binəqədi- 7,"Bakı şəhəri, Binəqədi rayonu, Binəqədi şosesi 5",+994557379294,08:00-00:00,40.452576,49.778957,,,
ARAZ,Araz Məhəmmədi-3,"Abşeron rayonu, Məhəmmədi kəndi",055 900 67 25,07:00 - 23:00,40.509075,49.915836,,,
ARAZ,Araz NZS-2,"Bakı şəhəri,Xətai rayonu, Rəşid Bağırov küçəsi giriş 111",+944555103137,24/7,40.386406,49.909214,,,
ARAZ,Araz Hövsan-3,"Suraxanı rayonu, Elçin Məmmədov 5k",055 900 67 23,07:00 - 23:00,40.360977,50.07782,,,
ARAZ,Müşviqabad-3,"Abşeron rayonu, Aşağı Güzdək qəsəbəsi",0992014478,24/7,40.470203,49.626259,,,
ARAZ,Araz Bakıxanov-5,"Sabunçu rayonu, Bakıxanov qəsəbəsi, Sakit Qocayev küçəsi 35",055 900 67 26,07:00 - 23:00,40.416039,49.964676,,,
ARAZ,Araz Digah-1,"Abşeron rayonu, Digah qəsəbəsi",924,24/7,40.492565,49.865360,,,
ARAZ,Araz Nərimanov-5,"Nərimanov rayonu, M.Məmmədzadə/Ə.Orucəliyev/N.Hacıyev küçələrinin kəsişməsində",055 900 67 42,24\7,40.400349,49.870441,,,
ARAZ,Araz Tarqovu-3,"Bakı şəhəri, Səbail rayonu, Xəqani küçəsi 17",0992014461,07:00-02:00,40.372978,49.842674,,,
ARAZ,Araz Sulutəpə-2,"Binəqədi rayonu, Sulutəpə qəsəbəsi, Ruslan Allahverdiyev küçəsi",055 400 85 29,07:00 - 02:00,40.433952,49.773163,,,
ARAZ,Araz Dəliməmmədli-1,"Goranboy rayonu, Muzdurlar kəndi",+944555101413,24/7,40.686977,46.586243,,,
ARAZ,Araz Nargilə-2,"Xətai rayonu, Zığ şossesi 8, blok 1",055 500 61 35,24\7,40.367275,49.941563,,,
ARAZ,Araz Zabrat-4,"Bakı şəh. Sabunçu ŞTQ, İlyas Aslanov 8",924,24/7,40.448311,49.935116,,,
ARAZ,Araz Sulutəpə-3,"Binəqədi rayonu, Sulutəpə qəsəbəsi, R.Allahverdiyev küçəsi, ev 25F   ",055 300 83 90,24\7,40.432625,49.771278,,,
ARAZ,Araz Xətai-8,"Bakı şəh. Xətai ray. 8 noyabr ev.15,məhəllə 1212,mərtəbə 1",99455 255 77 53,08:00-00:00,40.378403,49.874775,,,
ARAZ,Araz Badamdar-3,"Badamdar qəsəbəsi, 22-ci küçə, 3-cü massiv ",055 515 85 21,08:00 - 23:00,40.332138,49.802826,,,
ARAZ,Araz Binə Topdan,"Bakı ş., Lökbatan qəsəbəsi cənub-şərqində inşa edilən Binə Ticarət Mərkəzi",99455 515 85 73,08:00-02:00,40.302853,49.760647,,,
ARAZ,Araz Hövsan-4,"Suraxanı rayonu, Hövsan qəsəbəsi, Oqtay Şabanov küçəsi",055 515 85 58,24\7,40.358704,50.067162,,,
ARAZ,Araz Kömürçü-2,"Bakı şəhəri, Nəsimi rayonu, Malibo Residance",994552527030,24/7,40.379551,49.834023,,,
ARAZ,Araz Gəncə-3,"Gəncə şəhəri, Şəddadilər küçəsi ",055 900 08 83,24\7,40.688095,46.352371,,,
ARAZ,Araz Məhəmmədi-5,"Abşeron rayonu, Məhəmmədi kəndi",+994992014491,24/7,40.502117,49.946949,,,
ARAZ,Araz 8-ci mkr-2,"Binəqədi rayonu, Cəfər Xəndan küçəsi (Tərgül ticarət mərkəzi)",055 900 67 47,07:00 - 23:00,40.417198,49.838631,,,
ARAZ,Araz Ceyranbatan-2,"Bakı şəhəri, Abşeron rayonu, Ceyranbatan qəsəbəsi Bakı-Quba yolu 26-ci km, Ə.Paşayev küçəsi",994992014490,24/7,40.539963,49.666592,,,
ARAZ,Araz Abşeron-1,"Xırdalan şəhəri, Abşeron Gənclər şəhərciyi",055 900 28 15,08:00 - 23:00,40.470043,49.742256,,,
ARAZ,Araz Gəncə-5,"Gəncə şəhəri, Azərbaycan Əsgəri küçəsi",994992014476,24/7,40.717884,46.353844,,,
ARAZ,Araz Əhmədli-6,"Nizami rayonu, Babək prospekti 64",055 900 28 60,07:00 - 00:00,40.394524,49.950237,,,
ARAZ,Araz Əhmədli-12,"Bakı şəhəri, Xətai rayonu, Qaçaq Nəbi küçəsi, 119",994992014409,07:00-02:00,40.387096,49.958862,,,
ARAZ,Araz Ramana-1,"Sabunçu rayonu, Ramana qəsəbəsi, E.Məhərrəmli küçəsi",055 900 28 25,07:00 - 23:00,40.477703,49.987919,,,
ARAZ,Araz Qutqaşınlı-1,"Yasamal rayonu, İ.Qutqaşınlı küç 85",055 900 28 26,07:00 - 23:00,40.372177,49.820423,,,
ARAZ,Araz Mehdiabad-3,"Abşeron rayonu, Mehdiabad qəsəbəsi, 28 May küçəsi ev 1",055 900 28 65,07:00 - 02:00,40.491539,49.855244,,,
ARAZ,Araz Xirdalan-5 Supermarket,"Xırdalan şəhəri, Nizami Gəncəvi küçəsi",055 900 28 46,07:00 - 23:00,40.460838,49.741203,,,
ARAZ,Araz Nərimanov-8,"Nərimanov rayonu, Ə. Orucəliyev küçəsi 7",055 900 28 44,07:00 - 23:00,40.396263,49.875515,,,
ARAZ,Araz Şəki-1,"Şəki şəhəri, M.Ə.Rəsulzadə pr 169",055 900 28 64,07:00 - 23:00,41.200283,47.177299,,,
ARAZ,Araz Nərimanov-6,"Nərimanov rayonu, Çaykovski küçəsi 10",055 900 28 93,08:00 - 00:00,40.394402,49.875912,,,
ARAZ,Araz Sumqayıt-7,"Sumqayıt şəhəri, Koroğlu küçəsi 395, 10-cu mkr",055 900 28 90,08:00 - 00:00,40.561623,49.694092,,,
ARAZ,Araz Qobustan,"Qobustan qəsəbəsi, Bakı - Ələt yolunun 58-ci km-liyi",055 900 36 05,08:00 - 23:00,40.071949,49.41185,,,
ARAZ,Araz Sumqayıt-8,"Sumqayıt şəhəri, 11-ci mikrorayon, Bədəlbəyli küçəsi 34A",055 900 36 04,08:00-23:00,40.569878,49.675194,,,
ARAZ,Araz Yevlax,"Yevlax şəhəri, Məhəmməd Füzuli küçəsi",055 900 36 40,08:00 - 23:00,40.60788,47.149147,,,
ARAZ,Araz Hövsan 2 Minimarket,"Suraxanı rayonu, Hövsan qəsəbəsi, Elman Qasımov küçəsi 227 A",055 515 85 64,07:30 - 23:00,40.364113,50.073154,,,
ARAZ,Araz Şuşa şəhəri-1,"Şuşa şəhəri, 20 Yanvar küçəsi",055 900 36 06,08:00 - 20:00,39.762844,46.748207,,,
ARAZ,Araz Masazır-5,"Abşeron rayonu, Masazır qəsəbəsi, Əliağa Vahid küçəsi",055 900 96 44,08:00 - 23:00,40.484329,49.756336,,,
ARAZ,Araz Bakıxanov-6,Muxtar Fətəliyev küçəsi 151 A,055 900 36 13,08:00 - 23:00,40.416225,49.968266,,,
ARAZ,Araz Nargilə-3,"Xətai rayonu, Zığ yolu 31A, blok 3.",055 204 96 47,08:00 - 23:00,40.360359,49.946903,,,
ARAZ,Araz Yeni Yasamal-2,"Yasamal rayonu, Əsəd Əhmədov küçəsi 9, döngə 5",055 900 28 20,08:00 - 23:00,40.387386,49.787609,,,
ARAZ,Araz Əhmədli-7,"Xətai rayonu, Əhmədli qəsəbəsi, M.Hadi küçəsi, 2341-2343-cü məhəllə, ev 2 ",055 900 83 09,08:00 - 23:00,40.394569,49.952446,,,
ARAZ,Araz Masazır-4,"Masazır qəsəbəsi, Yeni Bakı yaşayış kompleksi, ev 6",055 900 36 44,08:00 - 23:00,40.491493,49.746567,,,
ARAZ,Araz Tusi-2,"Xətai rayonu, Nəsrəddin Tusi 45",055 900 83 29,08:00 - 23:00,40.369431,49.962055,,,
ARAZ,Araz Həzi Aslanov-2,"Xətai rayonu, M.Hadi küçəsi, 2942 A məhəllə        ",055 900 36 89,08:00 - 23:00,40.366039,49.955395,,,
ARAZ,Araz Biləcəri-3," Binəqədi rayonu, Biləcəri qəsəbəsi, Yahya Hüseynov küçəsi 33 c",055 900 83 99,08:00 - 23:00,40.432434,49.804684,,,
ARAZ,Araz Binə-4,"Xəzər rayonu, Binə qəsəbəsi, Vaqif küçəsi",055 900 36 34,08:00 - 23:00,40.417709,50.107887,,,
ARAZ,Araz Şüvəlan-2,"Şüvəlan qəsəbəsi, Lev Starçuk küçəsi",055 900 36 93,08:00 - 23:00,40.496326,50.198189,,,
ARAZ,Araz Atatürk-2,"Nərimanov rayonu, İ.Dadaşov küçəsi 57 X     ",055 900 83 25,08:00 - 23:00,40.410492,49.843937,,,
ARAZ,Araz Minəçevir-2,"Mingəçevir şəhəri, Naxçıvan küçəsi ev 42 B",055 204 96 05,08:00 - 23:00,40.769966,46.998623,,,
ARAZ,Araz M.Əcəmi-2,"Bakı şəhəri , Nəsimi rayonu 3-cü mkr , Cavadxan küçəsi",055 200 83 29,08:00 - 23:00,40.412827,49.813202,,,
ARAZ,Araz Sumqayıt-9,"Sumqayıt şəhəri, 12-ci mkr, Çerkassi küçəsi",055 900 36 90,08:00 - 23:00,40.562477,49.684307,,,
ARAZ,Araz Xırdalan-6,"Xırdalan şəhəri, Heydər Əliyev prospekti 11",924,08:00 - 23:00,40.446938,49.751148,,,
ARAZ,Araz Zabrat-2,"Sabunçu rayonu, Zabrat qəsəbəsi, R. Axundov küçəsi",055-333-37-81,08:00 - 23:00,40.472870,49.944332,,,
ARAZ,Araz 8-ci mkr-3,"Binəqədi rayonu, 8-ci mikrorayon, Nizami Nərimanov küçəsi, 3078-ci məhəllə",055 333 43 18,08:00 - 23:00,40.420235,49.839996,,,
ARAZ,Araz Mehdiabad-4,"Abşeron rayonu, Mehdiabad qəsəbəsi, Cəfər Cabbarlı küçəsi",055 333 47 25,08:00 - 23:00,40.497898,49.85133,,,
ARAZ,Araz Biləcəri-5,"Binəqədi rayonu, Biləcəri qəsəbəsi, 3-cü yeni Y/M, Xudayat Məlikaslanov küçəsi 36",055 333 43 80,08:00 - 00:00,40.44479,49.809513,,,
ARAZ,Araz Bayıl-2,"Bakı şəh. Səbail rayonu , Bayıl qəsəbəsi Xanlar küçəsi 119",055 333 47 31,08:00 - 23:00,40.343227,49.83839,,,
ARAZ,Araz Xırdalan-7,Xırdalan şəhəri Heydər Əliyev Prospekti 95,055-333-46-22,08:00 - 23:00,40.441151,49.76358,,,
ARAZ,Araz Şərifzadə-2,"Yasamal rayonu, Abbas Mirzə Şərifzadə küçəsi",055 333 57 28,08:00 - 23:00,40.39151,49.802345,,,
ARAZ,Araz Neapol-2,"Xətai rayonu, Əhmədli qəsəbəsi, General Əliağa Şıxlinski küç. 03",055 333 42 45,08:00 - 23:00,40.379681,49.965164,,,
ARAZ,Araz Nərimanov-9,"Nərimanov rayonu, İsmayıl Hidayətzadə küçəsi",055 333 58 43,08:00 - 23:00,40.391178,49.878223,,,
ARAZ,Araz Əhmədli-9,"Xətai rayonu, Əhmədli qəsəbəsi, Q.Nəbi küçəsi 9C",055 333 58 83,24\7,40.389366,49.957867,,,
ARAZ,Araz Möhsün Sənani-3,"Nərimanov rayonu, Möhsün Sənani küç. 17,19  ",055 253 33 92,08:00 - 23:00,40.398098,49.834629,,,
ARAZ,Araz Bakıxanov-8,"Sabunçu rayonu, Bakıxanov qəsəbəsi, Nizami İsmayılov küçəsi",055 253 28 48,08:00 - 23:00,40.42289,49.969036,,,
ARAZ,Araz Siyəzən-1,"Siyəzən şəhəri, Heydər Əliyev prospekti",055 253 28 98,08:00 - 23:00,41.086773,49.102249,,,
ARAZ,Araz Şərifzadə-4,"Yasamal rayonu, İsfəndiyar Zülalov küç.ev 19",055 201 24 38,08:00 - 23:00,40.374306,49.806599,,,
ARAZ,Araz Biləcəri-6,"Binəqədi rayonu, Biləcəri qəsəbəsi, Asəf Zeynalov küçəsi",055 202 67 59,24\7,40.437325,49.808765,,,
ARAZ,Araz Sumqayıt-10,"Sumqayıt şəhəri, H.Əliyev pr 49. 34-cü məhəllə",055 204 24 83,08:00 - 23:00,40.587845,49.669605,,,
ARAZ,Araz Nargilə-4,"Xətai rayonu, Zığ yolu, 1723-cü keçid, 2950-51-ci məhəllə",055 201 24 76,08:00 - 23:00,40.366177,49.944363,,,
ARAZ,Araz Şərifzadə-3,"Yasamal rayonu , A.M.Şərifzadə küç-44",055 251 54 02,08:00 - 23:00,40.375618,49.805183,,,
ARAZ,Araz Neftçilər-3,"Nizami rayonu, M.Abbasov küç. 2538 məh",055 252 26 51,08:00 - 23:00,40.41050062,49.938490034356,,,
ARAZ,Araz Xırdalan-8,"Xırdalan şəhəri, Quşçuluq y/m, 20-ci küçə, ev 25 ",055 253 24 13,08:00 - 23:00,40.464706,49.723244,,,
ARAZ,Araz Biləcəri-7,"Binəqədi rayonu , Biləcəri qəsəbəsi,  A.Zeynallı küçəsi, Döngə 2 ev 2",055 202 67 59,08:00 - 23:00,40.43766,49.802391,,,
ARAZ,Araz Qutqaşınlı-2,"Yasamal rayonu, İsmayıl bəy Qutqaşınlı küçəsi  ",055 900 28 78,08:00 - 23:00,40.370319,49.820541,,,
ARAZ,Araz Xətai-3,"Bakı şəhəri , Xətai r-nu, Xocalı pr-ti 29              ",055 900 08 37,08:00 - 23:00,40.696861,46.34552,,,
ARAZ,Araz Biləcəri-8,"Bakı ş., Binəqədi r-nu,Biləcəri qəs., Sumqayıt şos-si., R.İsmayılov küç. 11G ",055 900 08 49,08:00 - 23:00,40.422089,49.798489,,,
ARAZ,Araz Nargile-5,"Bakı ş., Xətai r-nu, Cavanşir küç. 36         ",055 900 28 72,07:00 - 00:00,40.362286,49.950413,,,
ARAZ,Araz Cavanşir-1,"Bakı ş., Xətai r-nu, Cavanşir küç. 30B",055 333 47 36,08:00 - 23:00,40.365307,49.94865,,,
ARAZ,Araz Günəşli-6,"Bakı ş., Suraxanı r-nu, Y/Günəşli qəs., D massivi, Shams (Şəms) Residence ",055 333 43 52,08:00 - 23:00,40.375351,49.97797,,,
ARAZ,Araz Nərimanov-10,"Bakı ş., Nərimanov r-nu, Təbriz və Həsənoğlu küç. kəsişməsi    Whitestone deyilən",055 333 43 72,7\24,40.401333,49.863884,,,
ARAZ,Araz 9 mkr-3,"Bakı ş., Binəqədi r-nu, 9 mkr., A.Məmmədov küç. ev 11, mən. 4 ",055 900 08 64,08:00 - 23:00,40.419537,49.80835,,,
ARAZ,Bakıxanov-6 Superstore,"Bakı şəhəri, Sabunçu rayonu, Muxtar Fətəliyev",055 900 36 13,08:00 - 23:00,40.416649,49.968479,,,
ARAZ,Araz Ceyhun Hacıbəyli-2,"Bakı ş., Nəsimi r-nu, C.Hacıbəyli küç. 39A ",055 900 36 29,08:00 - 23:00,40.390259,49.846466,,,
ARAZ,Araz Azadlıq-4,"Bakı ş., Nəsimi r-nu, S.Rüstəm küç. 141 Qarant deyilən",055 900 36 65,08:00 - 23:00,40.389385,49.841244,,,
ARAZ,Araz Ramana-2,"Bakı ş., Sabunçu r-nu, Ramana qəs., Şuşa küç-Ramana Pətək",055 900 36 54,08:00 - 23:00,40.469681,50.01754,,,
ARAZ,Araz Pirşaği-1,"Bakı ş., Sabunçu(Pirşağı) Həsən Əliyev küç,",055 204 96 88,08:00 - 23:00,40.52998,49.87273,,,
ARAZ,Araz Qaraçuxur-3,"Suraxanı rayonu, Qaraçuxur qəsəbəsi, Z. Şərifov küçəsi 22.",012924,08:00 - 23:00,40.40168,49.979866,,,
ARAZ,Araz Binəqədi-4,"Bakı şəhəri, Binəqədi rayonu, Binəqədi ştq mərkəzi ev.-m. Binəqədi qəsəbəsi ərazisi.",012924,08:00 - 23:00,40.456184,49.783878,,,
ARAZ,Araz Həzi Aslanov-4,"Bakı şəhəri, Xətai rayonu, 4-cü dairəvi küçəsi 27.",012924,08:00 - 23:00,40.359634,49.958267,,,
ARAZ,Araz Neftçilər-4,"Nizami rayonu, Nəsimi küçəsi 112a.",012924,08:00 - 23:00,40.413063,49.945919,,,
ARAZ,Araz Ağcəbədi-1,Ağcəbədi rayonu Tofiq Qasımov küçəsi,055 204 96 88,08:00 - 23:00,40.030533,47.441227,,,
ARAZ,Araz Buzovna-5,"Bakı şəh. Xəzər r-nu., Buzovna qəs.,E.Bünyadov küç. Ev 26",055 204 96 20,07:00 - 00:00,40.519386,50.097073,,,
ARAZ,Araz Ucar-1,Ucar r-nu Qarabörk ev.-m,924,08:00 - 23:00,40.495377,47.659508,,,
ARAZ,Araz Laçın-1,Laçın şəhəri,924,08:00-23:00,39.636955,46.546642,,,
ARAZ,Araz Mərdəkan-2,"Bakı ş., Xəzər r., Mərdəkan ŞTQ Sergey Yesenin (Mərdəkan Qəs.) ev.8H və 8km",924,24/7,40.485481,50.129425,,,
ARAZ,Araz Xətai-5,Bakı ş.Xətai r-nu 8 noyabr ev.23 m. 1,924,08:00-23:00,40.378971,49.877777,,,
ARAZ,Araz Zabrat-3,"Sabunçu rayonu, Zabrat qəsəbəsi, Nəsibə Zeynalova 552",924,08:00-23:00,40.479282,49.954559,,,
ARAZ,Araz Zirə-2,Baki şəhəri Xəzər rayonu Zirə qəsəbəsi 57ci Zirə küç. 19\t,924,08:00-23:00,40.375427,50.285774,,,
ARAZ,Araz Sumqayıt-11,"Sumqayıt şəh., Sumqayıt Dəmir yolu yaşayış sahəsi ev.-m Azərbaycan dəmir yolu yük heyəti massivi",924,08:00-23:00,40.565685,49.627323,,,
ARAZ,Araz Pirallahı-2,"Pirallahı rayonu, Səməd Vurğun küçəsi 3.",924,08:00-23:00,40.469322,50.325222,,,
ARAZ,Araz Pirallahı-1,Pirallahı rayonu K.Rzayev küçəsi,924,08:00-23:00,40.449791,50.338169,,,
ARAZ,Araz Xəzər-4,Bakı şəh. Xətai ray. Gəncə pr 2930-cu məhəllə,924,08:00-23:00,40.356186,49.961277,,,
ARAZ,Araz Yeni Yasamal-3,Bakı şəh. Yasamal ray. Ümud Əkbərov küç. 81,924,08:00-23:00,40.375252,49.799496,,,
ARAZ,Araz Binəqədi-5,Bakı şəh. Binəqədi ray. Binəqədi qəs. Gülməmməd Ramazanov küç. 41,924,08:00-23:00,40.47028,49.826164,,,
ARAZ,Araz 7-ci mkr-5,Bakı şəh. Binəqədi ray. 7-ci mkr A.Kunanbayev küç 3121ci məhəllə 78P saylı sahə,924,08:00-23:00,40.433174,49.860336,,,
ARAZ,Araz Yeni Yasamal-4,"Yasamal rayonu, Müstəqillik küçəsi, ev 25. ",924,08:00-23:00,40.374168,49.796047,,,
ARAZ,Araz Ə. Əliəşrəf-1,Bakı şəh. Nərimanov ray. Ələşrəf Əlizadə küç,924,08:00-23:00,40.393963,49.861263,,,
ARAZ,Araz Şabran-1,Şabran şəh. M.Ə. Rəsulzadə küç 57a,924,08:00-23:00,41.201622,48.981747,,,
ARAZ,Araz 6-cı mkr-3,"Binəqədi rayonu, Azadlıq prospekti 187, korpus A.",924,08:00-23:00,40.423359,49.837227,,,
ARAZ,Araz Sumqayıt-12,"Sumqayıt şəhəri, 6-cı mkr., ev 33E.",924,08:00-23:00,40.579151,49.691528,,,
ARAZ,Araz Qaradağ-1,"Qaradağ rayonu, Salyan şosesi, 23-cü km. ",924,24/7,40.276527,49.679501,,,
ARAZ,Araz Məmmədli-4,"Abşeron rayonu, Məmmədli qəsəbəsi",924,08:00-23:00,40.507343,49.911816,,,
ARAZ,Araz Nərimanov-11,"Nərimanov rayonu, Faiq Yusifov küçəsi, ev 40.",924,08:00-23:00,40.408817,49.870377,,,
ARAZ,Araz Qala-2,"Xəzər rayonu, Qala ŞTQ, Mərdəkan şosesi, ev 467 m.",924,08:00-23:00,40.465858,50.137878,,,
ARAZ,Araz Bayıl-3,"Səbail rayonu, Qurban Abbasov küçəsi, ev 14.",924,08:00-23:00,40.350552,49.834431,,,
ARAZ,Araz İnqilab-5,"Bakı şəhəri, Yasamal rayonu, C. Məmmədquluzadə küçəsi, ev 118.",924,08:00-23:00,40.396885,49.827744,,,
ARAZ,Araz Yeni Yasamal-5,"Bakı şəhəri, Yasamal rayonu, Dadaş Bünyadzadə küçəsi, ev 3.",924,08:00-23:00,40.389683,49.792908,,,
ARAZ,Araz Albalılıq-1,"Xəzər rayonu, Buzovna qəsəbəsi, Məhəmməd Namazov küçəsi, ev 169",924,24/7,40.526749,50.069347,,,
ARAZ,Araz Pirşağı-2,"Sabunçu rayonu, Pirşağı qəsəbəsi, Qurtuluş küçəsi 275",924,08:00-23:00,40.560268,49.889408,,,
ARAZ,Araz Masazır-7,"Abşeron rayonu, Masazır qəsəbəsi, Qurtuluş 93, bina 1C.",924,08:00-23:00,40.486233,49.767414,,,
ARAZ,Araz Lənkəran-1,"Lənkəran rayonu, Gərmətük ŞTQ.",924,09:00-23:00,38.724106,48.843887,,,
ARAZ,Araz Babək-1,"Bakı şəhəri, Xətai rayonu, Babək prospekti, 9-cu dairəvi küçə.",924,24/7,40.393185,49.927258,,,
RAHAT,Rahat Market,DYP Ekologiya postu,,,40.434083,49.783908,,,
RAHAT,Rahat Market,Biləcəri qəsəbəsi,,,40.432232,49.80815,,,
RAHAT,Rahat Market,Binəqədi Mir Cəlal küçəsi,,,40.431408,49.817486,,,
RAHAT,Rahat Market,Nəsimi metrosu,,,40.425332,49.828162,,,
RAHAT,Rahat Market,Vorovski,,,40.423315,49.834227,,,
RAHAT,Rahat Market,Süleyman Sani Axundov küçəsi,,,40.425889,49.843847,,,
RAHAT,Rahat Market,Süleyman Sani Axundov küçəsi,,,40.427658,49.845263,,,
RAHAT,Rahat Market,(,,,40.40715,49.812989,,,
RAHAT,Rahat Market,Ceyhun Səlimov 7,,,40.401111,49.821962,,,
RAHAT,Rahat Market,Həsən Əliyev 12B,,,40.398100,49.829248,,,
RAHAT,Rahat Market,Təbriz küç. 116,,,40.403575,49.872889,,,
RAHAT,Rahat Market,Faiq Yusifov küç. 51A,,,40.409262,49.870058,,,
RAHAT,Rahat Market,Q. Qarayev küç. 74,,,40.405806,49.947706,,,
RAHAT,Rahat Market,"Zabrat şossesi, Babək küçəsi",,,40.465955,49.945009,,,
RAHAT,Rahat Market,"Binəqədi kəndi, 3-cü mədən küçəsi",,,40.434905,49.990893,,,
RAHAT,Rahat Market,"Binə qəsəbəsi Əli İsazadə küçəsi 5, Sovxoz şossesi 3-cü km",,,40.423747,50.103463,,,
RAHAT,Rahat Market,"Buzovna Ş.T. Qəsəbəsi, Heydər Eyvazov 1A",,,40.517366,50.101804,,,
RAHAT,Rahat Market,"Mehdiabad qəsəbəsi, Əzizbəyov küç. 1C",,,40.500640,49.855925,,,
RAHAT,Rahat Market,"Fatmayi kəndi, Fatmayi məsçidinin yanı",,,40.526798,49.847891,,,
RAHAT,Rahat Market,Bakı-Şamaxı şossesi 16-ci km,,,40.466095,49.656563,,,
RAHAT,Rahat Market,"Müşfiqabad qəsəbəsinə gedən yolun sağ tərəfində, Müşviq DYP postunun yanı",,,40.470436,49.625274,,,
RAHAT,Rahat Market,"Qara Qarayev 39, metro stansiyanın yaxınlığı.,  PRAGA Restoranının 1-ci mərtəbəsi",,,40.414747,49.940413,,,
RAHAT,Rahat Market,Binəqədi r/nu Biləcəri qes. M. N. Ordubadi 50  (Məmmədoğulları servislə üzbəüz),,,40.440855,49.838400,,,
RAHAT,Rahat Market,Binəqədi ray. 4-cu mk/r İsgəndərov 13  (Zərifə Əliyeva göz xəstəxanasının yanı),,,40.420821,49.819956,,,
RAHAT,Rahat Market,"Sabuncu r/nu, Bakıxanov q/si, Sakit Qocayev 27C  Talkuçkanın yanı",,,40.417620,49.964262,,,
RAHAT,Rahat Market,Nəsimi r/nu Akademik Həsən Əliyev 1061 (Tbilisi pr.İnqilab kəsişmə),,,40.396217,49.819615,,,
RAHAT,Rahat Market,"Xətai r-u Ziğ yolu Nobel pr. 3A  (Nargilə kafesi ilə üzbəüz, Piyada keçidinin yanı)",,,40.367792,49.940160,,,
RAHAT,Rahat Market,"Xətai r-u Xudu Məmmədov 82, Hezi Aslanov metrosunun yaxinligi",,,40.370337,49.951005,,,
RAHAT,Rahat Market,Xətai r-u Nobel prospekti 189 ( kohne nömrə - 1 marketin yeri),,,40.371332,49.930912,,,
RAHAT,Rahat Market,Xırdalan şəhəri  (,,,40.475213,49.734780,,,
RAHAT,Rahat Market,"N. Nərimanov r., Təbriz küçəsi 60, Köhnə Çapayev, Su Sonası şad. s-nın 1-ci mərtəbəsi",,,40.392833,49.858112,,,
RAHAT,Rahat Market,"Yasamal r/nu Yeni yasamal Xiyabani 1  (Azpetrol YDM, 2-ci Alatava)",,,40.401298,49.797327,,,
RAHAT,Rahat Market,"Xəzər r., Mərdəkan qəsəbəsi, S. Yesenin küç., ev 76/1",,,40.487907,50.137326,,,
RAHAT,Rahat Market,"Xətai rayonu, N.Tusi küçəsi, 2942 (əvvəlki Home marketin yeri)",,,40.3660812,49.9623451,,,
RAHAT,Rahat Market,"Xəzər r., Qala küç. 15, Qala qəs.döngəsi",,,40.3925,49.8449,,,
RAHAT,Rahat Market,"Qaradağ ray., Müşfiqabad qəs., 2-ci küçə 2 C",,,40.4644019,49.6253372,,,
RAHAT,Rahat Market,"Yeni Günəşli qəs., AB y/sahəsi 16 A",,,40.3822174,49.9756365,,,
RAHAT,Rahat Market,"Nəsimi rayonu, Süleyman Rüstəm 61",,,40.396176004514,49.838442206383,,,
RAHAT,Rahat Market,"Yasamal rayonu, 442-ci məhəllə, M. F. Axundov küçəsi 150A",,,40.3802757,49.8250093,,,
RAHAT,Rahat Market,"Xətai rayonu, 2317-ci məhəllə, Babək pr. 90E",,,40.3949509,49.9564371,,,
RAHAT,Rahat Market,"Nərimanov r-nu, Ceyhun Hacıbəyli küçəsi 117A",,,40.4006844,49.8394251,,,
RAHAT,Rahat Market,"Xətai r., Günəşli qəs., İnqilab İsmayılov küç., 8",,,40.3600183,49.9674082,,,
RAHAT,Rahat Market,"Nizami rayonu, 8 km yaşayış sahəsi, Nəsimi küç. 25 A",,,40.414032,49.9398126,,,
RAHAT,Rahat Market,"Nizami r-u, Qara Qarayev küç. 62",,,40.4108038,49.9414664,,,
RAHAT,Rahat Market,"Qaradağ ray., Lökbatan qəs., Xocəsən yolu 57",,,40.3389278,49.7812724,,,
RAHAT,Rahat Market,"Nizami r-u, Qara Qarayev pr. 64/37 (Qara Qarayev metrosunun çıxışı)",,,40.4165696,49.9337762,,,
RAHAT,Rahat Market,"Nərimanov r., Əşrəf Əliyev 19A-17C",,,40.4061972,49.8712827,,,
RAHAT,Rahat Market,"Abşeron r., Xırdalan şəhəri, H. Əliyev pr., 28-ci məhəllə",,,40.4570254,49.7326793,,,
RAHAT,Rahat Market,"Xırdalan şəhəri, Səttar Bəhlulzadə küçəsi",,,40.4630276,49.691113,,,
RAHAT,Rahat Market,"Masallı şəhəri, Heydər Əliyev prospekti 171",,,39.0267603,48.6627373,,,
RAHAT,Rahat Market,"Sabunçu ray., Zabrat-Maştağa yolu-3, Ramana qəs.",,,40.5022582,49.9753481,,,
RAHAT,Rahat Market,"Binəqədi rayonu, Sulutəpə-Xocəsən qəsəbələrinin kəsişməsi, Ruslan Allahverdiyev küç.",,,40.561924,49.9218569,,,
RAHAT,Rahat Market,"Bakı şəhəri, Abşeron rayonu, Bakı-Şamaxı şossesi, Nübar qəsəbəsi ilə üzbəüz",,,40.4510704,49.6859427,,,
OBA,OBA-QARACHUXUR 8,,,,40.400486148133,49.978523413451,,,
OBA,OBA-QARACHUXUR 10,,,,40.401456167751,49.975469707631,,,
OBA,OBA-QARACHUXUR 5,,,,40.402745097545,49.981727,,,
OBA,OBA-BAKIXANOV 2,,,,40.401930097545,49.972973,,,
OBA,OBA-BAKIXANOV 12,,,,40.406109097545,49.978708,,,
OBA,OBA-QARACUXUR 7,,,,40.399004097545,49.972786,,,
OBA,OBA-QARACHUXUR 9,,,,40.404104353567,49.97240505733,,,
OBA,OBA-QARACUXUR,,,,40.396225097545,49.98379,,,
OBA,OBA-QARACHUXUR 13,,,,40.395062306775,49.973640397662,,,
OBA,OBA-BAKIXANOV 8,,,,40.410260751445,49.975744634,,,
OBA,OBA-QARACUXUR 6,,,,40.391844097545,49.972452,,,
OBA,OBA-BAKIXANOV 13,,,,40.409996097545,49.969257,,,
OBA,OBA-BAKIXANOV 21,,,,40.413252097545,49.976352,,,
OBA,OBA-EMIRCAN 7,,,,40.412067089566,49.987455403643,,,
OBA,OBA-BAKIXANOV 9,,,,40.412920097545,49.968913,,,
OBA,OBA-QARACHUXUR 12,,,,40.40925,49.99425,,,
OBA,OBA-EHMEDLI 25,,,,40.394194,49.961833,,,
OBA,OBA-XALQLAR 6,,,,40.397475097545,49.959602,,,
OBA,OBA-YENI GUNESLI,,,,40.386461097545,49.979988,,,
OBA,OBA-BAKIXANOV 16,,,,40.415583097545,49.969821,,,
OBA,OBA-8 KM,,,,40.407121097545,49.959271,,,
OBA,OBA-EHMEDLI 23,,,,40.395027091701,49.959757815345,,,
OBA,OBA-EHMEDLI 5,,,,40.393189097545,49.960628,,,
OBA,OBA-YENI GUNESLI 4,,,,40.385785097545,49.977519,,,
OBA,OBA-EMIRCAN 5,,,,40.415618097545,49.989844,,,
OBA,OBA-XALQLAR 1,,,,40.401683097545,49.955857,,,
OBA,OBA-8 KM BAZAR,,,,40.405626097545,49.956403,,,
OBA,OBA-EHMEDLI,,,,40.389105097545,49.961764,,,
OBA,OBA-BAKIXANOV 4,,,,40.414323097545,49.961917,,,
OBA,OBA-YENI GUNESLI 8,,,,40.383955097545,49.981711,,,
OBA,OBA-XALQLAR 4,,,,40.397488097545,49.955322,,,
OBA,OBA-8 KM 3,,,,40.408037097545,49.955621,,,
OBA,OBA-BAKIXANOV 10,,,,40.414412097545,49.960035,,,
OBA,OBA-EHMEDLI 19,,,,40.390098658113,49.95827142694,,,
OBA,OBA-EHMEDLI 15,,,,40.387377791365,49.960857002996,,,
OBA,OBA-EHMEDLI 16,,,,40.385993602679,49.962617854527,,,
OBA,OBA-BAKIXANOV 6,,,,40.419446097545,49.967446,,,
OBA,OBA-XALQLAR 3,,,,40.397812097545,49.952804,,,
OBA,OBA-NEFTCHILER 9,,,,40.406555097545,49.953013,,,
OBA,OBA.BAKIXANOV 23,,,,40.420873097545,49.970756,,,
OBA,OBA-EHMEDLI 22,,,,40.384579328173,49.96358098054,,,
OBA,OBA-XALQLAR 9,,,,40.398814097545,49.951478,,,
OBA,OBA-KOHNE GUNESLI,,,,40.382818097545,49.966329,,,
OBA,OBA-NEFTCHILER 19,,,,40.403762391655,49.950963936062,,,
OBA,OBA-XALQLAR 8,,,,40.392513097545,49.95346,,,
OBA,OBA-SURAXANI 6,,,,40.411863097545,50.002112,,,
OBA,OBA-NEFTCILER 8,,,,40.406646097545,49.95138,,,
OBA,OBA-BAKIXANOV,,,,40.420740097545,49.96663,,,
OBA,OBA-KGUNESHLI 14,,,,40.381783097545,49.968516,,,
OBA,OBA-EHMEDLI 11,,,,40.387509097545,49.957178,,,
OBA,OBA-NEFTCHILER,,,,40.410075097545,49.952248,,,
OBA,OBA-BAKIXANOV 7,,,,40.417735097545,49.959354,,,
OBA,OBA-XALQLAR 10,,,,40.395937097545,49.950505,,,
OBA,OBA-YENI GUNESLI 7,,,,40.379774097545,49.980071,,,
OBA,OBA-EMIRCAN 4,,,,40.422239097545,49.987622,,,
OBA,OBA-YENI GUNESLI 2,,,,40.380029097545,49.983807,,,
OBA,OBA-BAKIXANOV 22,,,,40.420959097545,49.964433,,,
OBA,OBA-EMIRCAN 2,,,,40.419321097545,49.995562,,,
OBA,OBA-SURAXANI 8,,,,40.416812317433,49.999297083612,,,
OBA,OBA-XETAI 3,,,,40.394291097545,49.950384,,,
OBA,OBA-NEFTCHILER 18,,,,40.411029421557,49.951281943229,,,
OBA,OBA-EHMEDLI 21,,,,40.382984004752,49.96080207236,,,
OBA,OBA-EHMEDLI 24,,,,40.388116009312,49.953345984655,,,
OBA,OBA-NEFTCHILER 7,,,,40.405671097545,49.947775,,,
OBA,OBA-EHMEDLI 20,,,,40.384690313861,49.956550235582,,,
OBA,OBA-NEFTCHILER 3,,,,40.403250097545,49.947063,,,
OBA,OBA-SURAXANI 9,,,,40.420042717929,49.998095725795,,,
OBA,OBA-XALQLAR 5,,,,40.396984097545,49.947359,,,
OBA,OBA-XALQLAR 7,,,,40.401856097545,49.946487,,,
OBA,OBA-SURAXANI 7,,,,40.419024097545,50.00021,,,
OBA,OBA-NEFTCHILER 4,,,,40.404928097545,49.946626,,,
OBA,OBA-EMIRCAN 6,,,,40.423368062569,49.992693910368,,,
OBA,OBA-NEFTCILER 16,,,,40.403418097545,49.946152,,,
OBA,OBA-EHMEDLI 2,,,,40.381531097545,49.959785,,,
OBA,OBA-YENI GUNESLI 3,,,,40.376440097545,49.978401,,,
OBA,OBA-KOHNE GUNESLI 4,,,,40.377718097545,49.967266,,,
OBA,OBA-BAKIXANOV 17,,,,40.421192097545,49.957055,,,
OBA,OBA-KGUNESHLI 15,,,,40.378819097545,49.962979,,,
OBA,OBA-SURAXANI 5,,,,40.422334097545,49.99948,,,
OBA,OBA-EHMEDLI 10,,,,40.381892097545,49.954439,,,
OBA,OBA-SURAXANI 3,,,,40.422139097545,50.000943,,,
OBA,OBA-EMIRCAN,,,,40.427567097545,49.987642,,,
OBA,OBA-SURAXANI 4,,,,40.417612097545,50.007095,,,
OBA,OBA-EHMEDLI 9,,,,40.386316097545,49.948353,,,
OBA,OBA-NEFTCHILER 13,,,,40.413441097545,49.945468,,,
OBA,OBA-KGUNESHLI 17,,,,40.375886097545,49.964785,,,
OBA,OBA-BAKIXANOV 25,,,,40.426382276898,49.961246729239,,,
OBA,OBA-XALQLAR 11,,,,40.396586097545,49.941795,,,
OBA,OBA-NEFTCHILER 2,,,,40.407289097545,49.941948,,,
OBA,OBA-NEFTCHILER 20,,,,40.409961988489,49.942558282174,,,
OBA,OBA-NEFTCHILER 12,,,,40.403294097545,49.94041,,,
OBA,OBA-BAKIXANOV 27,,,,40.423443,49.9531121,,,
OBA,OBA-EMIRCAN 3,,,,40.430084097545,49.986865,,,
OBA,OBA-BAKIXANOV 18,,,,40.429293097545,49.964536,,,
OBA,OBA-KOHNE GUNESLI 7,,,,40.372773097545,49.967601,,,
OBA,OBA-HEZI ASLANOV 4,,,,40.377339097545,49.954849,,,
OBA,OBA-NEFTCHILER 21,,,,40.412444,49.941222,,,
OBA,OBA-NEFTCHILER 10,,,,40.415711097545,49.943165,,,
OBA,OBA-HEZI ASLANOV 12,,,,40.378531097545,49.952069,,,
OBA,OBA-NEFTCHILER 11,,,,40.402603097545,49.93779,,,
OBA,OBA-EHMEDLI 13,,,,40.385433097545,49.943767,,,
OBA,OBA-NEFTCHILER 6,,,,40.408261097545,49.938307,,,
OBA,OBA-BULBULE 2,,,,40.433115700165,49.975179007577,,,
OBA,OBA-XEZER 5,,,,40.372800097545,49.95925,,,
OBA,OBA-BULBULE,,,,40.435142097545,49.978077,,,
OBA,OBA-BAKIXANOV 24,,,,40.432631195248,49.960156212788,,,
OBA,OBA-QARAYEV 8,,,,40.415831097545,49.937704,,,
OBA,OBA-ZIG 2,,,,40.369441097545,49.993309,,,
OBA,OBA-HEZI ASLANOV 13,,,,40.370957097545,49.957566,,,
OBA,OBA-BAKIXANOV 19,,,,40.431438097545,49.955583,,,
OBA,OBA-HEZI ASLANOV 16,,,,40.371298234753,49.955773413475,,,
OBA,OBA-QARAYEV 2,,,,40.420046097545,49.939092,,,
OBA,OBA-KOHNE GUNESLI 2,,,,40.368096097545,49.964568,,,
OBA,OBA-DEDE QORQUD,,,,40.387669097545,50.020767,,,
OBA,OBA-KOHNE GUNESHLI 21,,,,40.366973810575,49.966988281655,,,
OBA,OBA-HEZI ASLANOV 11,,,,40.371624097545,49.952795,,,
OBA,OBA-HEZI ASLANOV 19,,,,40.369373370879,49.955433662696,,,
OBA,OBA-HEZI ASLANOV 15,,,,40.370832494601,49.951802330642,,,
OBA,ZIG 4,,,,40.364854310473,49.983058482859,,,
OBA,OBA-BAKIXANOV 14,,,,40.435738097545,49.958121,,,
OBA,OBA-KOHNE GUNESLI 5,,,,40.365916097545,49.96295,,,
OBA,OBA-HEZI ASLANOV 3,,,,40.372614097545,49.946723,,,
OBA,OBA-EMIRCAN 10,,,,40.437417480584,49.994034142326,,,
OBA,OBA-RADIOZAVOD,,,,40.375666097545,49.940498,,,
OBA,OBA-KOHNE GUNESLI 9,,,,40.363828097545,49.966278,,,
OBA,OBA-DEDE QORQUD 2,,,,40.387854653808,50.025989271164,,,
OBA,OBA-QARAYEV 3,,,,40.419055097545,49.932027,,,
OBA,OBA-KOHNE GUNESHLI 19,,,,40.363017710857,49.968553941236,,,
OBA,OBA-QARAYEV 7,,,,40.415982097545,49.930096,,,
OBA,OBA-RAMANA 11,,,,40.441828097545,49.976785,,,
OBA,OBA- SABUNCU 20,,,,40.439868879742,49.9610833,,,
OBA,OBA-BAKIXANOV 26,,,,40.430639,49.941028,,,
OBA,OBA-ZIG 1,,,,40.360648097545,49.979805,,,
OBA,OBA-HEZI ASLANOV 7,,,,40.364434097545,49.955034,,,
OBA,OBA-RADIOZAVOD 4,,,,40.367896097545,49.946947,,,
OBA,OBA-HEZI ASLANOV 20,,,,40.363139,49.956167,,,
OBA,OBA-XEZER 4,,,,40.361737097545,49.960613,,,
OBA,OBA-HEZI ASLANOV 18,,,,40.363093661371,49.955511906724,,,
OBA,OBA-RADIOZAVOD 6,,,,40.365341543562,49.949188157721,,,
OBA,OBA-KOHNE GUNESHLI 18,,,,40.360031892273,49.966243286868,,,
OBA,OBA-QARAYEV,,,,40.423230097545,49.930076,,,
OBA,OBA-NARGILE 4,,,,40.370530097545,49.939367,,,
OBA,OBA-QARAYEV 9,,,,40.420577097545,49.927492,,,
OBA,OBA-KOHNE GUNESHLI 22,,,,40.359030396087,49.969636436946,,,
OBA,OBA-NARGILE 6,,,,40.368138962988,49.94240782699,,,
OBA,OBA-RAMANA 15,,,,40.444332097545,49.986522,,,
OBA,OBA-RAMANA 3,,,,40.444450097545,49.970109,,,
OBA,OBA-QARAYEV 4,,,,40.419713097545,49.926252,,,
OBA,OBA-ZIG 3,,,,40.357981097545,49.977477,,,
OBA,OBA-SABUNCU 8,,,,40.441232097545,49.95428,,,
OBA,OBA-XEZER 7,,,,40.360284097545,49.959562,,,
OBA,OBA-KOMBINAT 2,,,,40.365966097545,49.944405,,,
OBA,OBA-XEZER 3,,,,40.360884097545,49.956305,,,
OBA,OBA-EMIRCAN 8,,,,40.442086441159,50.000678823693,,,
OBA,OBA-XEZER 8,,,,40.359199482969,49.961363055819,,,
OBA,OBA-BAKIXANOV 20,,,,40.433632097545,49.93777,,,
OBA,OBA-RADIOZAVOD 7,,,,40.363776388114,49.946942101945,,,
OBA,OBA-KGUNESHLI 16,,,,40.357286097545,49.969864,,,
OBA,OBA-QARAYEV 11,,,,40.420919097545,49.925084,,,
OBA,NZS 9,,,,40.387358745759,49.921750188407,,,
OBA,OBA-NARGILE 5,,,,40.366590516801,49.940248721162,,,
OBA,OBA-ELEKTROTOK 2,,,,40.380599097545,49.924959,,,
OBA,OBA-NZS 14,,,,40.390403971928,49.920015518066,,,
OBA,OBA-RAMANA 33,,,,40.444459239069,49.999858600026,,,
OBA,OBA-RAMANA 24,,,,40.447093579377,49.989051046816,,,
OBA,OBA-RAMANA 27,,,,40.447111332761,49.989042487975,,,
OBA,OBA-ELEKTROTOK 3,,,,40.376782961734,49.926023326439,,,
OBA,OBA-KOHNE GUNESLI 10,,,,40.355330097545,49.967323,,,
OBA,OBA-Nargile 3,,,,40.369764097545,49.932712,,,
OBA,OBA-NZS 12,,,,40.388862974992,49.918664170694,,,
OBA,OBA-SABUNCU 5,,,,40.443867097545,49.949995,,,
OBA,OBA-RAMANA 16,,,,40.445310097545,50.003034,,,
OBA,OBA-NZS 7,,,,40.383388097545,49.919539,,,
OBA,OBA-SABUNCU 11,,,,40.446737097545,49.954341,,,
OBA,OBA-SABUNCU 9,,,,40.441965097545,49.942348,,,
OBA,OBA-NZS 5,,,,40.391078097545,49.914766,,,
OBA,OBA-SABUNCU 15,,,,40.446778097545,49.949582,,,
OBA,OBA-SABUNCU,,,,40.444759097545,49.943812,,,
OBA,OBA-SABUNCU 7,,,,40.446019097545,49.946094,,,
OBA,OBA-ELEKTROTOK,,,,40.376013097545,49.920109,,,
OBA,OBA-BAHAR 1,,,,40.366638097545,50.027136,,,
OBA,OBA-SABUNCU 21,,,,40.446928378169,49.946449996449,,,
OBA,OBA-NZS 10,,,,40.386491305375,49.913595125161,,,
OBA,OBA-SABUNCU 2,,,,40.447124097545,49.945441,,,
OBA,OBA-YENI SURAXANI 5,,,,40.428842139776,50.036235533874,,,
OBA,OBA-SABUNCU 13,,,,40.446657097545,49.943785,,,
OBA,OBA-YENI SURAXANI 1,,,,40.432814097545,50.033117,,,
OBA,OBA-SABUNCU 19,,,,40.441922274454,49.933321580711,,,
OBA,OBA-BAHAR 2,,,,40.366853761825,50.030606286825,,,
OBA,OBA-SABUNCU 4,,,,40.442171097545,49.933037,,,
OBA,OBA-KOROGLU 1,,,,40.415123291209,49.910612012099,,,
OBA,OBA-SABUNCU 3,,,,40.439834097545,49.928335,,,
OBA,YENI SURAXANI 4,,,,40.425333317397,50.041740517242,,,
OBA,OBA-SABUNCU 17,,,,40.446129266893,49.938271397912,,,
OBA,OBA-YENI SURAXANI 3,,,,40.431842097545,50.038467,,,
OBA,OBA-QUM ADASI,,,,40.348755097545,49.998611,,,
OBA,OBA-SABUNCU 12,,,,40.442599097545,49.929898,,,
OBA,OBA-NZS,,,,40.388244097545,49.907791,,,
OBA,OBA-RAMANA 10,,,,40.450981097545,50.01127,,,
OBA,RAMANA 23,,,,40.457053267629,49.987575468975,,,
OBA,OBA-NZS 13,,,,40.395452563219,49.90492799028,,,
OBA,OBA-SABUNCU 14,,,,40.446931097545,49.933818,,,
OBA,OBA-NAXIMOV 3,,,,40.344975097545,49.985243,,,
OBA,OBA-NZS 15,,,,40.386602175767,49.905937179761,,,
OBA,OBA-RAMANA 13,,,,40.458660097545,49.982487,,,
OBA,OBA-NZS 16,,,,40.394098063353,49.903626215345,,,
OBA,OBA-QUM ADASI 2,,,,40.344722,49.989,,,
OBA,OBA-SABUNCU 10,,,,40.444586097545,49.927153,,,
OBA,OBA-NZS 8,,,,40.386680097545,49.904465,,,
OBA,OBA-SABUNCU 6,,,,40.452929097545,49.942307,,,
OBA,OBA-NZS 2,,,,40.386886097545,49.903676,,,
OBA,OBA-SABUNCU 16,,,,40.446944097545,49.929365,,,
OBA,OBA-NZS 11,,,,40.385751003808,49.903470576729,,,
OBA,OBA-NAXIMOV 6,,,,40.342297870219,49.980351825189,,,
OBA,OBA-NAXIMOV 1,,,,40.342617097545,49.969284,,,
OBA,OBA-NAXIMOV 4,,,,40.341686097545,49.982559,,,
OBA,OBA-KESHLE 7,,,,40.409045524525,49.899983374568,,,
OBA,OBA-NAXIMOV 5,,,,40.342058097545,49.967541,,,
OBA,OBA-BALAXANI 6,,,,40.450172919614,49.931523748993,,,
OBA,OBA-NAXIMOV 2,,,,40.341053097545,49.977777,,,
OBA,OBA-SABUNCU 18,,,,40.447843015874,49.926040384517,,,
OBA,OBA-KESHLE 10,,,,40.393139,49.898,,,
OBA,OBA-KESHLE 8,,,,40.396104405312,49.895311753426,,,
OBA,OBA-KESHLE 4,,,,40.393939097545,49.895027,,,
OBA,OBA-ULDUZ 1,,,,40.418100097545,49.897195,,,
OBA,OBA-RAMANA 22,,,,40.463952443741,50.002205530771,,,
OBA,OBA-RAMANA 5,,,,40.461028097545,50.012814,,,
OBA,OBA-KESHLE,,,,40.392854097545,49.891103,,,
OBA,OBA-KESHLE 9,,,,40.396227771026,49.889608987045,,,
OBA,OBA-BALAXANI 2,,,,40.461526097545,49.926302,,,
OBA,OBA-RAMANA 38,,,,40.472889,49.994806,,,
OBA,OBA-RAMANA 30,,,,40.472607918892,50.002509339022,,,
OBA,OBA-NERIMANOV 9,,,,40.400192097545,49.881537,,,
OBA,OBA-ZABRAT 4,,,,40.471691097545,49.947378,,,
OBA,OBA-BALAXANI,,,,40.460428097545,49.918423,,,
OBA,OBA-RAMANA 20,,,,40.470787097545,50.015481,,,
OBA,OBA-RAMANA 39,,,,40.471849406752,50.014194423348,,,
OBA,OBA-HOVSAN 15,,,,40.358080097545,50.059411,,,
OBA,OBA-ZABRAT 2,,,,40.472860097545,49.94459,,,
OBA,OBA-RAMANA 2,,,,40.474118097545,50.007214,,,
OBA,OBA-RAMANA 8,,,,40.477144097545,49.987789,,,
OBA,OBA-RAMANA 31,,,,40.471097558291,50.02096165356,,,
OBA,OBA-ZABRAT 22,,,,40.477223665246,49.960243657672,,,
OBA,OBA-BALAXANI 4,,,,40.466308252439,49.922869474263,,,
OBA,OBA-NERIMANOV 14,,,,40.401177097545,49.87622,,,
OBA,OBA-ZABRAT 9,,,,40.475155097545,49.944871,,,
OBA,OBA-RAMANA 36,,,,40.475796574551,50.009066328834,,,
OBA,OBA-NERIMANOV 20,,,,40.40628195479,49.875830808402,,,
OBA,OBA-HOVSAN 17,,,,40.359007344759,50.064239048799,,,
OBA,OBA-NERIMANOV 6,,,,40.396401097545,49.875639,,,
OBA,OBA-HOVSAN 6,,,,40.384555097545,50.079703,,,
OBA,ZABRAT 15,,,,40.479490911533,49.959599357106,,,
OBA,RAMANA 25,,,,40.480115012201,49.993404015341,,,
OBA,OBA-HOVSAN 7,,,,40.364976097545,50.071211,,,
OBA,OBA-ZABRAT 19,,,,40.479339432772,49.954549400993,,,
OBA,OBA-BINE 57,,,,40.443785413973,50.068465749025,,,
OBA,OBA-RAMANA 12,,,,40.477417097545,50.015435,,,
OBA,OBA-RAMANA 18,,,,40.479178097545,50.011451,,,
OBA,OBA-NERIMANOV 19,,,,40.407603097545,49.871132,,,
OBA,OBA-ZABRAT 16,,,,40.478934905931,49.943409493366,,,
OBA,OBA-NERIMANOV 12,,,,40.395055097545,49.871145,,,
OBA,OBA-HOVSAN 18,,,,40.355044241944,50.066568184548,,,
OBA,OBA-HOVSAN 20,,,,40.361843200451,50.072206106735,,,
OBA,OBA-NERIMANOV 16,,,,40.404498097545,49.870538,,,
OBA,OBA-HOVSAN 9,,,,40.359432097545,50.071133,,,
OBA,OBA-HOVSAN 23,,,,40.380071079102,50.083513562568,,,
OBA,OBA-ZABRAT 20,,,,40.475596672824,49.927186112629,,,
OBA,OBA-HOVSAN 10,,,,40.364746097545,50.076929,,,
OBA,OBA-ZABRAT 17,,,,40.47821021984,49.933245389223,,,
OBA,OBA-XETAI 5,,,,40.383810097545,49.870235,,,
OBA,OBA-RAMANA 26,,,,40.486024897331,49.977926868671,,,
OBA,OBA-BALAXANI 3,,,,40.473315097545,49.919142,,,
OBA,OBA-NERIMANOV,,,,40.404452097545,49.866633,,,
OBA,OBA-BINE 44,,,,40.447844669263,50.071904015344,,,
OBA,OBA-XETAI 4,,,,40.381330097545,49.869672,,,
OBA,OBA-RAMANA 7,,,,40.487296097545,49.983716,,,
OBA,OBA-HOVSAN 2,,,,40.364602097545,50.080165,,,
OBA,OBA-HOVSAN,,,,40.358131097545,50.075722,,,
OBA,OBA-HOVSAN 8,,,,40.360700097545,50.07769,,,
OBA,OBA-BINE 73,,,,40.416125549327,50.089792810345,,,
OBA,OBA-BINE 54,,,,40.436447065427,50.082719838895,,,
OBA,OBA-BINE 72,,,,40.446019537436,50.076318184655,,,
OBA,OBA-CERMET,,,,40.418930097545,49.866261,,,
OBA,OBA-ZABRAT 14,,,,40.483400825029,49.938708526904,,,
OBA,OBA-ZABRAT 18,,,,40.481074148104,49.928523696059,,,
OBA,OBA-RAMANA,,,,40.489631097545,49.983227,,,
OBA,OBA-ZABRAT 3,,,,40.488145097545,49.955344,,,
OBA,OBA-BINE 5,,,,40.455193097545,50.070493,,,
OBA,OBA-ULD_HOVSAN 4,,,,40.359220097545,50.080779,,,
OBA,OBA-ZABRAT 24,,,,40.488921352195,49.956119973017,,,
OBA,OBA-BINE 53,,,,40.420694043961,50.092300486704,,,
OBA,OBA-HOVSAN 16,,,,40.367971745989,50.086645818582,,,
OBA,OBA-NERIMANOV 2,,,,40.401054097545,49.85937,,,
OBA,OBA-ZABRAT 21,,,,40.488322916422,49.94241143651,,,
OBA,OBA-BINE 47,,,,40.441555838536,50.08555733583,,,
OBA,OBA-BINE 27,,,,40.425005097545,50.094232,,,
OBA,OBA-BINE 10,,,,40.447412097545,50.082844,,,
OBA,OBA-NERIMANOV 23,,,,40.391402792836,49.85811230622,,,
OBA,OBA-BINE 34,,,,40.421909270323,50.096112211352,,,
OBA,BALAXANI 5,,,,40.478798990359,49.912196756174,,,
OBA,OBA-RAMANA 19,,,,40.494222097545,49.982188,,,
OBA,OBA-BINE 39,,,,40.436662497212,50.090954830276,,,
OBA,OBA-BINE 66,,,,40.444617239108,50.086191161966,,,
OBA,OBA-BINE 36,,,,40.424947196904,50.096403989006,,,
OBA,OBA-ZABRAT 7,,,,40.491318097545,49.945636,,,
OBA,OBA-BINE 42,,,,40.450457261278,50.08237617875,,,
OBA,OBA-BINE 45,,,,40.449803738408,50.082940013492,,,
OBA,OBA-HOVSAN 14,,,,40.374824097545,50.096325,,,
OBA,OBA-HOVSAN 19,,,,40.383828240494,50.100250130306,,,
OBA,OBA-ZABRAT 13,,,,40.493070097545,49.944074,,,
OBA,OBA-28 MAY 2,,,,40.377855097545,49.856899,,,
OBA,OBA-ZABRAT 10,,,,40.493920097545,49.946659,,,
OBA,OBA-CHAPAYEV,,,,40.390388,49.853582,,,
OBA,OBA-28 MAY 4,,,,40.380330097545,49.855808,,,
OBA,OBA-BINE 2,,,,40.439251097545,50.093792,,,
OBA,OBA-BINE 26,,,,40.434759097545,50.096684,,,
OBA,OBA-CHAPAYEV 3,,,,40.38928156629,49.852608762248,,,
OBA,OBA-BINE 21,,,,40.430755097545,50.099046,,,
OBA,OBA-BINE 7,,,,40.450400097545,50.087718,,,
OBA,OBA-BINE 61,,,,40.426092455519,50.10113633107,,,
OBA,OBA-GENCLIK 8,,,,40.403093964774,49.851082422089,,,
OBA,OBA-BINE 43,,,,40.437387058853,50.096536883612,,,
OBA,OBA-BINE 46,,,,40.423430099933,50.102514701022,,,
OBA,OBA-RAMANA 14,,,,40.497172097545,50.002684,,,
OBA,OBA-BINE 14,,,,40.424427097545,50.102894,,,
OBA,OBA-7 MKR 5,,,,40.427468097545,49.854447,,,
OBA,OBA-HOVSAN 12,,,,40.372988097545,50.10145,,,
OBA,OBA-BINE 40,,,,40.404600556319,50.107103662398,,,
OBA,OBA-GENCLIK 1,,,,40.402925097545,49.848648,,,
OBA,OBA-BINE 3,,,,40.421157097545,50.105222,,,
OBA,OBA-BINE 41,,,,40.417279014348,50.106468447054,,,
OBA,OBA-BINE 29,,,,40.409574097545,50.108075,,,
OBA,OBA-7 MKR 9,,,,40.428093515655,49.85252511598,,,
OBA,OBA-BINE 28,,,,40.424760097545,50.10504,,,
OBA,OBA-BINE 71,,,,40.472293656727,50.070244701753,,,
OBA,OBA-7 MKR 6,,,,40.432543097545,49.853415,,,
OBA,OBA-RAMANA 35,,,,40.501623282619,49.980667472582,,,
OBA,OBA-RAMANA 29,,,,40.501229458893,49.994550074495,,,
OBA,OBA-BINE 58,,,,40.445752163316,50.096917728478,,,
OBA,OBA-RAMANA 32,,,,40.501861038549,49.991868545442,,,
OBA,OBA-7 MKR,,,,40.415503097545,49.846647,,,
OBA,OBA-28 MAY 7,,,,40.380922097545,49.848129,,,
OBA,OBA-BINE 55,,,,40.432599176435,50.10497037021,,,
OBA,OBA-BINE 33,,,,40.450982239851,50.094846383931,,,
OBA,OBA-7MKR 10,,,,40.428506097545,49.849378,,,
OBA,OBA-BINE 50,,,,40.404429576171,50.11244105701,,,
OBA,OBA-BINE 51,,,,40.416712436508,50.111660642334,,,
OBA,OBA-GENCLIK 5,,,,40.411180780786,49.843634561813,,,
OBA,OBA-7 MKR 2,,,,40.416849097545,49.844374,,,
OBA,OBA-BINE 68,,,,40.451598483456,50.096694970008,,,
OBA,OBA-BINE 63,,,,40.449336346767,50.098313396349,,,
OBA,OBA-BINEQEDI 4,,,,40.423376097545,49.845648,,,
OBA,OBA-BINE 24,,,,40.472732097545,50.076995,,,
OBA,OBA-BINE 52,,,,40.422665092002,50.111685698782,,,
OBA,OBA-7 MKR 7,,,,40.427944097545,49.845809,,,
OBA,OBA-28 MAY 6,,,,40.380927097545,49.844109,,,
OBA,OBA-8 MKR 3,,,,40.424485744502,49.844347329824,,,
OBA,OBA-BINE 48,,,,40.418143952525,50.113767206652,,,
OBA,OBA-BINE 75,,,,40.444111,50.104056,,,
OBA,OBA-BINE 9,,,,40.419610097545,50.114591,,,
OBA,OBA-AZADLIQ,,,,40.397487097545,49.839381,,,
OBA,OBA-RAMANA 6,,,,40.507533097545,49.985326,,,
OBA,OBA-GENCLIK 7,,,,40.399910898391,49.83878410503,,,
OBA,OBA-28 MAY 3,,,,40.385404097545,49.840347,,,
OBA,OBA-BINE 74,,,,40.427572718912,50.113682793254,,,
OBA,OBA-BINE 8,,,,40.447067097545,50.104589,,,
OBA,OBA-BINE 38,,,,40.483871657031,50.066897551566,,,
OBA,OBA-7 MKR 8,,,,40.413088097545,49.838181,,,
OBA,OBA-8 MKR 2,,,,40.417736919269,49.838674732636,,,
OBA,OBA-BINEQEDI 19,,,,40.432207493129,49.842780608237,,,
OBA,OBA-BINE 32,,,,40.452967876837,50.10236409207,,,
OBA,OBA-NERIMANOV 8,,,,40.408558097545,49.836201,,,
OBA,OBA-SAVALAN 6,,,,40.510585104249,49.972584813204,,,
OBA,OBA-BINEQEDI,,,,40.436264097545,49.842112,,,
OBA,OBA-BINE 13,,,,40.461744097545,50.098163,,,
OBA,OBA-NERIMANOV 5,,,,40.399827097545,49.834256,,,
OBA,OBA-BINE 6,,,,40.485086097545,50.073056,,,
OBA,OBA-SAVALAN 11,,,,40.512222,49.971444,,,
OBA,OBA-BINE 70,,,,40.429681923448,50.119343068139,,,
OBA,OBA-BINE 59,,,,40.44757396525,50.111055704649,,,
OBA,OBA-KUBINKA 1,,,,40.383248097545,49.834141,,,
OBA,OBA-XUTOR 4,,,,40.423210319421,49.834391246733,,,
OBA,BINE 35,,,,40.426983985655,50.121537421548,,,
OBA,BINE 31,,,,40.449378789787,50.111478354729,,,
OBA,OBA-XUTOR 5,,,,40.416886246795,49.832086929493,,,
OBA,OBA-BINE 30,,,,40.422091097545,50.123243,,,
OBA,OBA-BINE 62,,,,40.489399599268,50.070778724588,,,
OBA,OBA-BINEQEDI 3,,,,40.435904097545,49.836971,,,
OBA,OBA-SAVALAN 9,,,,40.51382860466,49.960624623457,,,
OBA,OBA-BINE 60,,,,40.430517398489,50.121738506742,,,
OBA,OBA-BINE 65,,,,40.494978485002,50.06207077759,,,
OBA,OBA-BAKSOVET 3,,,,40.371084208752,49.834827935581,,,
OBA,OBA-NIZAMI 2,,,,40.379117097545,49.831325,,,
OBA,OBA-XUTOR 3,,,,40.413025097545,49.828326,,,
OBA,OBA-BINE 49,,,,40.413742217621,50.127993477966,,,
OBA,OBA-BINE 67,,,,40.409830278838,50.128551955838,,,
OBA,OBA-NIZAMI 3,,,,40.377510097545,49.830511,,,
OBA,OBA-SAVALAN 4,,,,40.516325097545,49.963184,,,
OBA,OBA-NERIMANOV 3,,,,40.408525097545,49.826987,,,
OBA,OBA-SAVALAN 7,,,,40.51742152462,49.968117442324,,,
OBA,OBA-SAVALAN 8,,,,40.51642873176,49.955013683942,,,
OBA,OBA-6 MKR 1,,,,40.419523097545,49.827198,,,
OBA,OBA-BINE 56,,,,40.424591694127,50.128051679132,,,
OBA,OBA-XUTOR 2,,,,40.412981097545,49.824861,,,
OBA,OBA-MEHEMMEDI 3,,,,40.508650097545,49.915133,,,
OBA,OBA-BINE 25,,,,40.432033097545,50.127086,,,
OBA,OBA-NESIMI 1,,,,40.425096097545,49.826223,,,
OBA,OBA-NIZAMI 1,,,,40.380210097545,49.82571,,,
OBA,OBA-INQLAB 1,,,,40.397629097545,49.823068,,,
OBA,OBA-MEHEMMEDI 2,,,,40.507034097545,49.907621,,,
OBA,OBA-DIGAH 2,,,,40.496002568101,49.88380647791,,,
OBA,OBA-BAKSOVET,,,,40.367969097545,49.828194,,,
OBA,OBA-3 MKR 3,,,,40.409822097545,49.821416,,,
OBA,OBA-NESIMI 2,,,,40.424833097545,49.824008,,,
OBA,OBA-YENI YASAMAL 5,,,,40.391235097545,49.821488,,,
OBA,OBA-INQILAB 4,,,,40.401735097545,49.820563,,,
OBA,OBA-4 MKR,,,,40.418032097545,49.821984,,,
OBA,OBA-MASTAGA 11,,,,40.514615995492,50.031645880822,,,
OBA,OBA-SAVALAN 10,,,,40.52208055652,49.978802666268,,,
OBA,OBA-BINEQEDI 9,,,,40.462654097545,49.841585,,,
OBA,OBA-BILECERI 8,,,,40.441507097545,49.828488,,,
OBA,OBA-MEHDIABAD 5,,,,40.485088097545,49.862853,,,
OBA,OBA-3MKR 7,,,,40.410113097545,49.818913,,,
OBA,OBA-BAYIL 10,,,,40.348548274409,49.83324478269,,,
OBA,OBA-4 MKR 11,,,,40.416984097545,49.818201,,,
OBA,OBA-BINEQEDI 2,,,,40.467407097545,49.841961,,,
OBA,OBA-3 MKR 4,,,,40.407677097545,49.817075,,,
OBA,OBA-DIGAH 1,,,,40.492938097545,49.870169,,,
OBA,OBA-BAYIL 3,,,,40.343822097545,49.835691,,,
OBA,OBA-BAYIL,,,,40.341218097545,49.837201,,,
OBA,OBA-MEHEMMEDI 6,,,,40.523298186269,49.949895244771,,,
OBA,OBA-4 MKR 5,,,,40.419628097545,49.817297,,,
OBA,OBA-3MKR 5,,,,40.409889097545,49.815924,,,
OBA,OBA-ELMLER 2,,,,40.376016097545,49.818765,,,
OBA,OBA-9 MKR 6,,,,40.421506387339,49.817122349072,,,
OBA,OBA-ELMLER 3,,,,40.368132097545,49.820803,,,
OBA,OBA-ECEMI 2,,,,40.41333158666,49.815270464779,,,
OBA,OBA-MASHTAGA 18,,,,40.524559918403,50.007702606387,,,
OBA,OBA-BAYIL 8,,,,40.340064615028,49.834665732505,,,
OBA,OBA-9 MKR 1,,,,40.422993097545,49.815733,,,
OBA,OBA-4MKR 8,,,,40.412135097545,49.813824,,,
OBA,OBA-4 MKR 2,,,,40.415240097545,49.814162,,,
OBA,OBA-ELMLER 4,,,,40.384602097545,49.81469,,,
OBA,OBA-ELMLER 5,,,,40.365054097545,49.820213,,,
OBA,OBA-BILECERI 12,,,,40.444074441282,49.822462104563,,,
OBA,OBA-ELMLER 8,,,,40.370694947754,49.817886633618,,,
OBA,OBA-ECEMI 1,,,,40.408525097545,49.812918,,,
OBA,OBA-4 MKR 12,,,,40.415949,49.813225,,,
OBA,OBA-MASHTAGA 15,,,,40.521901147126,50.0293889,,,
OBA,OBA-9 MKR 7,,,,40.425324549767,49.81451655003,,,
OBA,OBA-BAYIL 4,,,,40.340628097545,49.831905,,,
OBA,OBA-BINEQEDI 18,,,,40.475603346952,49.84167195173,,,
OBA,OBA-MASHTAGA 7,,,,40.526025097545,50.015126,,,
OBA,OBA-MEHDIABAD 10,,,,40.48861214671,49.855164788361,,,
OBA,OBA-YENI BILECERI,,,,40.433410097545,49.815344,,,
OBA,OBA-4 MKR 9,,,,40.413085097545,49.809925,,,
OBA,OBA-4 MKR 10,,,,40.417395097545,49.810478,,,
OBA,OBA-MEHDIABAD 7,,,,40.490926496225,49.855813608828,,,
OBA,OBA-5 MKR 3,,,,40.407983184687,49.808739282421,,,
OBA,OBA-QALA,,,,40.461552097545,50.128615,,,
OBA,OBA-BINEQEDI 16,,,,40.463759097545,49.829234,,,
OBA,OBA-QALA 6,,,,40.468296733865,50.123932013099,,,
OBA,OBA-5 MKR 2,,,,40.410486097545,49.808232,,,
OBA,OBA-BINEQEDI 12,,,,40.464348097545,49.828864,,,
OBA,OBA-BILECERI 6,,,,40.431103097545,49.811996,,,
OBA,OBA-MASTAGA 2,,,,40.530279097545,50.001848,,,
OBA,OBA-BILECERI 9,,,,40.437200097545,49.813947,,,
OBA,OBA-BADAMDAR 5,,,,40.354839097545,49.818477,,,
OBA,OBA-MASHTAGA 23,,,,40.531837,49.991328,,,
OBA,OBA-BINEQEDI 23,,,,40.470370633606,49.831771955818,,,
OBA,OBA-QALA 2,,,,40.471563097545,50.124275,,,
OBA,OBA-ELMLER 1,,,,40.380823097545,49.807614,,,
OBA,OBA-MASTAGA 5,,,,40.531708097545,50.005685,,,
OBA,OBA-YENI YASAMAL 4,,,,40.387515097545,49.805647,,,
OBA,OBA-9 MKR 4,,,,40.414817097545,49.805156,,,
OBA,OBA-MASTAGA,,,,40.532670097545,50.004725,,,
OBA,OBA-MASTAGA 14,,,,40.533499664901,49.997938093918,,,
OBA,OBA-20 YANVAR,,,,40.411790097545,49.803964,,,
OBA,OBA-YYASAMAL 25,,,,40.389126097545,49.804217,,,
OBA,OBA-BINEQEDI 21,,,,40.475973204776,49.832743723164,,,
OBA,OBA-BILECERI 3,,,,40.439538097545,49.810202,,,
OBA,OBA-YENI YASAMAL 16,,,,40.393115097545,49.80337,,,
OBA,OBA-BINEQEDI 13,,,,40.476594097545,49.83316,,,
OBA,OBA-MASHTAGA 19,,,,40.53365770622,50.004083299998,,,
OBA,OBA-YENI YASAMAL 17,,,,40.379070097545,49.805319,,,
OBA,OBA-ALATAVA 1,,,,40.405328097545,49.802805,,,
OBA,OBA-YENI YASAMAL 9,,,,40.381296097545,49.804719,,,
OBA,OBA-MASHTAGA 16,,,,40.532576081972,50.013644655819,,,
OBA,OBA-YENI YASAMAL,,,,40.387441097545,49.803472,,,
OBA,OBA-MEHDIABAD 4,,,,40.496499097545,49.854204,,,
OBA,MASTAGA 12,,,,40.530690595062,50.024960788602,,,
OBA,OBA-YENI YASAMAL 30,,,,40.377305832909,49.804976751452,,,
OBA,OBA-BINEQEDI G.S.,,,,40.482280097545,49.837396,,,
OBA,OBA-YYASAMAL 20,,,,40.388952097545,49.802749,,,
OBA,OBA-YENI YASAMAL 34,,,,40.374080283089,49.805497493462,,,
OBA,OBA-YENI YASAMAL 29,,,,40.378665050232,49.804336829365,,,
OBA,OBA-YENI YASAMAL 35,,,,40.374465635247,49.80508241124,,,
OBA,OBA-YYASAMAL 24,,,,40.372542097545,49.80552,,,
OBA,OBA-BILECERI 13,,,,40.440249997524,49.808654764717,,,
OBA,OBA-MASHTAGA 13,,,,40.527234912798,50.042263262074,,,
OBA,OBA-YENI YASAMAL 12,,,,40.395236097545,49.801347,,,
OBA,OBA-BILECERI,,,,40.442795097545,49.809524,,,
OBA,OBA-MASTAGA 10,,,,40.536283097545,49.989964,,,
OBA,OBA-YASAMAL 43,,,,40.379361,49.803139,,,
OBA,OBA-20 YANVAR 2,,,,40.412850644311,49.800995300052,,,
OBA,OBA-YENI YASAMAL 19,,,,40.386661097545,49.801484,,,
OBA,OBA-YENI YASAMAL 27,,,,40.391878955916,49.800774453755,,,
OBA,OBA-SHAGAN 6,,,,40.477921408095,50.125221209372,,,
OBA,OBA-YENI YASAMAL 38,,,,40.381793341056,49.802138899998,,,
OBA,OBA-MEHDIABAD 1,,,,40.500407097545,49.856036,,,
OBA,OBA-BINEQEDI 17,,,,40.471172978401,49.825079004981,,,
OBA,OBA-BILECERI 4,,,,40.431852097545,49.804124,,,
OBA,OBA-ALATAVA 3,,,,40.406012077209,49.799417846551,,,
OBA,OBA-BUZOVNA 3,,,,40.489003097545,50.115404,,,
OBA,OBA-TURKAN 5,,,,40.369597324556,50.152064984017,,,
OBA,OBA-YENI YASAMAL 39,,,,40.394370977875,49.799023988361,,,
OBA,OBA-ALATAVA 2,,,,40.404426052123,49.798633855874,,,
OBA,OBA-BUZOVNA 4,,,,40.518019097545,50.072847,,,
OBA,OBA-BINEQEDI 24,,,,40.465949404382,49.819215568741,,,
OBA,OBA-BINEQEDI 25,,,,40.462468888581,49.816704495688,,,
OBA,OBA-BAYIL 2,,,,40.335477097545,49.820343,,,
OBA,OBA-BILECERI 5,,,,40.424864097545,49.800506,,,
OBA,OBA-YENI YASAMAL 18,,,,40.400187097545,49.797292,,,
OBA,OBA-YYASAMAL 26,,,,40.399262097545,49.797072,,,
OBA,OBA-MEHDIABAD 8,,,,40.498306185964,49.848536658142,,,
OBA,OBA-AVTOVAGZAL,,,,40.422075097545,49.79872,,,
OBA,OBA-BILECERI 22,,,,40.441685455902,49.804371828834,,,
OBA,OBA-BUZOVNA 17,,,,40.502574386672,50.102331370913,,,
OBA,OBA-BUZOVNA 15,,,,40.492223655316,50.11545431853,,,
OBA,OBA-BINEQEDI 6,,,,40.474128097545,49.823349,,,
OBA,OBA-BUZOVNA 7,,,,40.496849097545,50.110325,,,
OBA,OBA-YENI YASAMAL 7,,,,40.393940097545,49.795627,,,
OBA,OBA-BINEQEDI 14,,,,40.472733097545,49.820933,,,
OBA,OBA-BILECERI 19,,,,40.445242094056,49.804453837113,,,
OBA,OBA-SHAGAN 5,,,,40.483283465459,50.126387785783,,,
OBA,OBA-BILECERI 2,,,,40.437456097545,49.801347,,,
OBA,OBA-YENI YASAMAL 40,,,,40.390417242363,49.795522373887,,,
OBA,OBA-MASTAGA 17,,,,40.532657537111,50.042504291564,,,
OBA,OBA-BAYIL 6,,,,40.326487097545,49.823162,,,
OBA,OBA-NARDARAN 4,,,,40.541702080687,49.984351268461,,,
OBA,OBA-YYASAMAL 23,,,,40.390078097545,49.794326,,,
OBA,OBA-BAYIL 7,,,,40.329810658208,49.819628133395,,,
OBA,OBA-BILECERI 18,,,,40.451141203689,49.80494341021,,,
OBA,OBA-MERDEKAN 12,,,,40.468700738514,50.141337786508,,,
OBA,OBA-YENI YASAMAL 3,,,,40.399925097545,49.792627,,,
OBA,OBA-BUZOVNA 13,,,,40.503111801715,50.107749080309,,,
OBA,OBA-YENI YASAMAL 2,,,,40.394305097545,49.792344,,,
OBA,OBA-BILECERI 14,,,,40.439478491319,49.798609294281,,,
OBA,OBA-ALBALILIQ 4,,,,40.526333,50.068472,,,
OBA,OBA-YENI YASAMAL 42,,,,40.392205057502,49.791444399998,,,
OBA,OBA-QALA 5,,,,40.451928341548,50.153566205271,,,
OBA,OBA-BILECERI 11,,,,40.447286097545,49.798599,,,
OBA,OBA-YENI YASAMAL 28,,,,40.386878197853,49.78968770167,,,
OBA,OBA-BADAMDAR 2,,,,40.340111097545,49.806685,,,
OBA,OBA-BAYIL 5,,,,40.323695097545,49.818448,,,
OBA,OBA-BILECERI 15,,,,40.44652041193,49.797189035582,,,
OBA,OBA-BUZOVNA 8,,,,40.507797097545,50.107917,,,
OBA,OBA-SHAGAN 1,,,,40.489924097545,50.129379,,,
OBA,OBA-YENI YASAMAL 31,,,,40.390512257358,49.788054622019,,,
OBA,BADAMDAR 6,,,,40.338182141328,49.805704216643,,,
OBA,OBA-YENI YASAMAL 21,,,,40.388384097545,49.787374,,,
OBA,OBA-BADAMDAR 7,,,,40.338025974277,49.805692717609,,,
OBA,OBA-YYASAMAL 22,,,,40.389485097545,49.787166,,,
OBA,OBA-BILECERI 17,,,,40.439650383719,49.79288473605,,,
OBA,OBA-BADAMDAR 8,,,,40.336263670252,49.805534710958,,,
OBA,OBA-KURDEXANI 4,,,,40.541871663239,49.921096072485,,,
OBA,OBA-MERDEKAN 4,,,,40.476018097545,50.144573,,,
OBA,OBA-SHAGAN 3,,,,40.493712097545,50.128611,,,
OBA,OBA-BUZOVNA 9,,,,40.518746097545,50.094817,,,
OBA,OBA-MERDEKAN 11,,,,40.487516097545,50.137451,,,
OBA,OBA-BUZOVNA 11,,,,40.516683097545,50.101774,,,
OBA,OBA-MERDEKAN 2,,,,40.487800097545,50.138157,,,
OBA,OBA-PIRSAGI 4,,,,40.528201097545,49.874179,,,
OBA,OBA-NARDARAN 2,,,,40.550954097545,49.99469,,,
OBA,OBA-BUZOVNA,,,,40.519147097545,50.102565,,,
OBA,OBA-SHAGAN 7,,,,40.497888885198,50.131526881517,,,
OBA,OBA-KURDEXANI 2,,,,40.545770097545,49.916935,,,
OBA,OBA-QALA 4,,,,40.446659097545,50.168626,,,
OBA,OBA-BILECERI 16,,,,40.443268384541,49.785358415905,,,
OBA,OBA-SHAGAN 4,,,,40.496820097545,50.134898,,,
OBA,OBA-BINEQEDI 26,,,,40.456082617824,49.790111908596,,,
OBA,OBA-BUZOVNA 16,,,,40.525031,50.097809,,,
OBA,OBA-XOCASEN 2,,,,40.425224126516,49.778346133819,,,
OBA,OBA-BINEQEDI 20,,,,40.448862109588,49.785268404306,,,
OBA,OBA-BUZOVNA 5,,,,40.515912097545,50.114505,,,
OBA,OBA-MERDEKAN 9,,,,40.487041097545,50.147748,,,
OBA,OBA-SHUVELAN 10,,,,40.473540679994,50.159024721521,,,
OBA,OBA-BUZOVNA 2,,,,40.527594097545,50.097671,,,
OBA,OBA-MERDEKAN 13,,,,40.493547095626,50.142946757731,,,
OBA,OBA-BUZOVNA 12,,,,40.52094717765,50.110048724425,,,
OBA,OBA-BUZOVNA 14,,,,40.533826386101,50.087710414969,,,
OBA,OBA-QALA 7,,,,40.443583053154,50.176324298265,,,
OBA,OBA-SULUTEPE 4,,,,40.431247097545,49.775143,,,
OBA,OBA-NARDARAN 1,,,,40.557623097545,50.00796,,,
OBA,OBA-MERDEKAN 8,,,,40.481854097545,50.157116,,,
OBA,OBA-BUZOVNA 6,,,,40.510381097545,50.128945,,,
OBA,OBA-XOCASEN 1,,,,40.416169292657,49.771375475809,,,
OBA,OBA-KURDEXANI 3,,,,40.553793097545,49.918413,,,
OBA,OBA-BINEQEDI 15,,,,40.449114097545,49.777835,,,
OBA,OBA-MERDEKAN,,,,40.485943097545,50.15665,,,
OBA,OBA-MERDEKAN 10,,,,40.484619097545,50.158054,,,
OBA,OBA-SULUTEPE 8,,,,40.433386364588,49.771862073644,,,
OBA,OBA-BILGEH 4,,,,40.558001532247,50.024935598963,,,
OBA,OBA-BILGEH 3,,,,40.557932097545,50.028401,,,
OBA,OBA-SULUTEPE 5,,,,40.425455097545,49.768645,,,
OBA,OBA-SULUTEPE 2,,,,40.413393097545,49.766554,,,
OBA,OBA-FATMAYI 2,,,,40.529252097545,49.846628,,,
OBA,OBA-MASAZIR 20,,,,40.463471537539,49.78016382732,,,
OBA,OBA-MERDEKAN 5,,,,40.484695097545,50.165514,,,
OBA,OBA-BILECERI 21,,,,40.447272840918,49.769703273017,,,
OBA,OBA-MASAZIR 16,,,,40.458981925282,49.7746285945,,,
OBA,OBA-MERDEKAN 6,,,,40.501017097545,50.151674,,,
OBA,OBA-SHUVELAN 6,,,,40.482663097545,50.167758,,,
OBA,OBA-SHUVELAN 9,,,,40.476504874063,50.172610238504,,,
OBA,OBA-SULUTEPE 7,,,,40.415145379168,49.759359557776,,,
OBA,OBA-XIRDALAN 33,,,,40.441060854948,49.764210517211,,,
OBA,OBA-MERDEKAN 7,,,,40.492396097545,50.164535,,,
OBA,OBA-BILGEH,,,,40.563437097545,50.039382,,,
OBA,OBA-SHUVELAN 7,,,,40.485834097545,50.170703,,,
OBA,OBA-SULUTEPE 9,,,,40.431943492862,49.758998965084,,,
OBA,OBA-MASAZIR 11,,,,40.452381834819,49.765028744539,,,
OBA,OBA-XIRDALAN 16,,,,40.441132097545,49.759915,,,
OBA,OBA-TURKAN 3,,,,40.367692097545,50.199285,,,
OBA,PIRSAGI 5,,,,40.558456366404,49.88423985133,,,
OBA,OBA-PIRSAGI 2,,,,40.560594097545,49.890317,,,
OBA,OBA-MASAZIR 14,,,,40.462110969182,49.765863055705,,,
OBA,OBA-SHUVELAN 4,,,,40.475612097545,50.18381,,,
OBA,OBA-SHUVELAN 2,,,,40.485026097545,50.177794,,,
OBA,OBA-MASAZIR 19,,,,40.475881123162,49.771002452174,,,
OBA,OBA-MASAZIR 9,,,,40.460045097545,49.762421,,,
OBA,OBA-MASAZIR 10,,,,40.468119097545,49.765999,,,
OBA,OBA-SULUTEPE 1,,,,40.437776097545,49.75361,,,
OBA,OBA-XIRDALAN 36,,,,40.447459075954,49.756258773017,,,
OBA,OBA-BILGEH 2,,,,40.571964097545,50.039265,,,
OBA,OBA-XIRDALAN 37,,,,40.451127320194,49.754104757672,,,
OBA,OBA-MASAZIR 12,,,,40.47907,49.768037,,,
OBA,OBA-XIRDALAN 5,,,,40.446375097545,49.751326,,,
OBA,OBA-XASAXUNA 5,,,,40.427699989847,50.210144415345,,,
OBA,OBA-MASAZIR 18,,,,40.483559329906,49.768692846287,,,
OBA,OBA-XIRDALAN 27,,,,40.448631516969,49.750794868177,,,
OBA,OBA-GORADIL 1,,,,40.544369252873,49.835100371164,,,
OBA,OBA-MASAZIR 5,,,,40.485487097545,49.769425,,,
OBA,OBA-XIRDALAN 31,,,,40.457332507537,49.753724401614,,,
OBA,OBA-XIRDALAN 25,,,,40.449450697563,49.75015396453,,,
OBA,OBA-HOKMELI 5,,,,40.421067602496,49.741542065852,,,
OBA,OBA-HOKMELI 7,,,,40.441712469581,49.745215776565,,,
OBA,OBA-XASAXUNA 3,,,,40.439973279357,50.211767799058,,,
OBA,OBA-TURKAN 6,,,,40.359627681879,50.210659697912,,,
OBA,OBA-XIRDALAN 2,,,,40.456726097545,49.750055,,,
OBA,OBA-QOBUPARK,,,,40.346950212052,49.748881668302,,,
OBA,OBA-TURKAN 2,,,,40.365745097545,50.214058,,,
OBA,OBA-MASAZIR 22,,,,40.481589524883,49.761569878576,,,
OBA,OBA-XIRDALAN 40,,,,40.455509965074,49.747096610508,,,
OBA,OBA-HOKMELI 4,,,,40.440076930077,49.741278083138,,,
OBA,OBA-XIRDALAN 24,,,,40.449874097545,49.74389,,,
OBA,OBA-MASAZIR 8,,,,40.480034097545,49.75762,,,
OBA,OBA-XIRDALAN 8,,,,40.461945097545,49.748021,,,
OBA,OBA-TURKAN 4,,,,40.362641097545,50.216308,,,
OBA,OBA-XIRDALAN 6,,,,40.455482097545,49.743815,,,
OBA,OBA-MASAZIR 3,,,,40.476199097545,49.752736,,,
OBA,OBA.MASAZIR 13,,,,40.484923,49.758009,,,
OBA,OBA-XIRDALAN 18,,,,40.454550097545,49.740328,,,
OBA,OBA-MASAZIR 21,,,,40.478884481357,49.750237941759,,,
OBA,OBA-XIRDALAN 20,,,,40.454956182015,49.738666040188,,,
OBA,OBA-TURKAN 1,,,,40.365154097545,50.223009,,,
OBA,OBA-XIRDALAN,,,,40.457259097545,49.739339,,,
OBA,OBA-LOKBATAN 6,,,,40.331125097545,49.745696,,,
OBA,OBA-XIRDALAN 19,,,,40.460910097545,49.739407,,,
OBA,OBA-MASAZIR,,,,40.490714097545,49.755529,,,
OBA,OBA-MASAZIR 24,,,,40.47575,49.746167,,,
OBA,OBA-ABSHERON GS 3,,,,40.470880549534,49.743046442328,,,
OBA,OBA-XIRDALAN 3,,,,40.456174097545,49.736468,,,
OBA,OBA-LOKBATAN 8,,,,40.32744328942,49.74569334487,,,
OBA,OBA-QRECH,,,,40.495921097545,50.198186,,,
OBA,OBA-NOVXANI 3,,,,40.524420097545,49.783265,,,
OBA,OBA-XIRDALAN 14,,,,40.457713097545,49.735727,,,
OBA,OBA-ABSHERON GS,,,,40.470773097545,49.740451,,,
OBA,OBA-MASAZIR 15,,,,40.490697737513,49.75210698125,,,
OBA,OBA-MASAZIR 7,,,,40.494124097545,49.754374,,,
OBA,OBA-MASAZIR 23,,,,40.489139,49.749861,,,
OBA,OBA-XIRDALAN 23,,,,40.456070792668,49.732221925896,,,
OBA,OBA-XIRDALAN 22,,,,40.454399097545,49.731467,,,
OBA,OBA-LOKBATAN,,,,40.325910097545,49.74209,,,
OBA,OBA-TURKAN 7,,,,40.365269245968,50.229938267347,,,
OBA,OBA-SHUVELAN 3,,,,40.493404097545,50.205269,,,
OBA,OBA-XIRDALAN 29,,,,40.463663972504,49.734296391551,,,
OBA,OBA-XIRDALAN 34,,,,40.458827482761,49.732027189944,,,
OBA,OBA-ABSHERON GS 2,,,,40.473622737377,49.738746334439,,,
OBA,OBA-MASAZIR 2,,,,40.491618097545,49.74879,,,
OBA,OBA-XIRDALAN 10,,,,40.451461097545,49.728203,,,
OBA,OBA-ZIRE 5,,,,40.423372097545,50.235707,,,
OBA,OBA-MASAZIR 4,,,,40.492605097545,49.747374,,,
OBA,OBA-NOVXANI 4,,,,40.528592097545,49.778459,,,
OBA,OBA-HOKMELI,,,,40.433892097545,49.720978,,,
OBA,OBA-QOBU 2,,,,40.391378441593,49.716950980305,,,
OBA,OBA-XIRDALAN 26,,,,40.460548079988,49.727688157671,,,
OBA,OBA-LOKBATAN 11,,,,40.309860265279,49.744472199997,,,
OBA,OBA-XIRDALAN 28,,,,40.456489709489,49.724900036681,,,
OBA,OBA-XIRDALAN 39,,,,40.458917,49.725806,,,
OBA,OBA-SHUVELAN 8,,,,40.492351232848,50.21305998651,,,
OBA,OBA-NOVXANI,,,,40.533829097545,49.779923,,,
OBA,OBA-HOKMELI 3,,,,40.433218928131,49.717361100003,,,
OBA,OBA-XIRDALAN 41,,,,40.46529310648,49.72759547658,,,
OBA,OBA-XIRDALAN 35,,,,40.448932925259,49.72138255767,,,
OBA,OBA-QOBU 3,,,,40.396297001971,49.713629633121,,,
OBA,OBA-LOKBATAN 2,,,,40.322255097545,49.734829,,,
OBA,OBA-XIRDALAN 7,,,,40.459031097545,49.723927,,,
OBA,OBA-XIRDALAN 12,,,,40.463278097545,49.724952,,,
OBA,OBA-XIRDALAN 21,,,,40.463591097545,49.724338,,,
OBA,OBA-XIRDALAN 30,,,,40.458452924446,49.722152544265,,,
OBA,OBA-MASAZIR 17,,,,40.493006628754,49.739748056908,,,
OBA,OBA-XIRDALAN 13,,,,40.461197097545,49.721627,,,
OBA,OBA-HOKMELI 6,,,,40.431240483352,49.712542853218,,,
OBA,OBA-LOKBATAN 9,,,,40.328572784983,49.727044871149,,,
OBA,OBA-QOBU,,,,40.404895097545,49.708652,,,
OBA,OBA-LOKBATAN 7,,,,40.321894429943,49.729890221071,,,
OBA,OBA-XIRDALAN 9,,,,40.457496097545,49.717444,,,
OBA,OBA-LOKBATAN 5,,,,40.324940097545,49.726655,,,
OBA,OBA-NOVXANI 2,,,,40.548519097545,49.781971,,,
OBA,OBA-NUBAR 2,,,,40.442700521261,49.706800237916,,,
OBA,OBA-LOKBATAN 3,,,,40.327206097545,49.718756,,,
OBA,OBA-QOBU 4,,,,40.415588106123,49.701286878958,,,
OBA,OBA-ATYALI 2,,,,40.445682932936,49.698100371138,,,
OBA,OBA-NOVXANI 5,,,,40.530618263632,49.745723836193,,,
OBA,OBA-ATYALI 1,,,,40.443994953876,49.68675291259,,,
OBA,OBA-GUZDEK 3,,,,40.370279048053,49.67877181801,,,
OBA,OBA-SARAY 14,,,,40.529594060942,49.720194848713,,,
OBA,OBA-SARAY 9,,,,40.533667097545,49.723447,,,
OBA,OBA-ZIRE 6,,,,40.387909091557,50.290107819912,,,
OBA,OBA-SARAY 7,,,,40.537179097545,49.720581,,,
OBA,OBA-ZIRE 4,,,,40.364377085065,50.287847226635,,,
OBA,OBA-SARAY 6,,,,40.529040097545,49.710552,,,
OBA,OBA-ZIRE,,,,40.372329097545,50.291929,,,
OBA,OBA-SARAY 17,,,,40.53269349724,49.711444702144,,,
OBA,OBA-SARAY 12,,,,40.524179257375,49.704069403706,,,
OBA,OBA-SARAY 8,,,,40.534919097545,49.711839,,,
OBA,OBA-ZIRE 2,,,,40.365330097545,50.294628,,,
OBA,OBA-SARAY 20,,,,40.52149233549,49.697637922089,,,
OBA,OBA-SARAY 5,,,,40.539274097545,49.711414,,,
OBA,OBA-SARAY 10,,,,40.520883981123,49.696478153249,,,
OBA,OBA-SARAY 13,,,,40.54708549427,49.713291763748,,,
OBA,OBA-SARAY,,,,40.544689097545,49.710056,,,
OBA,OBA-SARAY 11,,,,40.525936947378,49.693201469076,,,
OBA,OBA-SARAY 15,,,,40.549241114752,49.712639877913,,,
OBA,OBA-GUZDEK 1,,,,40.481531097545,49.665313,,,
OBA,OBA-GUZDEK 2,,,,40.482856387955,49.66485296631,,,
OBA,OBA-SUMQAYIT 56,,,,40.558656158236,49.715290560337,,,
OBA,OBA-SARAY 16,,,,40.546111025467,49.700366497047,,,
OBA,OBA-MUSFIQABAD 2,,,,40.462310097545,49.647709,,,
OBA,OBA-SUMQAYIT 21,,,,40.557915097545,49.705422,,,
OBA,OBA-SUMQAYIT 54,,,,40.562538960019,49.706799257672,,,
OBA,OBA-MUSHFIQABAD 9,,,,40.463197578523,49.643910357672,,,
OBA,OBA-PUTA 3,,,,40.299676031682,49.661667823692,,,
OBA,OBA-SUMQAYIT 36,,,,40.565926667073,49.707491724482,,,
OBA,OBA-SUMQAYIT 33,,,,40.552482097545,49.694121,,,
OBA,OBA-YENI YASAMAL 41,,,,40.458697462514,49.639837786508,,,
OBA,OBA-PUTA 2,,,,40.295919097545,49.660369,,,
OBA,OBA-SUMQAYIT 28,,,,40.558100097545,49.696884,,,
OBA,OBA-MUSHFIQABAD 13,,,,40.46194352902,49.637172701104,,,
OBA,OBA-SUMQAYIT 39,,,,40.561427862158,49.693856713437,,,
OBA,OBA-SUMQAYIT 8,,,,40.569534097545,49.699702,,,
OBA,OBA-CEYRANBATAN 1,,,,40.546690097545,49.676206,,,
OBA,OBA-ARTYOM 4,,,,40.470751097545,50.323434,,,
OBA,OBA-CORAT 2,,,,40.574194,49.700444,,,
OBA,OBA-MUSHFIGABAD 10,,,,40.469707579266,49.630992239758,,,
OBA,OBA-ULD_MUSFIQABAD,,,,40.465428097545,49.629473,,,
OBA,OBA-SUMQAYIT 1,,,,40.568267097545,49.69389,,,
OBA,OBA-ARTYOM 5,,,,40.468140097545,50.326281,,,
OBA,OBA-CEYRANBATAN 3,,,,40.539934668832,49.668500833186,,,
OBA,OBA-SUMQAYIT 10,,,,40.561912097545,49.685416,,,
OBA,OBA-GURGAN 1,,,,40.395512097545,50.338476,,,
OBA,OBA-ARTYOM 7,,,,40.456050490027,50.334848545306,,,
OBA,OBA-MUSHFIQABAD 14,,,,40.467081681536,49.623878231571,,,
OBA,OBA-SUMQAYIT 27,,,,40.575929097545,49.693544,,,
OBA,OBA-ARTYOM,,,,40.453256097545,50.337169,,,
OBA,OBA-MUSFIQABAD 4,,,,40.467590097545,49.622716,,,
OBA,OBA-ARTYOM 6,,,,40.450063328615,50.338649542366,,,
OBA,OBA-MUSHFIQABAD 11,,,,40.466479273365,49.618909160646,,,
OBA,OBA-SUMQAYIT 44,,,,40.576834825538,49.689264261463,,,
OBA,OBA-SUMQAYIT 43,,,,40.573939193649,49.683153261079,,,
OBA,OBA-SUMQAYIT 11,,,,40.578553097545,49.686727,,,
OBA,OBA-CEYRANBATAN 4,,,,40.548528,49.658556,,,
OBA,OBA-SUMQAYIT 15,,,,40.577145097545,49.683962,,,
OBA,OBA-SUMQAYIT 2,,,,40.569691097545,49.67423,,,
OBA,OBA-MUSFIQABAD 5,,,,40.472515097545,49.613878,,,
OBA,OBA-SUMQAYIT 46,,,,40.581381538859,49.682596191607,,,
OBA,OBA-SUMQAYIT 9,,,,40.580626097545,49.680018,,,
OBA,OBA-SUMQAYIT 40,,,,40.566403713211,49.665718091048,,,
OBA,OBA-SUMQAYIT 45,,,,40.582184390151,49.680706572309,,,
OBA,OBA-CEYRANBATAN 2,,,,40.547707097545,49.648956,,,
OBA,OBA-SUMQAYIT 41,,,,40.578421635026,49.674748804169,,,
OBA,OBA-SUMQAYIT 3,,,,40.583697097545,49.678306,,,
OBA,OBA-SUMQAYIT 38,,,,40.586818372511,49.679821151879,,,
OBA,OBA-SUMQAYIT 25,,,,40.577024097545,49.668526,,,
OBA,OBA-SUMQAYIT 18,,,,40.585668097545,49.670445,,,
OBA,SUMQAYIT 37,,,,40.59124604923,49.67572332665,,,
OBA,OBA-SUMQAYIT 26,,,,40.589485097545,49.671053,,,
OBA,OBA-SUMQAYIT 24,,,,40.587721097545,49.666524,,,
OBA,OBA-SUMQAYIT 22,,,,40.592359097545,49.67075,,,
OBA,OBA-QIZILDASH 1,,,,40.305875982125,49.596277799996,,,
OBA,OBA-SUMQAYIT 12,,,,40.594655097545,49.664469,,,
OBA,OBA-SUMQAYIT 16,,,,40.603389097545,49.664709,,,
OBA,OBA-SUMQAYIT 57,,,,40.566444,49.628028,,,
OBA,OBA-SUMQAYIT 48,,,,40.606968551068,49.666183221716,,,
OBA,OBA-SUMQAYIT 47,,,,40.605785391396,49.654479317501,,,
OBA,OBA-SUMQAYIT 29,,,,40.606031097545,49.652348,,,
OBA,OBA-SUMQAYIT 20,,,,40.607262097545,49.641805,,,
OBA,OBA-SUMQAYIT 42,,,,40.558315964042,49.585911047969,,,
OBA,OBA-SAHIL 5,,,,40.229372097545,49.581843,,,
OBA,OBA-SAHIL 2,,,,40.224585097545,49.577367,,,
OBA,OBA-SAHIL 6,,,,40.22368678379,49.576698644144,,,
OBA,OBA-SAHIL 9,,,,40.226042697996,49.574422942328,,,
OBA,OBA-SAHIL 8,,,,40.224942141287,49.572112447891,,,
OBA,OBA-SAHIL 7,,,,40.219751524619,49.569700672257,,,
OBA,OBA-NASOSNU 3,,,,40.61714161823,49.575879226217,,,
OBA,OBA-NASOSNU 4,,,,40.619513840294,49.576243662673,,,
OBA,OBA-MUSHFIQABAD 12,,,,40.494365176671,49.49724195891,,,
OBA,OBA-NASOSNU 1,,,,40.620863097545,49.565053,,,
OBA,OBA-NASOSNU 6,,,,40.624409958753,49.566138899891,,,
OBA,OBA-NASOSNU 5,,,,40.620702392222,49.559470155353,,,
OBA,OBA-QARADAG 1,,,,40.199570097545,49.508811,,,
OBA,OBA-SANQACAL 1,,,,40.166745097545,49.461456,,,
OBA,OBA-SANQACAL 2,,,,40.164406855336,49.462374855522,,,
OBA,OBA-QOBUSTAN 4,,,,40.083890856191,49.412637079908,,,
OBA,OBA-QOBUSTAN 1,,,,40.081529097545,49.412919,,,
OBA,OBA-QOBUSTAN 3,,,,40.078651544118,49.412673465847,,,
OBA,OBA-QOBUSTAN 2,,,,40.079700097545,49.406239,,,
OBA,OBA-ELET 8,,,,39.973555008596,49.407650194791,,,
OBA,OBA-ELET 5,,,,39.969537248386,49.406713245214,,,
OBA,OBA-ELET 6,,,,39.956374962674,49.412065008633,,,
OBA,OBA-ELET 9,,,,39.956612,49.408707,,,
OBA,OBA-ELET 3,,,,39.954761097545,49.408876,,,
OBA,OBA-ELET 7,,,,39.950298361864,49.410006342329,,,
OBA,OBA-ELET 2,,,,39.947765097545,49.401872,,,
OBA,OBA-XIZI 1,,,,40.868833,49.340833,,,
OBA,OBA-SALYAN 19,,,,39.843848686209,49.324525540428,,,
OBA,OBA-HACIQABUL 3,,,,40.09,49.071015,,,
OBA,OBA-HACIQABUL 13,,,,40.031121912807,49.096468888278,,,
OBA,OBA-MEREZE 2,,,,40.519856097545,48.938759,,,
OBA,OBA-MEREZE 3,,,,40.527560097545,48.937543,,,
OBA,OBA-MEREZE 1,,,,40.533112097545,48.926915,,,
OBA,OBA-HACIQABUL 9,,,,40.261396423785,48.877046330243,,,
OBA,OBA-HACIQABUL 12,,,,40.042780363289,48.940558665412,,,
OBA,OBA-HACIQABUL 1,,,,40.044448,48.935333,,,
OBA,OBA-HACIQABUL 7,,,,40.04008815802,48.937697957773,,,
OBA,OBA-HACIQABUL 11,,,,40.042996411024,48.935190467434,,,
OBA,OBA-HACIQABUL 10,,,,40.033283233676,48.940827633508,,,
OBA,OBA-HACIQABUL 2,,,,40.032639,48.93512,,,
OBA,OBA-HACIQABUL 5,,,,40.04071,48.929465,,,
OBA,OBA-SIRVAN 24,,,,39.95774792617,48.970657718902,,,
OBA,OBA-SHIRVAN 33,,,,39.953640498549,48.961046736104,,,
OBA,OBA-SHIRVAN 15,,,,39.949011,48.962489,,,
OBA,OBA-SHIRVAN 14,,,,39.963725129811,48.949284324543,,,
OBA,OBA-SHIRVAN 3,,,,39.959229,48.95064,,,
OBA,OBA-SHIRVAN 11,,,,39.9621,48.94729,,,
OBA,OBA-SHIRVAN 19,,,,39.961488045741,48.947526287274,,,
OBA,OBA-SHIRVAN 25,,,,39.94909152489,48.956256342329,,,
OBA,OBA-SHIRVAN 9,,,,39.956033,48.949692,,,
OBA,OBA-SHIRVAN 23,,,,39.965697246097,48.941317215172,,,
OBA,OBA-SHIRVAN,,,,39.96136,48.94406,,,
OBA,OBA-SHIRVAN 16,,,,39.952901319052,48.94978342887,,,
OBA,OBA-SHIRVAN 17,,,,39.963691,48.941125,,,
OBA,OBA-SHIRVAN 7,,,,39.957973,48.943685,,,
OBA,OBA-SHIRVAN 27,,,,39.96050282723,48.940173724782,,,
OBA,OBA-SHIRVAN 20,,,,39.955337801806,48.943242630165,,,
OBA,OBA-SHIRVAN 2,,,,39.956506,48.940557,,,
OBA,SIRVAN 21,,,,39.954293818415,48.941059141231,,,
OBA,OBA-SHIRVAN 6,,,,39.95305,48.94137,,,
OBA,OBA-SHIRVAN 26,,,,39.959240321804,48.936217276357,,,
OBA,SHIRVAN 22,,,,39.947553984101,48.932448038971,,,
OBA,OBA-SHIRVAN 10,,,,39.93558,48.927974,,,
OBA,SIYEZEN 7,,,,41.076498032783,49.133840459143,,,
OBA,OBA-SIYEZEN 1,,,,41.068121,49.118723,,,
OBA,OBA-HACIQABUL 8,,,,40.097287700356,48.82101874688,,,
OBA,OBA-SHIRVAN 29,,,,39.9360327444,48.918028554761,,,
OBA,OBA-SIYEZEN 8,,,,41.072291699432,49.117435704466,,,
OBA,OBA-SHIRVAN 28,,,,39.927426062926,48.921336790576,,,
OBA,OBA-SIYEZEN 4,,,,41.082569,49.128756,,,
OBA,OBA-SHIRVAN 13,,,,39.93647,48.91357,,,
OBA,OBA-SHIRVAN 18,,,,39.934006828358,48.914124619369,,,
OBA,OBA-SIYEZEN 9,,,,41.076699732204,49.112271616523,,,
OBA,OBA-SHIRVAN 34,,,,39.935440955172,48.907694196081,,,
OBA,OBA-SIYEZEN 2,,,,41.076188,49.110817,,,
OBA,OBA-SHIRVAN 31,,,,39.945242870023,48.899716586263,,,
OBA,OBA-SIYEZEN 5,,,,41.083464442572,49.104842857621,,,
OBA,OBA-SABIRABAD 14,,,,39.923151268211,48.874513463732,,,
OBA,OBA.SALYAN 16,,,,39.815627713883,48.954957732119,,,
OBA,OBA-SALYAN 21,,,,39.750858283809,49.021884384245,,,
OBA,OBA-SALYAN 35,,,,39.706009328478,49.073819523182,,,
OBA,OBA-SHAMAXI 16,,,,40.584889,48.705778,,,
OBA,OBA-SALYAN 31,,,,39.796373648448,48.96040782699,,,
OBA,OBA-SAMAXI 2,,,,40.492407097545,48.680211,,,
OBA,OBA-SALYAN 23,,,,39.767647416772,48.978826006851,,,
OBA,SAMAXI 10,,,,40.495804725025,48.678016637987,,,
OBA,OBA-SHAMAXI 14,,,,40.541260078429,48.679636862544,,,
OBA,OBA-SALYAN 14,,,,39.780838,48.935616,,,
OBA,OBA-SAMAXI 9,,,,40.634150097545,48.643218,,,
OBA,OBA-SHAMAXI 11,,,,40.609721614154,48.636117120843,,,
OBA,OBA-SAMAXI 3,,,,40.637675097545,48.643264,,,
OBA,OBA-SHAMAXI 15,,,,40.628921248017,48.640204630169,,,
OBA,OBA-SAMAXI 6,,,,40.635991097545,48.638678,,,
OBA,OBA-SAMAXI 1,,,,40.639345097545,48.638266,,,
OBA,OBA-SABIRABAD 8,,,,39.919703,48.762753,,,
OBA,OBA-SAMAXI 4,,,,40.631179097545,48.634668,,,
OBA,OBA-SHAMAXI  13,,,,40.651838660754,48.64012713886,,,
OBA,OBA-SAMAXI 5,,,,40.638884097545,48.631784,,,
OBA,OBA-SAMAXI 7,,,,40.644633097545,48.632727,,,
OBA,OBA-SABIRABAD 19,,,,39.938593358873,48.731938879273,,,
OBA,OBA-SABIRABAD 26,,,,40.043264157266,48.662856684493,,,
OBA,OBA-SABIRABAD 11,,,,39.943139,48.710552,,,
OBA,OBA-SALYAN 25,,,,39.642050110394,48.971102166497,,,
OBA,OBA-SHABRAN 4,,,,41.194832,48.991282,,,
OBA,OBA-SABIRABAD 23,,,,40.102009930929,48.595050905194,,,
OBA,OBA-SHABRAN 11,,,,41.201869949888,48.985993228198,,,
OBA,OBA-SHABRAN 10,,,,41.215675726071,49.003159237604,,,
OBA,OBA-SHABRAN 3,,,,41.20232,48.981049,,,
OBA,OBA-SHABRAN 6,,,,41.202109,48.98029,,,
OBA,OBA-SHABRAN 9,,,,41.219965691221,49.002518540212,,,
OBA,OBA-SHABRAN 5,,,,41.207871,48.982651,,,
OBA,OBA-SHABRAN 1,,,,41.211655,48.986771,,,
OBA,OBA-SALYAN 15,,,,39.597711036631,48.984578612951,,,
OBA,OBA-SALYAN 36,,,,39.595502471947,48.983791941211,,,
OBA,OBA-SABIRABAD 17,,,,40.058732340845,48.596565387295,,,
OBA,OBA-SALYAN 28,,,,39.593755485431,48.984050633426,,,
OBA,OBA-SALYAN 22,,,,39.593362392634,48.980581809455,,,
OBA,OBA-NEFTCHALA 13,,,,39.57123259724,49.006976741989,,,
OBA,OBA-SALYAN 24,,,,39.60277814741,48.962470372346,,,
OBA,OBA-SALYAN 10,,,,39.589811,48.97996,,,
OBA,OBA-SABIRABAD 37,,,,39.960699323044,48.636930130153,,,
OBA,OBA-SABIRABAD 38,,,,40.104308188817,48.56913532405,,,
OBA,OBA-SALYAN 26,,,,39.59295320303,48.971713254116,,,
OBA,OBA-SALYAN 1,,,,39.59405,48.970019,,,
OBA,OBA-SALYAN 29,,,,39.5901111,48.975211471164,,,
OBA,OBA-SALYAN 6,,,,39.591435,48.97097,,,
OBA,OBA-SALYAN 2,,,,39.587815,48.975772,,,
OBA,OBA-SALYAN 27,,,,39.584395717296,48.97991298976,,,
OBA,OBA-SALYAN 3,,,,39.578568,48.98164,,,
OBA,OBA-SALYAN 12,,,,39.581469,48.970261,,,
OBA,OBA-SALYAN 7,,,,39.576546,48.975722,,,
OBA,OBA-SALYAN 18,,,,39.574458048813,48.97220074231,,,
OBA,OBA-SAATLI 9,,,,39.908126078207,48.64654759397,,,
OBA,OBA-NEFTCHALA 11,,,,39.411422898016,49.249848876089,,,
OBA,OBA-SALYAN 20,,,,39.576902447346,48.948173920211,,,
OBA,OBA-SALYAN 9,,,,39.56407,48.96087,,,
OBA,OBA-NEFTCHALA 15,,,,39.408620484652,49.235304459009,,,
OBA,OBA-NEFTCALA 10,,,,39.396084,49.241495,,,
OBA,OBA-NEFTCHALA 17,,,,39.385162923042,49.247104757672,,,
OBA,OBA-NEFTCALA 1,,,,39.385695,49.242911,,,
OBA,OBA-NEFTCALA 2,,,,39.38058,49.246787,,,
OBA,OBA-NEFTCHALA 18,,,,39.37940562654,49.247251272496,,,
OBA,OBA-NEFTCALA 3,,,,39.376317,49.247875,,,
OBA,OBA-NEFTCALA 5,,,,39.37662,49.243564,,,
OBA,OBA-SABIRABAD 16,,,,40.014616807665,48.519778138105,,,
OBA,OBA-NEFTCHALA 12,,,,39.465439297919,49.036939830271,,,
OBA,OBA-SHABRAN 2,,,,41.259565,48.902591,,,
OBA,OBA-NEFTCHALA 6,,,,39.482072,49.00195,,,
OBA,OBA-NEFTCALA 8,,,,39.423914,49.100384,,,
OBA,OBA-NEFTCHALA 16,,,,39.352066391136,49.247969982911,,,
OBA,OBA-SABIRABAD 3,,,,40.049519041347,48.479468619021,,,
OBA,SABIRABAD 18,,,,40.004351610679,48.4889722,,,
OBA,OBA-AGSU 1,,,,40.5561,48.406205,,,
OBA,OBA-AGSU 8,,,,40.558838596203,48.403216895244,,,
OBA,OBA-SABIRABAD 30,,,,40.008890561848,48.481688938226,,,
OBA,OBA-SABIRABAD 31,,,,40.017008337747,48.475572702171,,,
OBA,OBA-NEFTCALA 4,,,,39.438929,49.019966,,,
OBA,OBA-AGSU 6,,,,40.574980952609,48.401609008577,,,
OBA,OBA-SABIRABAD 24,,,,40.013975828004,48.47241944185,,,
OBA,OBA-SABIRABAD 32,,,,40.006602957451,48.47566153527,,,
OBA,OBA-NEFTCHALA 7,,,,39.336579,49.217247,,,
OBA,OBA-SABIRABAD 35,,,,40.008294342165,48.47098437301,,,
OBA,OBA-AGSU 3,,,,40.580474,48.395099,,,
OBA,OBA-AGSU 7,,,,40.564901657665,48.391386050731,,,
OBA,OBA-AGSU 10,,,,40.567758501419,48.391416250843,,,
OBA,OBA-SABIRABAD 21,,,,40.004183947328,48.469638900004,,,
OBA,OBA-SABIRABAD 27,,,,40.01352722286,48.465034203801,,,
OBA,OBA-SABIRABAD 33,,,,40.002234396752,48.468830092863,,,
OBA,OBA-SABIRABAD 20,,,,40.00737532934,48.46627034024,,,
OBA,OBA-SABIRABAD 5,,,,40.027369461561,48.456428195774,,,
OBA,OBA-AGSU 5,,,,40.565668414793,48.387332155884,,,
OBA,OBA-SAATLI 10,,,,39.918561765292,48.503953996648,,,
OBA,OBA-SABIRABAD 29,,,,39.992417445143,48.464568706354,,,
OBA,OBA-SABIRABAD 34,,,,39.990920310912,48.463886351364,,,
OBA,OBA-SABIRABAD 25,,,,39.993652103327,48.458560322631,,,
OBA,OBA-SABIRABAD 15,,,,40.035841979176,48.4373929191,,,
OBA,OBA-SABIRABAD 2,,,,39.978965,48.447346,,,
OBA,OBA-SHABRAN 12,,,,41.330395377753,48.875272780975,,,
OBA,OBA-SABIRABAD 22,,,,40.05733747518,48.385552549789,,,
OBA,OBA-SALYAN 33,,,,39.432166632501,48.841836466428,,,
OBA,SAATLI 5,,,,39.939546769821,48.376883688094,,,
OBA,OBA-SAATLI 3,,,,39.9381,48.372786,,,
OBA,OBA-KURDEMIR 15,,,,40.303425430455,48.262207952245,,,
OBA,OBA-SAATLI 6,,,,39.938290922633,48.367165312448,,,
OBA,OBA-QUBA 15,,,,41.341367,48.75666,,,
OBA,OBA-SAATLI 1,,,,39.938518,48.361913,,,
OBA,OBA-SALYAN 13,,,,39.421779,48.825156,,,
OBA,OBA-SAATLI 12,,,,39.936500992417,48.36133242209,,,
OBA,OBA-QUBA 10,,,,41.34627,48.725935,,,
OBA,OBA-QUBA 25,,,,41.254067285724,48.594155541787,,,
OBA,OBA-XACMAZ 23,,,,41.460677227979,48.817118420239,,,
OBA,OBA-XACMAZ 1,,,,41.468911,48.817844,,,
OBA,OBA-XACMAZ 4,,,,41.46712,48.81208,,,
OBA,OBA-XACMAZ 3,,,,41.462673,48.802366,,,
OBA,OBA-KURDEMIR 1,,,,40.351331,48.161627,,,
OBA,OBA-KURDEMIR 13,,,,40.350839835468,48.161577424836,,,
OBA,OBA-KURDEMIR 16,,,,40.354918421602,48.159854757672,,,
OBA,OBA-XACMAZ 15,,,,41.461938262509,48.796461471164,,,
OBA,OBA-KURDEMIR 2,,,,40.347061,48.159203,,,
OBA,OBA-KURDEMIR 10,,,,40.341259,48.156837,,,
OBA,OBA-XACMAZ 12,,,,41.40387,48.704039,,,
OBA,OBA-KURDEMIR 4,,,,40.339519,48.154874,,,
OBA,OBA-XACMAZ 11,,,,41.467189,48.79472,,,
OBA,OBA-KURDEMIR 6,,,,40.346469,48.152694,,,
OBA,OBA-SAATLI 8,,,,39.880857999271,48.289700742327,,,
OBA,OBA-KURDEMIR 3,,,,40.336112,48.151621,,,
OBA,OBA-XACMAZ 17,,,,41.465985037027,48.786828913451,,,
OBA,OBA-KURDEMIR 7,,,,40.332879,48.150053,,,
OBA,OBA-KURDEMIR 9,,,,40.338207,48.144508,,,
OBA,OBA-QUBA 6,,,,41.318186,48.581095,,,
OBA,OBA-QUBA 20,,,,41.318045,48.577032,,,
OBA,OBA-NEFTCHALA 14,,,,39.317475272047,48.80991745386,,,
OBA,OBA-KURDEMIR 12,,,,40.339790510288,48.133156156436,,,
OBA,OBA-XACMAZ 22,,,,41.47671349353,48.776344028815,,,
OBA,OBA-NEFTCALA 9,,,,39.309360871225,48.812237029162,,,
OBA,OBA-QUBA 7,,,,41.394083,48.64,,,
OBA,OBA-BILESUVAR 10,,,,39.458697576839,48.598169163544,,,
OBA,OBA-QUBA 8,,,,41.325888,48.556332,,,
OBA,QUBA 23,,,,41.334309700693,48.546679248172,,,
OBA,OBA-XACMAZ 20,,,,41.49947228708,48.764980441191,,,
OBA,OBA-ISMAYILLI 2,,,,40.781278,48.157244,,,
OBA,OBA-ISMAYILLI 8,,,,40.778492224372,48.155418776723,,,
OBA,OBA-BILESUVAR 11,,,,39.46187579111,48.562734186612,,,
OBA,OBA-BILESUVAR 6,,,,39.461685,48.561175,,,
OBA,OBA-QUBA 11,,,,41.371787,48.575683,,,
OBA,OBA-ISMAYILLI 6,,,,40.783601,48.153188,,,
OBA,OBA-BILESUVAR 5,,,,39.461718,48.558772,,,
OBA,OBA-BILESUVAR 12,,,,39.458685177582,48.552435155873,,,
OBA,OBA-QUBA 5,,,,41.370735,48.553991,,,
OBA,OBA-QUBA 16,,,,41.34846,48.52684,,,
OBA,OBA-QUBA 26,,,,41.360419942122,48.528667786313,,,
OBA,OBA-QUBA 1,,,,41.362795,48.528183,,,
OBA,OBA-QUBA 28,,,,41.361311155333,48.526008046627,,,
OBA,OBA-KURDEMIR 8,,,,40.113739,48.103444,,,
OBA,OBA-XACMAZ 7,,,,41.532189,48.749264,,,
OBA,OBA-QUBA 4,,,,41.362131,48.509538,,,
OBA,OBA-QUBA 24,,,,41.357779270623,48.503367270803,,,
OBA,OBA-QUBA 18,,,,41.35808,48.497697,,,
OBA,OBA-XUDAT 7,,,,41.54774,48.723,,,
OBA,OBA-QUBA 21,,,,41.452282074348,48.566507430105,,,
OBA,OBA-ISMAYILLI 9,,,,40.675474910218,48.03825097791,,,
OBA,OBA-KURDEMIR 14,,,,40.328644480833,48.009998258878,,,
OBA,OBA-XUDAT 5,,,,41.569128,48.726314,,,
OBA,OBA-GOYCAY 11,,,,40.615152805573,48.013353198175,,,
OBA,OBA-IMISHLI 23,,,,39.890368422961,48.118147941421,,,
OBA,OBA-XUDAT 8,,,,41.550634,48.659721,,,
OBA,OBA-GOYCAY 15,,,,40.559918046112,47.975387686615,,,
OBA,OBA-CELILABAD 11,,,,39.32583,48.549752,,,
OBA,OBA-IMISHLI 15,,,,39.878837633636,48.071516906849,,,
OBA,OBA-QUSAR 3,,,,41.431282,48.443355,,,
OBA,OBA-IMISHLI 12,,,,39.865284466839,48.073777314003,,,
OBA,OBA-QUSAR 9,,,,41.431982913662,48.441802363877,,,
OBA,OBA-CELILABAD 5,,,,39.315641,48.52955,,,
OBA,OBA-IMISHLI 22,,,,39.875294926297,48.064268741802,,,
OBA,OBA-QUSAR 1,,,,41.418992,48.41736,,,
OBA,OBA-IMISHLI 8,,,,39.86835906118,48.063771796059,,,
OBA,OBA-IMISHLI,,,,39.869837,48.061772,,,
OBA,OBA-IMISHLI 4,,,,39.869395,48.061779,,,
OBA,OBA-QUSAR 10,,,,41.428159747125,48.425010416529,,,
OBA,OBA-IMISHLI 6,,,,39.870128,48.060639,,,
OBA,OBA-IMISHLI 10,,,,39.862231372214,48.062757484041,,,
OBA,OBA-IMISHLI 2,,,,39.86711,48.060156,,,
OBA,OBA-IMISHLI 21,,,,39.870095715808,48.057309986508,,,
OBA,OBA-XUDAT 3,,,,41.631121,48.699789,,,
OBA,OBA-XUDAT 1,,,,41.624258,48.685466,,,
OBA,OBA-NABRAN 1,,,,41.675921744682,48.773249219314,,,
OBA,OBA-XUDAT 6,,,,41.632677,48.687114,,,
OBA,OBA-IMISHLI 9,,,,39.860895820735,48.050274327072,,,
OBA,OBA-IMISHLI 17,,,,39.864879321636,48.048238130127,,,
OBA,OBA-XUDAT 9,,,,41.628787,48.678513,,,
OBA,OBA-XUDAT 2,,,,41.630559,48.67884,,,
OBA,OBA-XUDAT 4,,,,41.632053,48.67332,,,
OBA,OBA-CELILABAD 10,,,,39.337278,48.429681,,,
OBA,OBA-CELILABAD 18,,,,39.222225796953,48.579240847565,,,
OBA,OBA-CELILABAD 21,,,,39.261252612572,48.522627222236,,,
OBA,OBA-IMISHLI 14,,,,39.697950304879,48.101747347673,,,
OBA,OBA-CELILABAD 17,,,,39.266410923034,48.502719884781,,,
OBA,OBA-IMISHLI 11,,,,39.716916897896,48.077192771269,,,
OBA,OBA-CEBRAYIL 3,,,,39.673999988851,48.097678684226,,,
OBA,OBA-GOYCAY 12,,,,40.554129214882,47.860362783375,,,
OBA,OBA-CELILABAD 3,,,,39.235934,48.516891,,,
OBA,OBA-MASALLI 28,,,,39.111502683335,48.706524530472,,,
OBA,OBA-CELILABAD 12,,,,39.213865,48.541632,,,
OBA,OBA-CELILABAD 4,,,,39.225205,48.519787,,,
OBA,OBA-CEBRAYIL 2,,,,39.701027,48.06039,,,
OBA,OBA-QUSAR 5,,,,41.470413,48.34349,,,
OBA,OBA-MASALLI 21,,,,39.113818719221,48.663786697819,,,
OBA,OBA-QEBELE 4,,,,40.946431,47.941994,,,
OBA,OBA-CELILABAD 16,,,,39.213680858239,48.505643734774,,,
OBA,OBA-MASALLI 7,,,,39.041703,48.779214,,,
OBA,OBA-GOYCAY 8,,,,40.570268,47.82807,,,
OBA,OBA-YALAMA 2,,,,41.694841,48.627688,,,
OBA,OBA-CELILABAD 15,,,,39.216631843512,48.489096317392,,,
OBA,OBA-CELILABAD 19,,,,39.209247733066,48.498134563219,,,
OBA,OBA-CELILABAD 14,,,,39.258239075796,48.430307002933,,,
OBA,OBA-CELILABAD 22,,,,39.207852353311,48.490940013492,,,
OBA,OBA-CELILABAD 1,,,,39.20754,48.489676,,,
OBA,OBA-CELILABAD 6,,,,39.206432,48.483422,,,
OBA,OBA-GOYTEPE 1,,,,39.116574586198,48.599172345677,,,
OBA,OBA-GOYTEPE 3,,,,39.118987291055,48.594207084657,,,
OBA,OBA-CELILABAD 20,,,,39.192182390726,48.484272611861,,,
OBA,OBA-MASALLI 25,,,,39.021905376649,48.758579760599,,,
OBA,OBA-GOYTEPE 2,,,,39.111840081982,48.600850371164,,,
OBA,OBA-IMISHLI 16,,,,39.76418348432,47.956103990192,,,
OBA,OBA-IMISHLI 13,,,,39.742559812684,47.960047283545,,,
OBA,OBA-MASALLI 22,,,,39.091967221791,48.603917953833,,,
OBA,OBA-MASALLI 29,,,,39.08426098482,48.611411634022,,,
OBA,OBA-QEBELE 16,,,,40.83538471864,47.82884346827,,,
OBA,OBA-IMISHLI 18,,,,39.737229687056,47.946610751006,,,
OBA,OBA-MASALLI 31,,,,39.038336100861,48.676589642328,,,
OBA,OBA-GOYTEPE 4,,,,39.129787096137,48.5246473074,,,
OBA,OBA-MASALLI 18,,,,39.036106,48.671357,,,
OBA,OBA-MASALLI 20,,,,39.037103603155,48.667424073179,,,
OBA,OBA-MASALLI 24,,,,39.030713394611,48.672577590725,,,
OBA,OBA-MASALLI 3,,,,39.027537,48.678,,,
OBA,OBA-MASALLI 4,,,,39.033116,48.66609,,,
OBA,SDK 1,,,,41.635438151355,48.426815297896,,,
OBA,OBA-MASALLI 6,,,,39.03725,48.65806,,,
OBA,OBA-MASALLI 19,,,,39.011281480226,48.697840226641,,,
OBA,OBA-MASALLI 30,,,,39.025741662083,48.667799257672,,,
OBA,OBA-MASALLI 34,,,,39.022316734496,48.670726586508,,,
OBA,OBA-MASALLI 1,,,,39.022578,48.669561,,,
OBA,OBA-GOYCAY 5,,,,40.659565,47.75222,,,
OBA,OBA-MASALLI 5,,,,39.02263,48.659088,,,
OBA,OBA-GOYCAY 2,,,,40.641108,47.746338,,,
OBA,OBA-YALAMA,,,,41.756574,48.586373,,,
OBA,OBA-QEBELE 6,,,,40.975633,47.848613,,,
OBA,OBA-QEBELE 8,,,,40.982006,47.849973,,,
OBA,OBA-GOYCAY 13,,,,40.637677150993,47.742831298203,,,
OBA,OBA-GOYCAY 14,,,,40.650987573595,47.743623155459,,,
OBA,QEBELE 12,,,,40.968645333736,47.840959687258,,,
OBA,OBA-GOYCAY 4,,,,40.648967,47.7428,,,
OBA,OBA-MASALLI 35,,,,39.019362530544,48.651316328836,,,
OBA,OBA-QEBELE 7,,,,40.975729,47.841961,,,
OBA,OBA-GOYCAY 10,,,,40.651990929469,47.739792704908,,,
OBA,OBA-MASALLI 26,,,,39.018652521816,48.648323334439,,,
OBA,OBA-QEBELE 15,,,,40.947021992488,47.825841630364,,,
OBA,OBA-MASALLI 12,,,,39.01029,48.65168,,,
OBA,OBA-QEBELE 14,,,,40.92855638358,47.802997612183,,,
OBA,OBA-ZERDAB 3,,,,40.228709,47.70737,,,
OBA,OBA-ZERDAB 1,,,,40.221777,47.708022,,,
OBA,OBA-MASALLI 27,,,,38.999835082126,48.604395522989,,,
OBA,OBA-UCAR 5,,,,40.420578,47.67192,,,
OBA,OBA-MASALLI 8,,,,38.955979,48.676438,,,
OBA,OBA-MASALLI 33,,,,38.963374600061,48.658912040362,,,
OBA,OBA-UCAR 10,,,,40.514504362694,47.661914996667,,,
OBA,OBA-UCAR 11,,,,40.505,47.658444,,,
OBA,OBA-LENKERAN 19,,,,38.878082,48.807265,,,
OBA,OBA-UCAR 4,,,,40.509532,47.655479,,,
OBA,OBA-MASALLI 17,,,,38.925770722897,48.705886282274,,,
OBA,OBA-UCAR 7,,,,40.510460686737,47.653509345768,,,
OBA,OBA-UCAR 2,,,,40.520088,47.652427,,,
OBA,OBA-QEBELE 13,,,,41.008463116985,47.779899418802,,,
OBA,OBA-MASALLI 16,,,,38.9226,48.706486,,,
OBA,OBA-UCAR 6,,,,40.51434,47.649804,,,
OBA,OBA-UCAR1,,,,40.52481,47.65005,,,
OBA,OBA-BEYLEQAN 20,,,,39.803603869146,47.78942154027,,,
OBA,OBA-LENKERAN 12,,,,38.890085,48.76114,,,
OBA,OBA-BEYLEQAN 15,,,,39.716353591281,47.832235058439,,,
OBA,OBA-MASALLI 14,,,,38.907452,48.68907,,,
OBA,OBA-MASALLI 23,,,,38.894340765949,48.707819236952,,,
OBA,OBA-UCAR 9,,,,40.49647344139,47.616987349426,,,
OBA,OBA-BEYLEQAN 10,,,,39.773095,47.76122,,,
OBA,OBA-LENKERAN 17,,,,38.855182,48.75123,,,
OBA,OBA-LENKERAN 22,,,,38.823267504623,48.747054385857,,,
OBA,OBA-LENKERAN 27,,,,38.774125898926,48.840351586098,,,
OBA,OBA-LENKERAN 36,,,,38.794559781014,48.789827108903,,,
OBA,OBA-LENKERAN 34,,,,38.766512625944,48.84182918494,,,
OBA,OBA-LENKERAN 28,,,,38.765951554419,48.84003751377,,,
OBA,OBA-LENKERAN 41,,,,38.757089,48.8399521,,,
OBA,OBA-LENKERAN 33,,,,38.814699391579,48.708076448491,,,
OBA,OBA-BEYLEQAN 14,,,,39.87221257394,47.637495193737,,,
OBA,OBA-LENKERAN 38,,,,38.749870680041,48.847666699998,,,
OBA,OBA-LENKERAN 30,,,,38.74946618808,48.833966254138,,,
OBA,OBA-LENKERAN 21,,,,38.740864382944,48.83248095548,,,
OBA,OBA-LENKERAN 32,,,,38.734423434701,48.842164092055,,,
OBA,OBA-LENKERAN 40,,,,38.717389,48.837889,,,
OBA,OBA-AGDASH 12,,,,40.647076128492,47.498914169311,,,
OBA,OBA-BEYLEQAN 9,,,,39.630196764765,47.710051727865,,,
OBA,OBA-OGUZ 3,,,,41.03194767813,47.60547196346,,,
OBA,OBA-BEYLEQAN 3,,,,39.772958,47.62396,,,
OBA,OBA-BEYLEQAN 19,,,,39.775402337946,47.622240197918,,,
OBA,OBA-BEYLEQAN 7,,,,39.772854,47.62119,,,
OBA,OBA-AGDASH 1,,,,40.648898297061,47.485281807504,,,
OBA,OBA-BEYLEQAN 21,,,,39.639944,47.687806,,,
OBA,OBA-BEYLEQAN 4,,,,39.769137,47.618836,,,
OBA,OBA-BEYLEQAN18,,,,39.769646025041,47.616079039863,,,
OBA,OBA-AGDASH 14,,,,40.646532615451,47.477675669311,,,
OBA,OBA-BEYLEQAN 2,,,,39.771043,47.611999,,,
OBA,OBA-BEYLEQAN 12,,,,39.770284304268,47.612324517583,,,
OBA,OBA-BEYLEQAN 11,,,,39.642076,47.678303,,,
OBA,OBA-AGDAS 9,,,,40.641558814885,47.474801076392,,,
OBA,OBA-AGDASH 6,,,,40.642364,47.473522,,,
OBA,OBA-AGDASH 13,,,,40.643561173849,47.473525100596,,,
OBA,OBA-LENKERAN 35,,,,38.7212655503,48.77320074233,,,
OBA,OBA-AGDASH 4,,,,40.641758519332,47.471300631166,,,
OBA,OBA-AGDAS 8,,,,40.641764002912,47.470845148301,,,
OBA,OBA-AGDASH 15,,,,40.645889,47.470694,,,
OBA,OBA-AGDASH 11,,,,40.655130218277,47.471055797358,,,
OBA,OBA-BEYLEQAN 17,,,,39.660570898704,47.659385266542,,,
OBA,OBA-BEYLEQAN 13,,,,39.768097134203,47.602266897489,,,
OBA,OBA-LENKERAN 29,,,,38.688186306036,48.824788945537,,,
OBA,OBA-AGDASH 16,,,,40.649028,47.452111,,,
OBA,OBA-LENKERAN 39,,,,38.71663853612,48.735449764418,,,
OBA,OBA-FUZULI 15,,,,39.615741183247,47.658509118448,,,
OBA,OBA-OGUZ 5,,,,40.960471034303,47.517700742328,,,
OBA,OBA-AGDAS 7,,,,40.53849,47.422203,,,
OBA,OBA-AGCABEDI 14,,,,40.049091,47.467055,,,
OBA,OBA-LENKERAN 20,,,,38.658897,48.841327,,,
OBA,OBA-AGCABEDI 15,,,,40.044307,47.4645,,,
OBA,OBA-AGCABEDI 16,,,,40.05261,47.45983,,,
OBA,OBA-AGCABEDI 24,,,,40.049951070617,47.460079437435,,,
OBA,OBA-AGCABEDI 2,,,,40.04807,47.456783,,,
OBA,OBA-AGCABEDI 9,,,,40.043128,47.455749,,,
OBA,OBA-LENKERAN 13,,,,38.660974,48.803622,,,
OBA,OBA-AGCABEDI 4,,,,40.033649,47.453409,,,
OBA,OBA-AGCABEDI 10,,,,40.046655,47.445917,,,
OBA,OBA-AGCABEDI 27,,,,40.041399338294,47.444252222632,,,
OBA,OBA-AGCABEDI 17,,,,40.05295,47.44082,,,
OBA,OBA-AGCABEDI 30,,,,40.054035069357,47.434878171162,,,
OBA,OBA-OGUZ 4,,,,40.971881384263,47.48740696173,,,
OBA,OBA-LENKERAN 31,,,,38.646660531705,48.803013579264,,,
OBA,OBA-FUZULI 16,,,,39.588234503165,47.628149628836,,,
OBA,OBA-AGCABEDI 29,,,,40.030325841947,47.436263259525,,,
OBA,OBA-AGCABEDI 23,,,,39.927504419263,47.467104379275,,,
OBA,OBA-AGCABEDI 11,,,,40.058127,47.418022,,,
OBA,OBA-XOCAVEND 1,,,,39.747988,47.52914,,,
OBA,OBA-AGCABEDI 12,,,,40.040055,47.418894,,,
OBA,OBA-AGCABEDI 20,,,,39.975082,47.426719,,,
OBA,OBA-FUZULI 11,,,,39.736453107147,47.510663884695,,,
OBA,OBA-ASTARA 5,,,,38.607985,48.821237,,,
OBA,OBA-YARDIMLI 1,,,,38.907125,48.243341,,,
OBA,OBA-ASTARA 12,,,,38.597659248274,48.840251096088,,,
OBA,OBA-LENKERAN 3,,,,38.60499,48.811099,,,
OBA,OBA-ASTARA 19,,,,38.602917,48.813222,,,
OBA,OBA-ASTARA 13,,,,38.602063260134,48.807235297208,,,
OBA,OBA-ASTARA 11,,,,38.591615574461,48.821441913064,,,
OBA,OBA-OGUZ 7,,,,41.070221690178,47.465062820238,,,
OBA,OBA-OGUZ 1,,,,41.068379,47.462966,,,
OBA,OBA-OGUZ 6,,,,41.059499047733,47.458600159817,,,
OBA,OBA-ASTARA 9,,,,38.592898,48.804577,,,
OBA,OBA-LERIK 3,,,,38.771254,48.419236,,,
OBA,OBA-FUZULI 3,,,,39.558192112172,47.564614283488,,,
OBA,OBA-FUZULI 14,,,,39.564251126253,47.555021111725,,,
OBA,OBA-BERDE 18,,,,40.217506,47.310467,,,
OBA,OBA-ASTARA 16,,,,38.556427187908,48.823733905913,,,
OBA,OBA-SHEKI 12,,,,40.875645646974,47.344271693429,,,
OBA,OBA-AGCABEDI 28,,,,40.098185479049,47.316082407381,,,
OBA,BERDE 20,,,,40.324763537967,47.271946942979,,,
OBA,OBA-AGCABEDI 22,,,,40.059117019006,47.300386556807,,,
OBA,OBA-ASTARA 15,,,,38.532514322843,48.807940483406,,,
OBA,OBA-BERDE 29,,,,40.328227592905,47.24878989078,,,
OBA,OBA-ASTARA 4,,,,38.535672,48.777365,,,
OBA,OBA-BERDE 22,,,,40.251807340794,47.247016169848,,,
OBA,OBA-ASTARA 7,,,,38.509235,48.829096,,,
OBA,OBA-FUZULI 10,,,,39.515981396369,47.49111265077,,,
OBA,OBA-ASTARA 17,,,,38.492434597731,48.831886108474,,,
OBA,OBA-FUZULI 7,,,,39.509972,47.490514,,,
OBA,OBA-ASTARA 3,,,,38.47043,48.870559,,,
OBA,OBA-YEVLAX 4,,,,40.708248,47.220096,,,
OBA,OBA-YEVLAX 11,,,,40.7138557,47.2162676,,,
OBA,OBA-BERDE 26,,,,40.27806688425,47.196012167474,,,
OBA,OBA-SHEKI 22,,,,40.85796056962,47.242509589677,,,
OBA,OBA-ASTARA 2,,,,38.451177,48.875419,,,
OBA,OBA-ASTARA 14,,,,38.4511411598,48.873827448864,,,
OBA,OBA-ASTARA 18,,,,38.465541223028,48.810043855278,,,
OBA,FUZULI 8,,,,39.568653003502,47.404534142329,,,
OBA,OBA-AGCABEDI 25,,,,40.069836965379,47.196192247603,,,
OBA,OBA-YEVLAX 15,,,,40.613392298752,47.158076171844,,,
OBA,OBA-AGCABEDI 19,,,,40.064720248545,47.189629679344,,,
OBA,OBA-FUZULI 17,,,,39.508361,47.414306,,,
OBA,OBA-AGDAM 16,,,,40.157800501052,47.166544871126,,,
OBA,OBA-YEVLAX 18,,,,40.605797775237,47.151519526211,,,
OBA,OBA-YEVLAX 9,,,,40.616893,47.15169,,,
OBA,OBA-YEVLAX 1,,,,40.603699,47.150239,,,
OBA,OBA-YEVLAX 3,,,,40.612729,47.15042,,,
OBA,OBA-AGDAM 7,,,,40.155887,47.163259,,,
OBA,OBA-AGDAM 13,,,,40.157225526675,47.161999899893,,,
OBA,OBA-YEVLAX 12,,,,40.614887532293,47.147040997865,,,
OBA,OBA-BERDE 13,,,,40.360718,47.13852,,,
OBA,OBA-FUZULI 12,,,,39.508927762849,47.405400373698,,,
OBA,OBA-YEVLAX 2,,,,40.613239,47.144131,,,
OBA,OBA-BERDE 16,,,,40.385850439772,47.134630073442,,,
OBA,OBA-BERDE 23,,,,40.379921643367,47.134411041383,,,
OBA,OBA-AGCABEDI 26,,,,39.982326065859,47.194885719618,,,
OBA,OBA-YEVLAX 13,,,,40.606704106763,47.139065100016,,,
OBA,OBA-BERDE 11,,,,40.361144704701,47.129000102655,,,
OBA,OBA-BERDE 1,,,,40.384497,47.127755,,,
OBA,OBA-BERDE 25,,,,40.402382733215,47.127118558987,,,
OBA,OBA-BERDE 5,,,,40.36666,47.12708,,,
OBA,OBA-BERDE 15,,,,40.370688,47.126776,,,
OBA,OBA-BERDE 14,,,,40.319792,47.122991,,,
OBA,OBA-BERDE 21,,,,40.391399753187,47.118351600104,,,
OBA,OBA-BERDE LISEY,,,,40.378047,47.1174751,,,
OBA,OBA-BERDE 10,,,,40.37514,47.113559,,,
OBA,OBA-BERDE 3,,,,40.449337,47.112343,,,
OBA,OBA-YEVLAX 14,,,,40.502871163624,47.113314697918,,,
OBA,OBA-BERDE 28,,,,40.355878256423,47.111297346034,,,
OBA,OBA-AGDAM 14,,,,40.100093036892,47.133930786612,,,
OBA,OBA-BERDE 27,,,,40.282295536237,47.104549935499,,,
OBA,OBA-YEVLAX 6,,,,40.505015,47.093148,,,
OBA,OBA-BERDE 12,,,,40.362776,47.086393,,,
OBA,OBA-AGDAM 10,,,,40.120758974416,47.111381268965,,,
OBA,OBA-BERDE 24,,,,40.459651473944,47.081242295429,,,
OBA,OBA-AGDAM 3,,,,40.12144,47.10523,,,
OBA,OBA-MINGECEVIR 7,,,,40.751962,47.098817,,,
OBA,OBA-AGDAM 4,,,,40.240785,47.076097,,,
OBA,OBA-YEVLAX 17,,,,40.512712851477,47.061912270403,,,
OBA,OBA-AGDAM 6,,,,40.142314,47.083963,,,
OBA,OBA-MINGECEVIR 22,,,,40.757535692338,47.086785899802,,,
OBA,OBA-FUZULI 5,,,,39.447979563631,47.340381864985,,,
OBA,OBA-FUZULI 6,,,,39.447736,47.338843,,,
OBA,OBA-FUZULI 9,,,,39.449462838102,47.336576192928,,,
OBA,OBA-MINGECEVIR 23,,,,40.752905454872,47.064977904747,,,
OBA,OBA-MINGECEVIR 12,,,,40.761827,47.06616,,,
OBA,OBA-FUZULI 13,,,,39.449793619383,47.331940654778,,,
OBA,OBA-MINGECEVIR 10,,,,40.758116,47.064374,,,
OBA,OBA-MINGECEVIR 19,,,,40.772227065217,47.065165919898,,,
OBA,OBA-MINGECEVIR 4,,,,40.761179,47.061146,,,
OBA,OBA-MINGECEVIR 13,,,,40.759935,47.059013,,,
OBA,OBA-MINGECEVIR 21,,,,40.766051946272,47.059883683591,,,
OBA,OBA-MINGECEVIR 8,,,,40.768585,47.058563,,,
OBA,OBA-MINGECEVIR 20,,,,40.766175345633,47.0562778,,,
OBA,OBA-AGDAM 15,,,,40.023931216072,47.072006474462,,,
OBA,OBA-AGDAM 9,,,,40.017420043901,47.073291651965,,,
OBA,OBA-MINGECEVIR 14,,,,40.769795,47.052619,,,
OBA,OBA-MINGECEVIR 9,,,,40.772374,47.052662,,,
OBA,OBA-MINGECEVIR 3,,,,40.764218,47.045967,,,
OBA,OBA-MINGECEVIR 15,,,,40.773406,47.0475,,,
OBA,OBA-MINGECEVIR 18,,,,40.758092317535,47.044495136615,,,
OBA,OBA-MINGECEVIR 16,,,,40.762717,47.044485,,,
OBA,OBA-SHEKI 20,,,,41.182316689079,47.180305599998,,,
OBA,OBA-SHEKI 18,,,,41.200665423943,47.188845188361,,,
OBA,OBA-AGDAM 12,,,,40.050729615633,47.053233547703,,,
OBA,OBA-MINGECEVIR 2,,,,40.771665,47.041061,,,
OBA,TERTER 9,,,,40.441145481802,47.008566197859,,,
OBA,OBA-AGDAM 8,,,,40.109127,47.0389681,,,
OBA,OBA-SHEKI 3,,,,41.170421,47.16742,,,
OBA,OBA-SHEKI 1,,,,41.203613,47.179909,,,
OBA,OBA-SHEKI 10,,,,41.201356,47.177779,,,
OBA,OBA-SHEKI 15,,,,41.187192778611,47.170909619782,,,
OBA,OBA-YEVLAX 10,,,,40.686634,47.01959,,,
OBA,OBA-SHEKI 21,,,,41.210520554545,47.180441762635,,,
OBA,OBA-SHEKI 2,,,,41.200513,47.171258,,,
OBA,OBA-SHEKI 8,,,,40.99295,47.087158,,,
OBA,OBA-SHEKI 17,,,,41.208288673541,47.174395242328,,,
OBA,OBA-SHEKI 5,,,,41.226901970926,47.180454790919,,,
OBA,OBA-SHEKI 11,,,,41.201972,47.165757,,,
OBA,OBA-SHEKI 19,,,,41.1957679,47.1621161,,,
OBA,OBA-YEVLAX 5,,,,40.631413,46.98918,,,
OBA,OBA-MINGECEVIR,,,,40.769922,47.000294,,,
OBA,OBA-TERTER 11,,,,40.326883325726,46.969443355542,,,
OBA,OBA-SHEKI 14,,,,41.210197870799,47.1416162603,,,
OBA,OBA-MINGECEVIR 11,,,,40.768597,46.995069,,,
OBA,OBA-YEVLAX 16,,,,40.715199872351,46.975459729131,,,
OBA,OBA-TERTER 5,,,,40.434708,46.95049,,,
OBA,OBA-TERTER 15,,,,40.338712657953,46.952048541982,,,
OBA,OBA-FUZULI 19,,,,39.598641118338,47.152327335048,,,
OBA,OBA-TERTER 13,,,,40.340397197836,46.945087111639,,,
OBA,OBA-AGDAM SARICALI,,,,40.007032861502,46.984785538976,,,
OBA,OBA-TERTER 12,,,,40.344743685055,46.932273824908,,,
OBA,OBA-TERTER 8,,,,40.340870397396,46.932252142691,,,
OBA,OBA-TERTER 3,,,,40.340231,46.932233,,,
OBA,OBA-TERTER 6,,,,40.340057,46.931456,,,
OBA,OBA-TERTER,,,,40.348689,46.930665,,,
OBA,OBA-GORANBOY 20,,,,40.480010754915,46.926624857134,,,
OBA,OBA-TERTER 14,,,,40.335118116501,46.928801477695,,,
OBA,OBA-TERTER 7,,,,40.342882253396,46.927028645042,,,
OBA,OBA-AGDAM KENGERLI,,,,40.030952278929,46.967905633684,,,
OBA,OBA-TERTER 10,,,,40.339341430919,46.913247403969,,,
OBA,OBA-GORANBOY 16,,,,40.498076763962,46.907172996569,,,
OBA,OBA-GORANBOY 2,,,,40.500757,46.904709,,,
OBA,OBA-AGDAM QK,,,,40.101641516295,46.883775127183,,,
OBA,OBA-GORANBOY 12,,,,40.575165860915,46.848447322754,,,
OBA,OBA-AGDAM XIDIRLI,,,,40.007852486065,46.887759885679,,,
OBA,OBA-SHEKI 6,,,,41.270465,47.012884,,,
OBA,OAB-NAFTALAN 3,,,,40.505963367152,46.815270173426,,,
OBA,OBA-NAFTALAN 2,,,,40.508226052382,46.815292915343,,,
OBA,OBA-NAFTALAN 1,,,,40.508717,46.813332,,,
OBA,OBA-GORANBOY 1,,,,40.606557,46.786784,,,
OBA,OBA-SHEKI 16,,,,41.302099887667,46.985396534129,,,
OBA,OBA-GORANBOY 9,,,,40.596129,46.78191,,,
OBA,OBA-GORANBOY 10,,,,40.602555,46.780168,,,
OBA,OBA-GORANBOY 18,,,,40.42959017811,46.769168885556,,,
OBA,OBA-GORANBOY 5,,,,40.541457,46.76672,,,
OBA,OBA-ESGERAN 1,,,,39.939325,46.8273269,,,
OBA,OBA-SUQOVUSHAN 1,,,,40.321998997682,46.753189209606,,,
OBA,OBA-GORANBOY 22,,,,40.585237289372,46.729325036471,,,
OBA,OBA-CEBRAYIL 4,,,,39.400521806134,47.022769834569,,,
OBA,OBA-XOCALI 4,,,,39.9119289,46.7991131,,,
OBA,OBA-XOCALI 1,,,,39.905438291573,46.799462817714,,,
OBA,OBA-XOCALI 3,,,,39.92923016368,46.777166561899,,,
OBA,OBA-QAX 4,,,,41.426482949026,46.945025454457,,,
OBA,OBA-QAX 7,,,,41.418368616129,46.930271218962,,,
OBA,OBA-XANKENDI 2,,,,39.825083,46.766806,,,
OBA,OBA-QAX 2,,,,41.418703,46.922658,,,
OBA,OBA-QAX 9,,,,41.416111,46.9205,,,
OBA,OBA-QAX 6,,,,41.419561058343,46.917155971164,,,
OBA,OBA-QAX 8,,,,41.422737612509,46.916497298916,,,
OBA,OBA-QAX 3,,,,41.422163,46.914467,,,
OBA,OBA-XANKENDI 3,,,,39.8205,46.757444,,,
OBA,OBA-XANKENDI 1,,,,39.823328981586,46.752196731962,,,
OBA,OBA-XOCALI 2,,,,39.87259149552,46.729163819251,,,
OBA,OBA-GORANBOY 15,,,,40.445101441358,46.634987979787,,,
OBA,OBA-GORANBOY 14,,,,40.700255512278,46.60702923092,,,
OBA,OBA-GORANBOY 3,,,,40.41852,46.573089,,,
OBA,OBA-GORANBOY 17,,,,40.696165400769,46.571000199922,,,
OBA,OBA-GORANBOY 13,,,,40.698873057811,46.567346628634,,,
OBA,OBA-GORANBOY 4,,,,40.692277409437,46.564435051744,,,
OBA,OBA-GORANBOY 21,,,,40.690422479263,46.562912456739,,,
OBA,OBA-SHEMKIR 40,,,,40.690446940364,46.562903571379,,,
OBA,OBA-GORANBOY 23,,,,40.652405868597,46.554025766708,,,
OBA,OBA-GORANBOY 19,,,,40.647626662968,46.532041934115,,,
OBA,OBA-SAMUX 9,,,,40.715338999326,46.469913812877,,,
OBA,OBA-ZAQATALA 18,,,,41.47918126503,46.708686133286,,,
OBA,OBA-SAMUX 8,,,,40.753204965925,46.430084648707,,,
OBA,OBA-ZAQATALA 23,,,,41.534861,46.702833,,,
OBA,OBA-GENCE 91,,,,40.684238100522,46.413444220675,,,
OBA,OBA-GOYGOL 8,,,,40.635136538763,46.405007354732,,,
OBA,OBA-ZAQATALA 21,,,,41.569929728672,46.708529033979,,,
OBA,OBA-SAMUX 12,,,,40.75835564808,46.409578913492,,,
OBA,OBA-LACIN 3,,,,39.637525831534,46.550410912971,,,
OBA,OBA-ZAQATALA 20,,,,41.461208556275,46.637570567006,,,
OBA,OBA-SAMUX 10,,,,40.765294495268,46.405789503235,,,
OBA,OBA-GENCE 53,,,,40.721116097324,46.398955975931,,,
OBA,OBA-GENCE 68,,,,40.681250093091,46.391681738125,,,
OBA,OBA-GENCE 48,,,,40.687558390288,46.388735313488,,,
OBA,OBA-GENCE 82,,,,40.678621348428,46.387564187163,,,
OBA,OBA-GENCE 69,,,,40.686252462932,46.387311333873,,,
OBA,OBA-GENCE 2,,,,40.68047,46.38577,,,
OBA,OBA-GENCE 14,,,,40.683063,46.383157,,,
OBA,OBA-GENCE 84,,,,40.658625289539,46.380239782802,,,
OBA,OBA-GENCE 51,,,,40.664388,46.379168,,,
OBA,OBA-GENCE 44,,,,40.69972,46.382799,,,
OBA,OBA-GENCE 23,,,,40.679528,46.380514,,,
OBA,OBA-LACIN 2,,,,39.635372496895,46.531910551895,,,
OBA,OBA-GENCE 9,,,,40.695106,46.380035,,,
OBA,OBA-ZAQATALA 12,,,,41.56936771106,46.679125382242,,,
OBA,OBA-GENCE 46,,,,40.649696,46.372797,,,
OBA,OBA-GENCE 16,,,,40.67703,46.374516,,,
OBA,OBA-GENCE 52,,,,40.676204,46.372936,,,
OBA,OBA-GENCE 41,,,,40.711387,46.376794,,,
OBA,OBA-LACIN 1,,,,39.590366986889,46.542686987434,,,
OBA,OBA-GENCE 77,,,,40.677034592747,46.371962508924,,,
OBA,OBA-ZAQATALA 16,,,,41.477894081822,46.620830145846,,,
OBA,OBA-ZENGILAN 1,,,,39.174583,46.767583,,,
OBA,OBA-GENCE 40,,,,40.674491,46.369638,,,
OBA,OBA-ZAQATALA 13,,,,41.493277219686,46.627468657139,,,
OBA,OBA-GENCE 72,,,,40.656129988032,46.367318118066,,,
OBA,OBA-GENCE 12,,,,40.656215,46.366813,,,
OBA,OBA-GENCE 71,,,,40.66811990559,46.367662085594,,,
OBA,OBA-GENCE 28,,,,40.68956,46.369276,,,
OBA,OBA-GENCE 3,,,,40.668928,46.366682,,,
OBA,OBA-GENCE 80,,,,40.683047078503,46.366221908293,,,
OBA,OBA-GENCE79,,,,40.697592497587,46.3670504429,,,
OBA,OBA-GENCE 60,,,,40.715485157525,46.369128283703,,,
OBA,OBA-GENCE 74,,,,40.660129381277,46.362454065134,,,
OBA,OBA-GENCE 45,,,,40.68863,46.36517,,,
OBA,OBA-GENCE 4,,,,40.709743,46.367264,,,
OBA,OBA-GENCE 47,,,,40.670043,46.3627,,,
OBA,OBA-GENCE 90,,,,40.706908777873,46.366737836248,,,
OBA,OBA-GENCE 62,,,,40.712548144962,46.366961471137,,,
OBA,OBA-GENCE 8,,,,40.666162,46.361403,,,
OBA,OBA-GENCE 6,,,,40.6806,46.362884,,,
OBA,OBA-GENCE 81,,,,40.663840754222,46.359243657673,,,
OBA,OBA-GENCE 78,,,,40.637139584648,46.353861003004,,,
OBA,OBA-GENCE 39,,,,40.67803,46.357309,,,
OBA,OBA-GENCE 33,,,,40.673027,46.356704,,,
OBA,OBA-SAMUX 11,,,,40.754111698304,46.366242715193,,,
OBA,OBA-GENCE 56,,,,40.711507659462,46.359230826703,,,
OBA,OBA-GENCE 13,,,,40.68172,46.3557,,,
OBA,OBA-GENCE 59,,,,40.658329479898,46.352925473017,,,
OBA,OBA-GENCE 30,,,,40.69803,46.355044,,,
OBA,OBA-GENCE 67,,,,40.702486854597,46.35509132325,,,
OBA,OBA-SAMUX 7,,,,40.766617403776,46.363122410386,,,
OBA,OBA-GENCE 18,,,,40.64699,46.347899,,,
OBA,OBA-GENCE 73,,,,40.634007412999,46.345515799486,,,
OBA,OBA-GENCE 65,,,,40.719108219184,46.35396615287,,,
OBA,OBA-GENCE 10,,,,40.695559,46.350866,,,
OBA,OBA-GENCE 61,,,,40.644910775835,46.344194091043,,,
OBA,OBA-GENCE 19,,,,40.720532,46.35209,,,
OBA,OBA-GOYGOL 10,,,,40.543019917128,46.336124838354,,,
OBA,OBA-GENCE 29,,,,40.68524,46.346447,,,
OBA,OBA-GENCE 11,,,,40.640645,46.34115,,,
OBA,OBA-GENCE 1,,,,40.672916,46.342571,,,
OBA,OBA-GOYGOL 6,,,,40.587163818875,46.335374527077,,,
OBA,OBA-GENCE 32,,,,40.661285,46.340293,,,
OBA,OBA-GENCE 50,,,,40.632485,46.335239,,,
OBA,OBA-GENCE 75,,,,40.67093704317,46.338405970777,,,
OBA,OBA-GENCE 54,,,,40.715682289273,46.341018578848,,,
OBA,OBA-GENCE 76,,,,40.670870058461,46.335357628696,,,
OBA,OBA-GOYGOL 3,,,,40.570202,46.325247,,,
OBA,OBA-GENCE 27,,,,40.680142,46.332783,,,
OBA,OBA-GENCE 86,,,,40.667674281367,46.331051113491,,,
OBA,OBA-GENCE 64,,,,40.662399332188,46.32977199971,,,
OBA,OBA-ZAQATALA 14,,,,41.615224043745,46.655495613406,,,
OBA,OBA-GENCE 42,,,,40.707783,46.333165,,,
OBA,OBA-ZAQATALA 11,,,,41.604546825449,46.646787810136,,,
OBA,OBA-GENCE 63,,,,40.708260342503,46.331874082553,,,
OBA,OBA-GENCE 36,,,,40.674817,46.328036,,,
OBA,OBA-GOYGOL,,,,40.588893,46.320913,,,
OBA,OBA-GOYGOL 2,,,,40.591492,46.320613,,,
OBA,OBA-GENCE 7,,,,40.67579,46.326321,,,
OBA,OBA-GOYGOL 11,,,,40.586345950979,46.316989271164,,,
OBA,OBA-GENCE 85,,,,40.663286883006,46.320065078347,,,
OBA,OBA-GENCE 66,,,,40.710177687611,46.323100119573,,,
OBA,OBA-ZAQATALA 19,,,,41.634823514461,46.65491880884,,,
OBA,OBA-ZAQATALA 7,,,,41.617040489421,46.643508794023,,,
OBA,OBA-GENCE 34,,,,40.715801,46.322235,,,
OBA,OBA-GENCE 26,,,,40.662464,46.316206,,,
OBA,OBA-ZAQATALA 3,,,,41.63208,46.65124,,,
OBA,OBA-GOYGOL 9,,,,40.629973697159,46.313083299991,,,
OBA,OBA-ZAQATALA 9,,,,41.634341,46.65074,,,
OBA,OBA-ZAQATALA 6,,,,41.624858,46.637389,,,
OBA,OBA-SAMUX 2,,,,40.788254,46.321862,,,
OBA,OBA-ZAQATALA 8,,,,41.634289,46.640027,,,
OBA,OBA-ZAQATALA 1,,,,41.62961,46.632701,,,
OBA,OBA-GOYGOL 7,,,,40.718145226421,46.29626845992,,,
OBA,OBA-ZAQATALA 17,,,,41.630350907399,46.619851982003,,,
OBA,OBA-GOYGOL 5,,,,40.650192779089,46.272969904569,,,
OBA,OBA-GOYGOL 4,,,,40.67518,46.27432,,,
OBA,OBA-ZAQATALA 22,,,,41.5329229,46.5240605,,,
OBA,OBA-SAMUX 5,,,,40.809312357417,46.259729800185,,,
OBA,OBA-SEMKIR 29,,,,40.784997320342,46.243083353692,,,
OBA,OBA-SEMKIR 22,,,,40.844752,46.215055,,,
OBA,OBA-ZAQATALA 15,,,,41.55138439563,46.421629012475,,,
OBA,OBA-SEMKIR 2,,,,40.905960067228,46.181374613463,,,
OBA,OBA-SEMKIR 10,,,,40.906864,46.181381,,,
OBA,OBA-SEMKIR 24,,,,40.77296368415,46.146117397245,,,
OBA,OBA-SEMKIR 13,,,,40.836309,46.148926,,,
OBA,OBA-SHEMKIR 42,,,,40.83575513965,46.1448032739,,,
OBA,OBA-SHEMKIR 38,,,,40.779683644181,46.131810363462,,,
OBA,OBA-SHEMKIR43,,,,40.757996680087,46.120374364513,,,
OBA,OBA-SHEMKIR 50,,,,40.771306561648,46.11239786855,,,
OBA,OBA-SEMKIR 16,,,,40.771345,46.111536,,,
OBA,OBA-SHEMKIR 36,,,,40.780797953099,46.109551113394,,,
OBA,OBA-DASHKESEN 1,,,,40.522015,46.086229,,,
OBA,OBA-DASKESEN 2,,,,40.521049163245,46.080262764741,,,
OBA,OBA-BALAKEN 8,,,,41.622222,46.388974,,,
OBA,OBA-BALAKEN 3,,,,41.708509,46.433157,,,
OBA,OBA-BALAKEN 11,,,,41.706065647438,46.425063021899,,,
OBA,OBA-SEMKIR 14,,,,40.86037,46.094832,,,
OBA,OBA-BALAKEN 10,,,,41.71781150951,46.415501522008,,,
OBA,OBA-BALAKEN 2,,,,41.71652,46.413954,,,
OBA,OBA-BALAKEN 9,,,,41.713847771417,46.397261549564,,,
OBA,OBA-BALAKEN 4,,,,41.723818,46.40278,,,
OBA,OBA-BALAKEN 12,,,,41.738297186278,46.409203840208,,,
OBA,OBA-BALAKEN 14,,,,41.721334866127,46.395602901845,,,
OBA,OBA-SHEMKIR 46,,,,40.831383764033,46.052590444014,,,
OBA,OBA-SEMKIR 27,,,,40.832092361725,46.042428735694,,,
OBA,OBA-SHEMKIR 34,,,,40.827942059495,46.033484102451,,,
OBA,OBA-SEMKIR 28,,,,40.824571376952,46.032132304391,,,
OBA,OBA-SHEMKIR 39,,,,40.904553913711,46.045031341038,,,
OBA,OBA-SEMKIR 7,,,,40.82404,46.029065,,,
OBA,OBA-SHEMKIR 47,,,,40.860749733707,46.032445048168,,,
OBA,OBA-SHEMKIR 41,,,,40.846596179876,46.026762684632,,,
OBA,OBA-SEMKIR 5,,,,40.88935,46.032633,,,
OBA,OBA-SHEMKIR 33,,,,40.877657594916,46.029222199991,,,
OBA,OBA-SEMKIR 4,,,,40.84399,46.02169,,,
OBA,OBA-SHEMKIR 30,,,,40.829188775153,46.017784934358,,,
OBA,OBA-SEMKIR 3,,,,40.858778,46.022543,,,
OBA,OBA-SHEMKIR 49,,,,40.805585804248,46.011795400643,,,
OBA,OBA-SHEMKIR 44,,,,40.843022521746,46.015536700751,,,
OBA,OBA-BALAKEN 13,,,,41.710924814078,46.268353525644,,,
OBA,OBA-SHEMKIR 35,,,,40.845892637653,45.927217813403,,,
OBA,OBA-SHEMKIR 31,,,,40.904147123294,45.888350371164,,,
OBA,OBA-GEDEBEY 6,,,,40.685212,45.826851,,,
OBA,OBA-SHEMKIR 32,,,,40.912896826077,45.849447604801,,,
OBA,OBA-GEDEBEY 7,,,,40.576419089534,45.809068594467,,,
OBA,OBA-GEDEBEY 1,,,,40.577743,45.807804,,,
OBA,OBA-GEDEBEY 2,,,,40.65959,45.808329,,,
OBA,OBA-SEMKIR 21,,,,40.888061,45.82651,,,
OBA,OBA-TOVUZ 10,,,,40.924,45.820228,,,
OBA,OBA-TOVUZ 19,,,,40.929266789411,45.821179099479,,,
OBA,OBA-GEDEBEY 8,,,,40.503036284287,45.75601224243,,,
OBA,OBA-TOVUZ 31,,,,40.943152120551,45.799830895242,,,
OBA,OBA-TOVUZ 15,,,,40.899607,45.763312,,,
OBA,OBA-TOVUZ 23,,,,40.942585876272,45.750727869144,,,
OBA,OBA-TOVUZ 13,,,,40.948263088004,45.736478324818,,,
OBA,OBA-TOVUZ 2,,,,40.947345,45.734045,,,
OBA,OBA-TOVUZ 26,,,,40.946508333173,45.729925104814,,,
OBA,OBA-TOVUZ 18,,,,40.922075126891,45.664940543217,,,
OBA,OBA-TOVUZ 16,,,,40.975335,45.663857,,,
OBA,OBA-GEDEBEY 4,,,,40.608063,45.609869,,,
OBA,OBA-TOVUZ 22,,,,40.99256859557,45.632443270145,,,
OBA,OBA-TOVUZ 1,,,,40.979401,45.621969,,,
OBA,OBA-TOVUZ 20,,,,40.995470762258,45.624365630593,,,
OBA,OBA-TOVUZ 28,,,,40.985527029075,45.621619903228,,,
OBA,OBA-TOVUZ 27,,,,40.987577771568,45.621069236326,,,
OBA,OBA-TOVUZ 5,,,,40.984013635123,45.617751628518,,,
OBA,OBA-TOVUZ 33,,,,40.999348271156,45.619398689173,,,
OBA,OBA-TOVUZ 3,,,,40.990102,45.616778,,,
OBA,OBA-TOVUZ 25,,,,40.967366423085,45.611843103027,,,
OBA,OBA-TOVUZ 17,,,,40.99175,45.61187,,,
OBA,OBA-TOVUZ 6,,,,41.022320742589,45.607401408597,,,
OBA,OBA-TOVUZ 24,,,,40.975981883178,45.586494632691,,,
OBA,OBA-ORDUBAD 3,,,,38.901322567671,46.016814866263,,,
OBA,OBA-AGSTAFA 8,,,,41.097089840883,45.519271495211,,,
OBA,OBA-ORDUBAD 2,,,,38.932548133516,45.924366684116,,,
OBA,OBA-AGSTAFA 11,,,,41.120937,45.46089,,,
OBA,OBA-AGSTAFA 7,,,,41.108242409619,45.446828913484,,,
OBA,OBA-AGSTAFA 9,,,,41.114594669721,45.4469825966,,,
OBA,OBA-AGSTAFA 10,,,,41.153699762719,45.453222871976,,,
OBA,OBA-AGSTAFA 3,,,,41.1114,45.438958,,,
OBA,OBA-ORDUBAD 1,,,,38.945275285073,45.826477726866,,,
OBA,OBA-QAZAX 20,,,,41.093930479005,45.39744007342,,,
OBA,OBA-QAZAX 2,,,,41.096963,45.38439,,,
OBA,OBA-QAZAX 18,,,,41.102365547378,45.382885804855,,,
OBA,OBA-QAZAX 4,,,,41.09346,45.367003,,,
OBA,OBA-QAZAX 9,,,,41.093106,45.36673,,,
OBA,OBA-QAZAX 22,,,,41.085947618557,45.361049257672,,,
OBA,OBA-QAZAX 1,,,,41.089909,45.359454,,,
OBA,OBA-QAZAX21,,,,41.090895540613,45.359496603498,,,
OBA,OBA-QAZAX 10,,,,41.088397,45.355519,,,
OBA,OBA-QAZAX 12,,,,41.08458,45.352957,,,
OBA,OBA-QAZAX 8,,,,41.08951,45.352725,,,
OBA,OBA-QAZAX 16,,,,41.095963020576,45.350996840552,,,
OBA,OBA-QAZAX 24,,,,41.131028,45.354028,,,
OBA,OBA-QAZAX 13,,,,41.083856,45.33904,,,
OBA,OBA-BABEK 2,,,,39.290549315511,45.506500970564,,,
OBA,OBA-QAZAX 14,,,,41.115149179011,45.30272816083,,,
OBA,OBA-QAZAX 19,,,,41.168285491457,45.30743916142,,,
OBA,OBA-QAZAX 15,,,,41.131760380737,45.266189638718,,,
OBA,OBA-BABEK 1,,,,39.22609123465,45.445575101845,,,
OBA,OBA-BABEK 4,,,,39.112358542125,45.474907532538,,,
OBA,OBA-BABEK 3,,,,39.120656943655,45.466133535583,,,
OBA,OBA-KENGERLI 1,,,,39.400150979856,45.111301960113,,,
OBA,OBA-SHERUR 1,,,,39.501553561519,45.023083560364,,,
OBA,OBA-SHERUR 3,,,,39.562662,44.992359,,,
OBA,OBA-SHERUR 2,,,,39.528130786763,44.986303775573,,,
OBA,OBA-SEDEREK 1,,,,39.613423418779,44.938272709275,,,
OBA,OBA-SEDEREK 2,,,,39.710333,44.88225,,,
TAM,Tamstore Bakıxanov(Super),"Bakıxanov qəs., Nazim İsmayılov küçəsi",*8700,24 saat,40.428028071437765,49.960864976011635,,,
TAM,Tamstore Şağan (Super),"Xəzər rayonu, Buzovna qesebesi A.Xelefov 5/6",*8700,24 saat,40.50972367142472,50.12221147601566,,,
TAM,Tamstore Qazax 2 (Super),"Qazax ray., Musəvi küç., Mərkəzi bazarın yaxınlığı",*8700,24 saat,41.09286117553711,45.365360260009766,,,
TAM,Tamstore - 3-cü MKR (Super),"Bakı şəh, Nəsimi rayonu, A.Məhərrəmov küçəsi 5",*8700,24 saat,40.40768807144108,49.80932997601057,,,
TAM,Tamstore Naxçıvan (Super),"Naxçıvan şəh., Heydər Əliyev pr., Təbriz küçəsi",*8700,24 saat,39.209241571659135,45.408166375951865,,,
TAM,Tamstore - Göytəpə (super),"Cəlilabad rayonu, Göytəpə şəh., ""Göytəpə"" poçt idarəsinin yaxınlığı",*8700,24 saat,39.115749371678234,48.59294507594732,,,
TAM,Tamstore - Bərdə (super),"Bərdə şəh., Nizami və Koroğlu küçələrinin kəsişməsi",*8700,24 saat,40.043,47.12588888888889,,,
TAM,Tamstore - Əhmədli 3 (Mini),"Kənd Əhmədli, Məhəmməd Hadi küçəsi 152",*8700,24 saat,40.38306047144505,49.95023857600929,,,
TAM,Tamstore - 9-cu MKR(Super),"Mir Cəlal küç 164, 157 saylı tam orta məktəbin yaxınlığı",,24 saat,40.42309947143854,49.81457137601142,,,
TAM,Tamstore - Ağdaş 2 Ləki (Super),"Ağdaş ray., Ləki qəs., Xasılılar küçəsi, Bakı-Ələt-Qazax yolu",*8700,24 saat,40.53658677142053,47.42854687601702,,,
TAM,Tamstore - Sumqayıt 5 (Super),"Sumqayıt şəh, Nəriman Nərimanov küç 55",*8700,24 saat,40.58335887141321,49.679601376019235,,,
TAM,Tamstore Binəqədi 2,"Binəqədi ray., Biləcəri qəs., F. Vəliyev küçəsi",*8700,24 saat,40.45282357143383,49.78022767601278,,,
TAM,Tamstore Masallı(Super),"Masallı ray., Heydər Əliyev pr., Dövlət Sosial Müdafiə Fondunun yaxınlığı",*8700,24 saat,39.03655617169471,48.66924287594349,,,
TAM,Tamstore - Binə 2 (Atçılıq) (Super),"Binə 2- Binə qəsəbəsi, Binə ŞTQ, ""Binə Atçılıq İstirahət Mərkəzi""in yaxınlığı",*8700,24,40.46664427143162,50.07836527601346,,,
TAM,Tamstore - Salyan (Super),"Salyan şəh., Bakı-Astara yolu 130-cu km, Ə.Quliyev küçəsi",*8700,24,39.5808944715861,48.967430075969894,,,
TAM,Tamstore - Sumqayıt 6 (City),"Sumqayıt şəhəri., Birləşmiş məhəllə, Nizami küçəsi 79",*8700,24,40.600044271410596,49.664894076020104,,,
TAM,Tamstore Ağstafa (Super),"Ağstafa ray., Rafiq Əlicanov küç. 39",*8700,24 saat,41.11573407133564,45.44796015766704,,,
TAM,Tamstore Hacıqabul(Fədək)  (Super),"Hacıqabul - Hacıqabul ray., Pirsaat qəs., Bakı-Ələt-Qazax-gürcüstan yolu, Fədək restoranının yaxınlığı",*8700,24 saat,40.04185561207142,49.063243825732954,,,
TAM,Tamstore Qazax (Super),"Qazax ray., Əliağa Şıxlinski küçəsi",*8700,24 saat,41.0975532713382,45.347560876045016,,,
TAM,Tamstore - Əhmədli 2 (City),"Xətai rayonu, Nəsrəddin Tusi küçəsi, 62 Nömrəli avtobusun son dayanacağı",*8700,24 saat,40.366817471447746,49.95981977600846,,,
TAM,Tamstore Xutor (Super),"Xutor qəsəbəsi, Hüseyn Seyidzadə küçəsi, Yeganə şadlıq sarayının yaxınlığı",*8700,24 saat,40.41375490182988,49.821674030148884,,,
TAM,Tamstore Zaqatala 2,"Zaqatala şəh., Faiq Əmirov küç., 197 A, Hərbi Komisarlığın yaxınlığı",*8700,24 saat,41.63125227126993,46.61302187607203,,,
TAM,Tamstore Mehdiabad (Super),"Mehdiabad qəsəbəsi, 28 May küçəsi",*8700,24 saat,40.49958417142646,49.853443176015084,,,
TAM,Tamstore Şəki 3 (mini),"Mikayıl Müşviq küç., Şəki bazarının yaxınlığı",*8700,24 saat,41.20182417132401,47.16415407605021,,,
TAM,Tamstore Şəki 2 (super),"Məmmədəmin Rəsulzadə pr., 29 saylı uşaq bağçasının yaxınlığı",*8700,24 saat,41.20219797132399,47.17555997605033,,,
TAM,Tamstore Mərdəkan (city),"Mərdəkan qəsəbəsi., Sergey Yesenin küçəsi.,92",*8700,24 saat,40.48876567142804,50.13740917601459,,,
TAM,Tamstore Şamaxinka 3 (Super),"9-cu MKR., Mir Cəlal küç., 1",*8700,24 saat,40.41399377144002,49.80121227601086,,,
TAM,Tamstore Bakıxanov 2 (Super),"Bakıxanov qəs., Sakit Qocayev küç., Kaspi liseyinin yanı",*8700,24 saat,40.40900797144082,49.96715167601057,,,
TAM,"""Tamstore"" Şəki 1 (Super)","M.Rasulov küç., Heydər Əliyev parkının yaxınlığı",*8700,24 saat,41.16199867132929,47.161453276048434,,,
TAM,"Tamstore ""Xankəndi 2""","Xankəndi 2 - Pənahəli Xan Küçəsi, 16, Xankəndi şəhər Prokurorluğu yaxınlığı",*8700,24 saat,39.81384657154289,46.74831007598135,,,
TAM,"Tamstore ""Xankəndi 1""","Xankəndi 1 - Xankəndi şəh., Xankəndi Notariat şöbəsinin yaxınlığı",*8700,24 saat,39.82619477154067,46.76316447598196,,,
TAM,Tamstore Binə (Super),"Binə qəsəbəsi, Əli İsazadə küçəsi, 121 saylı məktəbhin yaxınlığı",*8700,24 saat,40.4549064714335,50.07896427601297,,,
TAM,"Tamstore ""Binəqədi 3""","Binəqədi qəs., Araz küç., 346",*8700,24 saat,40.45529167143351,49.816036176012894,,,
TAM,Tamstore - Zaqatala (Super),"Zaqatala şəhəri., Tala küçəsi, Tala Ticarət Mərkəzinin yaxınlığı",*8700,24 saat,41.61934657127134,46.65036387607134,,,
TAM,Tamstore - Ağdaş 3(Mini),"Ağdaş rayonu., Müşviq İsayev küç.,8",*8700,24 saat,40.647537171403464,47.469230676022455,,,
TAM,Tamstore - Yeni Yasamal(Super),"Yeni Yasamal qəs., Dadaş Bünyadzadə küç 11.",*8700,24 saat,40.38914107144409,49.792362176009725,,,
TAM,Tamstore - Ramana(City),"Ramana qəsəbəsi, Şuşa sarayının yaxınlığı",*8700,24 saat,40.47588501190415,50.011312924325466,,,
TAM,Tamstore - Savalan (Super),"Maştağa qəs., Zabrat-Maştağa ş., ""Maştağa İdman Kompleksi""in yaxınlığı",*8700,24 saat,40.504302978515625,49.97353744506836,,,
TAM,Tamstore - Xırdalan 4 (Super),"Xırdalan şəh., Həzi aslanov küç., Misir parkının yaxınlığı",*8700,24 saat,40.456226,49.740173,,,
TAM,Tamstore - Şərur(Super),"Naxçıvan MR., Şərur şəhəri, Heydər Əliyev pr 49, N&N Residence",*8700,24 saat,39.559711471590234,44.98628997596883,,,
TAM,Tamstore - 1-ci MKR / Super,"1-ci MKR, Moskva prospekti, 14 Saylı Notariat şöbəsinin yaxınlığı",*8700,24 saat,40.40596767144125,49.805404676010475,,,
TAM,Tamstore Badamdar (Super),"Badamdar qəsəbəsi, Rafiq İsgəndərov küçəsi",*8700,24 saat,40.33925986035159,49.80462747547893,,,
TAM,Tamstore 5ci MKR (City),"Nesimi rayonu, 20 yanvar küçesi 30 , Bakı, Azerbaycan",*8700,24 saat,40.41170097144044,49.80984507601069,,,
TAM,Tamstore Masazır (Super),"Masazır qəsəbəsi, Əliağa Vahid küçəsi",*8700,24 saat,40.47143197143095,49.75122107601372,,,
TAM,Nəsimi Olimpik (Super),"Nəsimi rayonu, 244a Səməd Vurğun küçəsi, ""Olimpik Star"" ın yaxınlığı",*8700,24 saat,40.40120697144215,49.82906307601024,,,
TAM,Tamstore Neftçilər (City),"Nizami rayonu, Məmmədəli Şərifli küçəsi 78",*8700,24 saat,40.41509197143989,49.9452630760109,,,
TAM,Tamstore Xalqlar dostluğu (Mini),"Bəhruz Nuriyev küçəsi, 119 saylı poçt idarəsinin yaxınlığı",*8700,24 saat,40.39929597144243,49.94571707601004,,,
TAM,Tamstore - Xırdalan 1 (Super),"Xırdalan şəhəri, Məmmədəmin Rəsulzadə küçəsi 12",*8700,24 saat,40.453738971433694,49.75240707601279,,,
TAM,Tamstore Gənclik (City),"Nərimanov rayonu, Həsən Əliyev küçəsi, 90A",*8700,24 saat,40.40304197144181,49.84974707601031,,,
TAM,Tamstore Qarayev (City),"Nizami rayonu, Əliağa Kürçaylı küçəsi",*8700,24 saat,40.41890297143922,49.93885007601106,,,
TAM,Tamstore Şamaxinka (Mini),"Nəsimi rayonu, 20 Yanvar küçəsi 2",*8700,24 saat,40.41046907144063,49.80161667601066,,,
TAM,Tamstore Əmircan (Super),"Əmircan qəs., Tofiq Bayram küç., 87 saylı tam orta məktəbin yaxınlığı",*8700,24 saat,40.43064897143735,49.984684076011675,,,
TAM,Tamstore Sumqayıt 2 (Super),"Sumqayıt şəhəri, Nəriman Nərimanov küçəsi, Sumqayıt bazarı ərazisi",*8700,24 saat,40.59057237141216,49.67294697601968,,,
TAM,Tamstore - Xırdalan 2 (Super),"Xırdalan - Xırdalan şəh., Heydər Əliyev pr., Köhnə bazar ərazisi",*8700,24 saat,40.45577597143333,49.73431807601301,,,
TAM,Tamstore Qaraçuxur (Super),"Suraxanı rayonu, Qaraçuxur qəsəbəsi, Cəlal qurbanov küçəsi, 104 nömrli məktəbin yaxınlığı",*8700,24 saat,40.39861697144246,49.973541076010136,,,
TAM,Tamstore Biləcəri 2 (City),"Biləcəri qəsəbəsi, Xudadat Məlikaslanov küçəsi 5C",*8700,24 saat,40.44108197143568,49.805786076012204,,,
TAM,Tamstore Keşlə (Super),"Bakı şəhəri, Keşlə qəsəbəsi, 24 Abdulla Mirzəyev küçəsi",*8700,24 saat,40.396483971442926,49.88718007600986,,,
TAM,Tamstore Biləcəri 1 (Super),"Bakı şəhəri, Biləcəri qəsəbəsi, Rəşid İsmayılov küçəsi",*8700,24 saat,40.42162785534208,49.79646987548322,,,
TAM,Tamstore Xətai (Super),"Bakı şəhəri, Həsən Salmani küçəsi 5",*8700,24 saat,40.3814784577854,49.86031817514799,,,
TAM,Tamstore Sumqayıt (Mini),"Sumqayıt şəhəri, Bakı küçəsi",*8700,24 saat,40.58226797141339,49.66565307601922,,,
TAM,Tamstore Xocəsən (Mini),"Bakı şəhəri, Xocəsən qəsəbəsi, Dairəvi yolu",*8700,24 saat,40.42426697143841,49.77674907601136,,,
TAM,Tamstore Sulutəpə (City),"Bakı şəhəri, Sulutəpə qəsəbəsi, Şahlar Allahverdiyev",*8700,24 saat,40.431277971437254,49.76678107601175,,,
TAM,Tamstore Mingəçevir 2 (City),"Mingəçevir 2 / City market - Mingəçevir şəhəri, Şah İsmayıl Xətai küçəsi",*8700,24 saat,40.75707112571723,47.06320779814418,,,
TAM,Tamstore Ağcabədi (Super),"Ağcabədi rayonu, Heydər Əliyev prospekti, 64, Mədəniyyət bağının yaxınlığı",*8700,24 saat,40.0485267715012,47.45573807599275,,,
TAM,Tamstore Zirə (City),"Zirə qəsəbəsi, Cəlal Əliyev küçəsi, Zirə bazarının yaxınlığı",*8700,24 saat,40.371433271446904,50.281990076008796,,,
TAM,Tamstore Buzovna (Super),"Buzovna qəs., Heydər Eyvazov küçəsi, ""Mədəniyyət və Sənətkarlıq üzrə Bakı Dövlət Peşə Təhsil Mərkəzi"" yaxınlığı",*8700,24 saat,40.518898,50.1048508,,,
TAM,Tamstore Günəşli (Super),"Suraxanı ray., Yeni Günəşli qəs., İlqar Musayev küçəsi, ""Qartal"" heykəlinin yaxınlığı",*8700,24 saat,40.38594125247242,49.97488979377943,,,
TAM,Tamstore Bayıl (Super),"Səbail ray., Bayıl qəs., Neftçi Qurban Abbasov küçəsi 44., 33 Nömrəli şəhər poliklinikasının yaxınlığı",*8700,24 saat,40.3471702,49.8367731,,,
TAM,Tamstore Novxanı (Super),Abseron r. Novxani kəndi -Super,*8700,24 saat,40.535826888557345,49.780402212761835,,,
TAM,Tamstore Sumqayıt 4 (Super),"Sumqayıt şəh., 6-cı Mikrorayon",*8700,24 saat,40.58005861256432,49.68755829633201,,,
TAM,Tamstore Sumqayıt 3 (Super),"Sumqayıt şəh., 20 Yanvar küçəsi",*8700,24 saat,40.58797447141252,49.66482547601946,,,
TAM,Tamstore Mingəçevir 3 (Mini),"Mingəçevir 3 - Mini market / Mingəçevir şəhəri, 13 Nizami küçəsi, 1941-1945 parkı yaxınlığı",*8700,24 saat,40.761571,47.058537,,,
TAM,Tamstore Nərimanov (City),"Bakı şəhəri, Nərimanov rayonu, 2b Həsənoğlu küçəsi",*8700,24 saat,40.39735397144256,49.86718407601011,,,
TAM,Tamstore Mingəçevir 1 (Super),"Mingəçevir 1 / Supermarket - Müslüm Magomayev prospekti, “Mingəçevir Dövlət Dram Teatrı”ın arxası",*8700,24 saat,40.767285,47.045997,,,
TAM,Tamstore Şəmkir (Super),"Şəmkir rayonu, 20 Yanvar döngəsi, “Şəmkir” bazarının yaxınlığı",*8700,24 saat,40.826460999999995,46.030856,,,
TAM,Tamstore Qaraçuxur 2 (Super),"Suraxanı ray., Qaraçuxur qəs., Zaur Şərifov küçəsi 47 A, “Qaraçuxur 1” filialı və “Veteranlar” parkı yaxınlığı",*8700,24 saat,40.40149688720703,49.97477340698242,,,
TAM,Tamstore Şamaxinka 2 (Super),"Yasamal ray., 2-ci Alatava qəs., Moskva pr. Main MTK",*8700,24 saat,40.41241837144033,49.7995223760108,,,
TAM,Tamstore Ağdaş (Super),"Ağdaş rayonu, Heydər Əliyev pr, Bazarın yaxınlığı",*8700,24 saat,40.64042277140446,47.467807776022205,,,
TAM,Tamstore Xırdalan 3 (Super),"Xırdalan şəh., Heydər Əliyev pr., 11",*8700,24 saat,40.44570415312133,49.75131099895339,,,
TAM,Tamstore Neftçilər 2 (Super),"Nizami ray., 8-ci km qəs., Qara Qarayev pr. 8-ci km bazarı yaxınlığı",*8700,24 saat,40.406284271441294,49.943820976010436,,,
TAM,Tamstore Qaradağ (Super),"Qaradağ rayonu, sahil qəsəbəsi, Bakı-Ələt yolunun 25-ci kilometrliyi",*8700,24 saat,40.24278997146812,49.59731307600235,,,
TAM,Tamstore Əhmədli (Super),"Əhmədli qəsəbəsi, Qaçaq Nəbi küçəsi, 47A",*8700,24 saat,40.39129297144369,49.95686707600969,,,
