name,address,phone,hours,latitude,longitude
OBA-QARACHUXUR 8,,,,40.400486148133,49.978523413451
OBA-QARACHUXUR 10,,,,40.401456167751,49.975469707631
OBA-QARACHUXUR 5,,,,40.402745097545,49.981727
OBA-BAKIXANOV 2,,,,40.401930097545,49.972973
OBA-BAKIXANOV 12,,,,40.406109097545,49.978708
OBA-QARACUXUR 7,,,,40.399004097545,49.972786
OBA-QARACHUXUR 9,,,,40.404104353567,49.97240505733
OBA-QARACUXUR,,,,40.396225097545,49.98379
OBA-QARACHUXUR 13,,,,40.395062306775,49.973640397662
OBA-BAKIXANOV 8,,,,40.410260751445,49.975744634
OBA-QARACUXUR 6,,,,40.391844097545,49.972452
OBA-BAKIXANOV 13,,,,40.409996097545,49.969257
OBA-BAKIXANOV 21,,,,40.413252097545,49.976352
OBA-EMIRCAN 7,,,,40.412067089566,49.987455403643
OBA-BAKIXANOV 9,,,,40.412920097545,49.968913
OBA-QARACHUXUR 12,,,,40.40925,49.99425
OBA-EHMEDLI 25,,,,40.394194,49.961833
OBA-XALQLAR 6,,,,40.397475097545,49.959602
OBA-YENI GUNESLI,,,,40.386461097545,49.979988
OBA-BAKIXANOV 16,,,,40.415583097545,49.969821
OBA-8 KM,,,,40.407121097545,49.959271
OBA-EHMEDLI 23,,,,40.395027091701,49.959757815345
OBA-EHMEDLI 5,,,,40.393189097545,49.960628
OBA-YENI GUNESLI 4,,,,40.385785097545,49.977519
OBA-EMIRCAN 5,,,,40.415618097545,49.989844
OBA-XALQLAR 1,,,,40.401683097545,49.955857
OBA-8 KM BAZAR,,,,40.405626097545,49.956403
OBA-EHMEDLI,,,,40.389105097545,49.961764
OBA-BAKIXANOV 4,,,,40.414323097545,49.961917
OBA-YENI GUNESLI 8,,,,40.383955097545,49.981711
OBA-XALQLAR 4,,,,40.397488097545,49.955322
OBA-8 KM 3,,,,40.408037097545,49.955621
OBA-BAKIXANOV 10,,,,40.414412097545,49.960035
OBA-EHMEDLI 19,,,,40.390098658113,49.95827142694
OBA-EHMEDLI 15,,,,40.387377791365,49.960857002996
OBA-EHMEDLI 16,,,,40.385993602679,49.962617854527
OBA-BAKIXANOV 6,,,,40.419446097545,49.967446
OBA-XALQLAR 3,,,,40.397812097545,49.952804
OBA-NEFTCHILER 9,,,,40.406555097545,49.953013
OBA.BAKIXANOV 23,,,,40.420873097545,49.970756
OBA-EHMEDLI 22,,,,40.384579328173,49.96358098054
OBA-XALQLAR 9,,,,40.398814097545,49.951478
OBA-KOHNE GUNESLI,,,,40.382818097545,49.966329
OBA-NEFTCHILER 19,,,,40.403762391655,49.950963936062
OBA-XALQLAR 8,,,,40.392513097545,49.95346
OBA-SURAXANI 6,,,,40.411863097545,50.002112
OBA-NEFTCILER 8,,,,40.406646097545,49.95138
OBA-BAKIXANOV,,,,40.420740097545,49.96663
OBA-KGUNESHLI 14,,,,40.381783097545,49.968516
OBA-EHMEDLI 11,,,,40.387509097545,49.957178
OBA-NEFTCHILER,,,,40.410075097545,49.952248
OBA-BAKIXANOV 7,,,,40.417735097545,49.959354
OBA-XALQLAR 10,,,,40.395937097545,49.950505
OBA-YENI GUNESLI 7,,,,40.379774097545,49.980071
OBA-EMIRCAN 4,,,,40.422239097545,49.987622
OBA-YENI GUNESLI 2,,,,40.380029097545,49.983807
OBA-BAKIXANOV 22,,,,40.420959097545,49.964433
OBA-EMIRCAN 2,,,,40.419321097545,49.995562
OBA-SURAXANI 8,,,,40.416812317433,49.999297083612
OBA-XETAI 3,,,,40.394291097545,49.950384
OBA-NEFTCHILER 18,,,,40.411029421557,49.951281943229
OBA-EHMEDLI 21,,,,40.382984004752,49.96080207236
OBA-EHMEDLI 24,,,,40.388116009312,49.953345984655
OBA-NEFTCHILER 7,,,,40.405671097545,49.947775
OBA-EHMEDLI 20,,,,40.384690313861,49.956550235582
OBA-NEFTCHILER 3,,,,40.403250097545,49.947063
OBA-SURAXANI 9,,,,40.420042717929,49.998095725795
OBA-XALQLAR 5,,,,40.396984097545,49.947359
OBA-XALQLAR 7,,,,40.401856097545,49.946487
OBA-SURAXANI 7,,,,40.419024097545,50.00021
OBA-NEFTCHILER 4,,,,40.404928097545,49.946626
OBA-EMIRCAN 6,,,,40.423368062569,49.992693910368
OBA-NEFTCILER 16,,,,40.403418097545,49.946152
OBA-EHMEDLI 2,,,,40.381531097545,49.959785
OBA-YENI GUNESLI 3,,,,40.376440097545,49.978401
OBA-KOHNE GUNESLI 4,,,,40.377718097545,49.967266
OBA-BAKIXANOV 17,,,,40.421192097545,49.957055
OBA-KGUNESHLI 15,,,,40.378819097545,49.962979
OBA-SURAXANI 5,,,,40.422334097545,49.99948
OBA-EHMEDLI 10,,,,40.381892097545,49.954439
OBA-SURAXANI 3,,,,40.422139097545,50.000943
OBA-EMIRCAN,,,,40.427567097545,49.987642
OBA-SURAXANI 4,,,,40.417612097545,50.007095
OBA-EHMEDLI 9,,,,40.386316097545,49.948353
OBA-NEFTCHILER 13,,,,40.413441097545,49.945468
OBA-KGUNESHLI 17,,,,40.375886097545,49.964785
OBA-BAKIXANOV 25,,,,40.426382276898,49.961246729239
OBA-XALQLAR 11,,,,40.396586097545,49.941795
OBA-NEFTCHILER 2,,,,40.407289097545,49.941948
OBA-NEFTCHILER 20,,,,40.409961988489,49.942558282174
OBA-NEFTCHILER 12,,,,40.403294097545,49.94041
OBA-BAKIXANOV 27,,,,40.423443,49.9531121
OBA-EMIRCAN 3,,,,40.430084097545,49.986865
OBA-BAKIXANOV 18,,,,40.429293097545,49.964536
OBA-KOHNE GUNESLI 7,,,,40.372773097545,49.967601
OBA-HEZI ASLANOV 4,,,,40.377339097545,49.954849
OBA-NEFTCHILER 21,,,,40.412444,49.941222
OBA-NEFTCHILER 10,,,,40.415711097545,49.943165
OBA-HEZI ASLANOV 12,,,,40.378531097545,49.952069
OBA-NEFTCHILER 11,,,,40.402603097545,49.93779
OBA-EHMEDLI 13,,,,40.385433097545,49.943767
OBA-NEFTCHILER 6,,,,40.408261097545,49.938307
OBA-BULBULE 2,,,,40.433115700165,49.975179007577
OBA-XEZER 5,,,,40.372800097545,49.95925
OBA-BULBULE,,,,40.435142097545,49.978077
OBA-BAKIXANOV 24,,,,40.432631195248,49.960156212788
OBA-QARAYEV 8,,,,40.415831097545,49.937704
OBA-ZIG 2,,,,40.369441097545,49.993309
OBA-HEZI ASLANOV 13,,,,40.370957097545,49.957566
OBA-BAKIXANOV 19,,,,40.431438097545,49.955583
OBA-HEZI ASLANOV 16,,,,40.371298234753,49.955773413475
OBA-QARAYEV 2,,,,40.420046097545,49.939092
OBA-KOHNE GUNESLI 2,,,,40.368096097545,49.964568
OBA-DEDE QORQUD,,,,40.387669097545,50.020767
OBA-KOHNE GUNESHLI 21,,,,40.366973810575,49.966988281655
OBA-HEZI ASLANOV 11,,,,40.371624097545,49.952795
OBA-HEZI ASLANOV 19,,,,40.369373370879,49.955433662696
OBA-HEZI ASLANOV 15,,,,40.370832494601,49.951802330642
ZIG 4,,,,40.364854310473,49.983058482859
OBA-BAKIXANOV 14,,,,40.435738097545,49.958121
OBA-KOHNE GUNESLI 5,,,,40.365916097545,49.96295
OBA-HEZI ASLANOV 3,,,,40.372614097545,49.946723
OBA-EMIRCAN 10,,,,40.437417480584,49.994034142326
OBA-RADIOZAVOD,,,,40.375666097545,49.940498
OBA-KOHNE GUNESLI 9,,,,40.363828097545,49.966278
OBA-DEDE QORQUD 2,,,,40.387854653808,50.025989271164
OBA-QARAYEV 3,,,,40.419055097545,49.932027
OBA-KOHNE GUNESHLI 19,,,,40.363017710857,49.968553941236
OBA-QARAYEV 7,,,,40.415982097545,49.930096
OBA-RAMANA 11,,,,40.441828097545,49.976785
OBA- SABUNCU 20,,,,40.439868879742,49.9610833
OBA-BAKIXANOV 26,,,,40.430639,49.941028
OBA-ZIG 1,,,,40.360648097545,49.979805
OBA-HEZI ASLANOV 7,,,,40.364434097545,49.955034
OBA-RADIOZAVOD 4,,,,40.367896097545,49.946947
OBA-HEZI ASLANOV 20,,,,40.363139,49.956167
OBA-XEZER 4,,,,40.361737097545,49.960613
OBA-HEZI ASLANOV 18,,,,40.363093661371,49.955511906724
OBA-RADIOZAVOD 6,,,,40.365341543562,49.949188157721
OBA-KOHNE GUNESHLI 18,,,,40.360031892273,49.966243286868
OBA-QARAYEV,,,,40.423230097545,49.930076
OBA-NARGILE 4,,,,40.370530097545,49.939367
OBA-QARAYEV 9,,,,40.420577097545,49.927492
OBA-KOHNE GUNESHLI 22,,,,40.359030396087,49.969636436946
OBA-NARGILE 6,,,,40.368138962988,49.94240782699
OBA-RAMANA 15,,,,40.444332097545,49.986522
OBA-RAMANA 3,,,,40.444450097545,49.970109
OBA-QARAYEV 4,,,,40.419713097545,49.926252
OBA-ZIG 3,,,,40.357981097545,49.977477
OBA-SABUNCU 8,,,,40.441232097545,49.95428
OBA-XEZER 7,,,,40.360284097545,49.959562
OBA-KOMBINAT 2,,,,40.365966097545,49.944405
OBA-XEZER 3,,,,40.360884097545,49.956305
OBA-EMIRCAN 8,,,,40.442086441159,50.000678823693
OBA-XEZER 8,,,,40.359199482969,49.961363055819
OBA-BAKIXANOV 20,,,,40.433632097545,49.93777
OBA-RADIOZAVOD 7,,,,40.363776388114,49.946942101945
OBA-KGUNESHLI 16,,,,40.357286097545,49.969864
OBA-QARAYEV 11,,,,40.420919097545,49.925084
NZS 9,,,,40.387358745759,49.921750188407
OBA-NARGILE 5,,,,40.366590516801,49.940248721162
OBA-ELEKTROTOK 2,,,,40.380599097545,49.924959
OBA-NZS 14,,,,40.390403971928,49.920015518066
OBA-RAMANA 33,,,,40.444459239069,49.999858600026
OBA-RAMANA 24,,,,40.447093579377,49.989051046816
OBA-RAMANA 27,,,,40.447111332761,49.989042487975
OBA-ELEKTROTOK 3,,,,40.376782961734,49.926023326439
OBA-KOHNE GUNESLI 10,,,,40.355330097545,49.967323
OBA-Nargile 3,,,,40.369764097545,49.932712
OBA-NZS 12,,,,40.388862974992,49.918664170694
OBA-SABUNCU 5,,,,40.443867097545,49.949995
OBA-RAMANA 16,,,,40.445310097545,50.003034
OBA-NZS 7,,,,40.383388097545,49.919539
OBA-SABUNCU 11,,,,40.446737097545,49.954341
OBA-SABUNCU 9,,,,40.441965097545,49.942348
OBA-NZS 5,,,,40.391078097545,49.914766
OBA-SABUNCU 15,,,,40.446778097545,49.949582
OBA-SABUNCU,,,,40.444759097545,49.943812
OBA-SABUNCU 7,,,,40.446019097545,49.946094
OBA-ELEKTROTOK,,,,40.376013097545,49.920109
OBA-BAHAR 1,,,,40.366638097545,50.027136
OBA-SABUNCU 21,,,,40.446928378169,49.946449996449
OBA-NZS 10,,,,40.386491305375,49.913595125161
OBA-SABUNCU 2,,,,40.447124097545,49.945441
OBA-YENI SURAXANI 5,,,,40.428842139776,50.036235533874
OBA-SABUNCU 13,,,,40.446657097545,49.943785
OBA-YENI SURAXANI 1,,,,40.432814097545,50.033117
OBA-SABUNCU 19,,,,40.441922274454,49.933321580711
OBA-BAHAR 2,,,,40.366853761825,50.030606286825
OBA-SABUNCU 4,,,,40.442171097545,49.933037
OBA-KOROGLU 1,,,,40.415123291209,49.910612012099
OBA-SABUNCU 3,,,,40.439834097545,49.928335
YENI SURAXANI 4,,,,40.425333317397,50.041740517242
OBA-SABUNCU 17,,,,40.446129266893,49.938271397912
OBA-YENI SURAXANI 3,,,,40.431842097545,50.038467
OBA-QUM ADASI,,,,40.348755097545,49.998611
OBA-SABUNCU 12,,,,40.442599097545,49.929898
OBA-NZS,,,,40.388244097545,49.907791
OBA-RAMANA 10,,,,40.450981097545,50.01127
RAMANA 23,,,,40.457053267629,49.987575468975
OBA-NZS 13,,,,40.395452563219,49.90492799028
OBA-SABUNCU 14,,,,40.446931097545,49.933818
OBA-NAXIMOV 3,,,,40.344975097545,49.985243
OBA-NZS 15,,,,40.386602175767,49.905937179761
OBA-RAMANA 13,,,,40.458660097545,49.982487
OBA-NZS 16,,,,40.394098063353,49.903626215345
OBA-QUM ADASI 2,,,,40.344722,49.989
OBA-SABUNCU 10,,,,40.444586097545,49.927153
OBA-NZS 8,,,,40.386680097545,49.904465
OBA-SABUNCU 6,,,,40.452929097545,49.942307
OBA-NZS 2,,,,40.386886097545,49.903676
OBA-SABUNCU 16,,,,40.446944097545,49.929365
OBA-NZS 11,,,,40.385751003808,49.903470576729
OBA-NAXIMOV 6,,,,40.342297870219,49.980351825189
OBA-NAXIMOV 1,,,,40.342617097545,49.969284
OBA-NAXIMOV 4,,,,40.341686097545,49.982559
OBA-KESHLE 7,,,,40.409045524525,49.899983374568
OBA-NAXIMOV 5,,,,40.342058097545,49.967541
OBA-BALAXANI 6,,,,40.450172919614,49.931523748993
OBA-NAXIMOV 2,,,,40.341053097545,49.977777
OBA-SABUNCU 18,,,,40.447843015874,49.926040384517
OBA-KESHLE 10,,,,40.393139,49.898
OBA-KESHLE 8,,,,40.396104405312,49.895311753426
OBA-KESHLE 4,,,,40.393939097545,49.895027
OBA-ULDUZ 1,,,,40.418100097545,49.897195
OBA-RAMANA 22,,,,40.463952443741,50.002205530771
OBA-RAMANA 5,,,,40.461028097545,50.012814
OBA-KESHLE,,,,40.392854097545,49.891103
OBA-KESHLE 9,,,,40.396227771026,49.889608987045
OBA-BALAXANI 2,,,,40.461526097545,49.926302
OBA-RAMANA 38,,,,40.472889,49.994806
OBA-RAMANA 30,,,,40.472607918892,50.002509339022
OBA-NERIMANOV 9,,,,40.400192097545,49.881537
OBA-ZABRAT 4,,,,40.471691097545,49.947378
OBA-BALAXANI,,,,40.460428097545,49.918423
OBA-RAMANA 20,,,,40.470787097545,50.015481
OBA-RAMANA 39,,,,40.471849406752,50.014194423348
OBA-HOVSAN 15,,,,40.358080097545,50.059411
OBA-ZABRAT 2,,,,40.472860097545,49.94459
OBA-RAMANA 2,,,,40.474118097545,50.007214
OBA-RAMANA 8,,,,40.477144097545,49.987789
OBA-RAMANA 31,,,,40.471097558291,50.02096165356
OBA-ZABRAT 22,,,,40.477223665246,49.960243657672
OBA-BALAXANI 4,,,,40.466308252439,49.922869474263
OBA-NERIMANOV 14,,,,40.401177097545,49.87622
OBA-ZABRAT 9,,,,40.475155097545,49.944871
OBA-RAMANA 36,,,,40.475796574551,50.009066328834
OBA-NERIMANOV 20,,,,40.40628195479,49.875830808402
OBA-HOVSAN 17,,,,40.359007344759,50.064239048799
OBA-NERIMANOV 6,,,,40.396401097545,49.875639
OBA-HOVSAN 6,,,,40.384555097545,50.079703
ZABRAT 15,,,,40.479490911533,49.959599357106
RAMANA 25,,,,40.480115012201,49.993404015341
OBA-HOVSAN 7,,,,40.364976097545,50.071211
OBA-ZABRAT 19,,,,40.479339432772,49.954549400993
OBA-BINE 57,,,,40.443785413973,50.068465749025
OBA-RAMANA 12,,,,40.477417097545,50.015435
OBA-RAMANA 18,,,,40.479178097545,50.011451
OBA-NERIMANOV 19,,,,40.407603097545,49.871132
OBA-ZABRAT 16,,,,40.478934905931,49.943409493366
OBA-NERIMANOV 12,,,,40.395055097545,49.871145
OBA-HOVSAN 18,,,,40.355044241944,50.066568184548
OBA-HOVSAN 20,,,,40.361843200451,50.072206106735
OBA-NERIMANOV 16,,,,40.404498097545,49.870538
OBA-HOVSAN 9,,,,40.359432097545,50.071133
OBA-HOVSAN 23,,,,40.380071079102,50.083513562568
OBA-ZABRAT 20,,,,40.475596672824,49.927186112629
OBA-HOVSAN 10,,,,40.364746097545,50.076929
OBA-ZABRAT 17,,,,40.47821021984,49.933245389223
OBA-XETAI 5,,,,40.383810097545,49.870235
OBA-RAMANA 26,,,,40.486024897331,49.977926868671
OBA-BALAXANI 3,,,,40.473315097545,49.919142
OBA-NERIMANOV,,,,40.404452097545,49.866633
OBA-BINE 44,,,,40.447844669263,50.071904015344
OBA-XETAI 4,,,,40.381330097545,49.869672
OBA-RAMANA 7,,,,40.487296097545,49.983716
OBA-HOVSAN 2,,,,40.364602097545,50.080165
OBA-HOVSAN,,,,40.358131097545,50.075722
OBA-HOVSAN 8,,,,40.360700097545,50.07769
OBA-BINE 73,,,,40.416125549327,50.089792810345
OBA-BINE 54,,,,40.436447065427,50.082719838895
OBA-BINE 72,,,,40.446019537436,50.076318184655
OBA-CERMET,,,,40.418930097545,49.866261
OBA-ZABRAT 14,,,,40.483400825029,49.938708526904
OBA-ZABRAT 18,,,,40.481074148104,49.928523696059
OBA-RAMANA,,,,40.489631097545,49.983227
OBA-ZABRAT 3,,,,40.488145097545,49.955344
OBA-BINE 5,,,,40.455193097545,50.070493
OBA-ULD_HOVSAN 4,,,,40.359220097545,50.080779
OBA-ZABRAT 24,,,,40.488921352195,49.956119973017
OBA-BINE 53,,,,40.420694043961,50.092300486704
OBA-HOVSAN 16,,,,40.367971745989,50.086645818582
OBA-NERIMANOV 2,,,,40.401054097545,49.85937
OBA-ZABRAT 21,,,,40.488322916422,49.94241143651
OBA-BINE 47,,,,40.441555838536,50.08555733583
OBA-BINE 27,,,,40.425005097545,50.094232
OBA-BINE 10,,,,40.447412097545,50.082844
OBA-NERIMANOV 23,,,,40.391402792836,49.85811230622
OBA-BINE 34,,,,40.421909270323,50.096112211352
BALAXANI 5,,,,40.478798990359,49.912196756174
OBA-RAMANA 19,,,,40.494222097545,49.982188
OBA-BINE 39,,,,40.436662497212,50.090954830276
OBA-BINE 66,,,,40.444617239108,50.086191161966
OBA-BINE 36,,,,40.424947196904,50.096403989006
OBA-ZABRAT 7,,,,40.491318097545,49.945636
OBA-BINE 42,,,,40.450457261278,50.08237617875
OBA-BINE 45,,,,40.449803738408,50.082940013492
OBA-HOVSAN 14,,,,40.374824097545,50.096325
OBA-HOVSAN 19,,,,40.383828240494,50.100250130306
OBA-ZABRAT 13,,,,40.493070097545,49.944074
OBA-28 MAY 2,,,,40.377855097545,49.856899
OBA-ZABRAT 10,,,,40.493920097545,49.946659
OBA-CHAPAYEV,,,,40.390388,49.853582
OBA-28 MAY 4,,,,40.380330097545,49.855808
OBA-BINE 2,,,,40.439251097545,50.093792
OBA-BINE 26,,,,40.434759097545,50.096684
OBA-CHAPAYEV 3,,,,40.38928156629,49.852608762248
OBA-BINE 21,,,,40.430755097545,50.099046
OBA-BINE 7,,,,40.450400097545,50.087718
OBA-BINE 61,,,,40.426092455519,50.10113633107
OBA-GENCLIK 8,,,,40.403093964774,49.851082422089
OBA-BINE 43,,,,40.437387058853,50.096536883612
OBA-BINE 46,,,,40.423430099933,50.102514701022
OBA-RAMANA 14,,,,40.497172097545,50.002684
OBA-BINE 14,,,,40.424427097545,50.102894
OBA-7 MKR 5,,,,40.427468097545,49.854447
OBA-HOVSAN 12,,,,40.372988097545,50.10145
OBA-BINE 40,,,,40.404600556319,50.107103662398
OBA-GENCLIK 1,,,,40.402925097545,49.848648
OBA-BINE 3,,,,40.421157097545,50.105222
OBA-BINE 41,,,,40.417279014348,50.106468447054
OBA-BINE 29,,,,40.409574097545,50.108075
OBA-7 MKR 9,,,,40.428093515655,49.85252511598
OBA-BINE 28,,,,40.424760097545,50.10504
OBA-BINE 71,,,,40.472293656727,50.070244701753
OBA-7 MKR 6,,,,40.432543097545,49.853415
OBA-RAMANA 35,,,,40.501623282619,49.980667472582
OBA-RAMANA 29,,,,40.501229458893,49.994550074495
OBA-BINE 58,,,,40.445752163316,50.096917728478
OBA-RAMANA 32,,,,40.501861038549,49.991868545442
OBA-7 MKR,,,,40.415503097545,49.846647
OBA-28 MAY 7,,,,40.380922097545,49.848129
OBA-BINE 55,,,,40.432599176435,50.10497037021
OBA-BINE 33,,,,40.450982239851,50.094846383931
OBA-7MKR 10,,,,40.428506097545,49.849378
OBA-BINE 50,,,,40.404429576171,50.11244105701
OBA-BINE 51,,,,40.416712436508,50.111660642334
OBA-GENCLIK 5,,,,40.411180780786,49.843634561813
OBA-7 MKR 2,,,,40.416849097545,49.844374
OBA-BINE 68,,,,40.451598483456,50.096694970008
OBA-BINE 63,,,,40.449336346767,50.098313396349
OBA-BINEQEDI 4,,,,40.423376097545,49.845648
OBA-BINE 24,,,,40.472732097545,50.076995
OBA-BINE 52,,,,40.422665092002,50.111685698782
OBA-7 MKR 7,,,,40.427944097545,49.845809
OBA-28 MAY 6,,,,40.380927097545,49.844109
OBA-8 MKR 3,,,,40.424485744502,49.844347329824
OBA-BINE 48,,,,40.418143952525,50.113767206652
OBA-BINE 75,,,,40.444111,50.104056
OBA-BINE 9,,,,40.419610097545,50.114591
OBA-AZADLIQ,,,,40.397487097545,49.839381
OBA-RAMANA 6,,,,40.507533097545,49.985326
OBA-GENCLIK 7,,,,40.399910898391,49.83878410503
OBA-28 MAY 3,,,,40.385404097545,49.840347
OBA-BINE 74,,,,40.427572718912,50.113682793254
OBA-BINE 8,,,,40.447067097545,50.104589
OBA-BINE 38,,,,40.483871657031,50.066897551566
OBA-7 MKR 8,,,,40.413088097545,49.838181
OBA-8 MKR 2,,,,40.417736919269,49.838674732636
OBA-BINEQEDI 19,,,,40.432207493129,49.842780608237
OBA-BINE 32,,,,40.452967876837,50.10236409207
OBA-NERIMANOV 8,,,,40.408558097545,49.836201
OBA-SAVALAN 6,,,,40.510585104249,49.972584813204
OBA-BINEQEDI,,,,40.436264097545,49.842112
OBA-BINE 13,,,,40.461744097545,50.098163
OBA-NERIMANOV 5,,,,40.399827097545,49.834256
OBA-BINE 6,,,,40.485086097545,50.073056
OBA-SAVALAN 11,,,,40.512222,49.971444
OBA-BINE 70,,,,40.429681923448,50.119343068139
OBA-BINE 59,,,,40.44757396525,50.111055704649
OBA-KUBINKA 1,,,,40.383248097545,49.834141
OBA-XUTOR 4,,,,40.423210319421,49.834391246733
BINE 35,,,,40.426983985655,50.121537421548
BINE 31,,,,40.449378789787,50.111478354729
OBA-XUTOR 5,,,,40.416886246795,49.832086929493
OBA-BINE 30,,,,40.422091097545,50.123243
OBA-BINE 62,,,,40.489399599268,50.070778724588
OBA-BINEQEDI 3,,,,40.435904097545,49.836971
OBA-SAVALAN 9,,,,40.51382860466,49.960624623457
OBA-BINE 60,,,,40.430517398489,50.121738506742
OBA-BINE 65,,,,40.494978485002,50.06207077759
OBA-BAKSOVET 3,,,,40.371084208752,49.834827935581
OBA-NIZAMI 2,,,,40.379117097545,49.831325
OBA-XUTOR 3,,,,40.413025097545,49.828326
OBA-BINE 49,,,,40.413742217621,50.127993477966
OBA-BINE 67,,,,40.409830278838,50.128551955838
OBA-NIZAMI 3,,,,40.377510097545,49.830511
OBA-SAVALAN 4,,,,40.516325097545,49.963184
OBA-NERIMANOV 3,,,,40.408525097545,49.826987
OBA-SAVALAN 7,,,,40.51742152462,49.968117442324
OBA-SAVALAN 8,,,,40.51642873176,49.955013683942
OBA-6 MKR 1,,,,40.419523097545,49.827198
OBA-BINE 56,,,,40.424591694127,50.128051679132
OBA-XUTOR 2,,,,40.412981097545,49.824861
OBA-MEHEMMEDI 3,,,,40.508650097545,49.915133
OBA-BINE 25,,,,40.432033097545,50.127086
OBA-NESIMI 1,,,,40.425096097545,49.826223
OBA-NIZAMI 1,,,,40.380210097545,49.82571
OBA-INQLAB 1,,,,40.397629097545,49.823068
OBA-MEHEMMEDI 2,,,,40.507034097545,49.907621
OBA-DIGAH 2,,,,40.496002568101,49.88380647791
OBA-BAKSOVET,,,,40.367969097545,49.828194
OBA-3 MKR 3,,,,40.409822097545,49.821416
OBA-NESIMI 2,,,,40.424833097545,49.824008
OBA-YENI YASAMAL 5,,,,40.391235097545,49.821488
OBA-INQILAB 4,,,,40.401735097545,49.820563
OBA-4 MKR,,,,40.418032097545,49.821984
OBA-MASTAGA 11,,,,40.514615995492,50.031645880822
OBA-SAVALAN 10,,,,40.52208055652,49.978802666268
OBA-BINEQEDI 9,,,,40.462654097545,49.841585
OBA-BILECERI 8,,,,40.441507097545,49.828488
OBA-MEHDIABAD 5,,,,40.485088097545,49.862853
OBA-3MKR 7,,,,40.410113097545,49.818913
OBA-BAYIL 10,,,,40.348548274409,49.83324478269
OBA-4 MKR 11,,,,40.416984097545,49.818201
OBA-BINEQEDI 2,,,,40.467407097545,49.841961
OBA-3 MKR 4,,,,40.407677097545,49.817075
OBA-DIGAH 1,,,,40.492938097545,49.870169
OBA-BAYIL 3,,,,40.343822097545,49.835691
OBA-BAYIL,,,,40.341218097545,49.837201
OBA-MEHEMMEDI 6,,,,40.523298186269,49.949895244771
OBA-4 MKR 5,,,,40.419628097545,49.817297
OBA-3MKR 5,,,,40.409889097545,49.815924
OBA-ELMLER 2,,,,40.376016097545,49.818765
OBA-9 MKR 6,,,,40.421506387339,49.817122349072
OBA-ELMLER 3,,,,40.368132097545,49.820803
OBA-ECEMI 2,,,,40.41333158666,49.815270464779
OBA-MASHTAGA 18,,,,40.524559918403,50.007702606387
OBA-BAYIL 8,,,,40.340064615028,49.834665732505
OBA-9 MKR 1,,,,40.422993097545,49.815733
OBA-4MKR 8,,,,40.412135097545,49.813824
OBA-4 MKR 2,,,,40.415240097545,49.814162
OBA-ELMLER 4,,,,40.384602097545,49.81469
OBA-ELMLER 5,,,,40.365054097545,49.820213
OBA-BILECERI 12,,,,40.444074441282,49.822462104563
OBA-ELMLER 8,,,,40.370694947754,49.817886633618
OBA-ECEMI 1,,,,40.408525097545,49.812918
OBA-4 MKR 12,,,,40.415949,49.813225
OBA-MASHTAGA 15,,,,40.521901147126,50.0293889
OBA-9 MKR 7,,,,40.425324549767,49.81451655003
OBA-BAYIL 4,,,,40.340628097545,49.831905
OBA-BINEQEDI 18,,,,40.475603346952,49.84167195173
OBA-MASHTAGA 7,,,,40.526025097545,50.015126
OBA-MEHDIABAD 10,,,,40.48861214671,49.855164788361
OBA-YENI BILECERI,,,,40.433410097545,49.815344
OBA-4 MKR 9,,,,40.413085097545,49.809925
OBA-4 MKR 10,,,,40.417395097545,49.810478
OBA-MEHDIABAD 7,,,,40.490926496225,49.855813608828
OBA-5 MKR 3,,,,40.407983184687,49.808739282421
OBA-QALA,,,,40.461552097545,50.128615
OBA-BINEQEDI 16,,,,40.463759097545,49.829234
OBA-QALA 6,,,,40.468296733865,50.123932013099
OBA-5 MKR 2,,,,40.410486097545,49.808232
OBA-BINEQEDI 12,,,,40.464348097545,49.828864
OBA-BILECERI 6,,,,40.431103097545,49.811996
OBA-MASTAGA 2,,,,40.530279097545,50.001848
OBA-BILECERI 9,,,,40.437200097545,49.813947
OBA-BADAMDAR 5,,,,40.354839097545,49.818477
OBA-MASHTAGA 23,,,,40.531837,49.991328
OBA-BINEQEDI 23,,,,40.470370633606,49.831771955818
OBA-QALA 2,,,,40.471563097545,50.124275
OBA-ELMLER 1,,,,40.380823097545,49.807614
OBA-MASTAGA 5,,,,40.531708097545,50.005685
OBA-YENI YASAMAL 4,,,,40.387515097545,49.805647
OBA-9 MKR 4,,,,40.414817097545,49.805156
OBA-MASTAGA,,,,40.532670097545,50.004725
OBA-MASTAGA 14,,,,40.533499664901,49.997938093918
OBA-20 YANVAR,,,,40.411790097545,49.803964
OBA-YYASAMAL 25,,,,40.389126097545,49.804217
OBA-BINEQEDI 21,,,,40.475973204776,49.832743723164
OBA-BILECERI 3,,,,40.439538097545,49.810202
OBA-YENI YASAMAL 16,,,,40.393115097545,49.80337
OBA-BINEQEDI 13,,,,40.476594097545,49.83316
OBA-MASHTAGA 19,,,,40.53365770622,50.004083299998
OBA-YENI YASAMAL 17,,,,40.379070097545,49.805319
OBA-ALATAVA 1,,,,40.405328097545,49.802805
OBA-YENI YASAMAL 9,,,,40.381296097545,49.804719
OBA-MASHTAGA 16,,,,40.532576081972,50.013644655819
OBA-YENI YASAMAL,,,,40.387441097545,49.803472
OBA-MEHDIABAD 4,,,,40.496499097545,49.854204
MASTAGA 12,,,,40.530690595062,50.024960788602
OBA-YENI YASAMAL 30,,,,40.377305832909,49.804976751452
OBA-BINEQEDI G.S.,,,,40.482280097545,49.837396
OBA-YYASAMAL 20,,,,40.388952097545,49.802749
OBA-YENI YASAMAL 34,,,,40.374080283089,49.805497493462
OBA-YENI YASAMAL 29,,,,40.378665050232,49.804336829365
OBA-YENI YASAMAL 35,,,,40.374465635247,49.80508241124
OBA-YYASAMAL 24,,,,40.372542097545,49.80552
OBA-BILECERI 13,,,,40.440249997524,49.808654764717
OBA-MASHTAGA 13,,,,40.527234912798,50.042263262074
OBA-YENI YASAMAL 12,,,,40.395236097545,49.801347
OBA-BILECERI,,,,40.442795097545,49.809524
OBA-MASTAGA 10,,,,40.536283097545,49.989964
OBA-YASAMAL 43,,,,40.379361,49.803139
OBA-20 YANVAR 2,,,,40.412850644311,49.800995300052
OBA-YENI YASAMAL 19,,,,40.386661097545,49.801484
OBA-YENI YASAMAL 27,,,,40.391878955916,49.800774453755
OBA-SHAGAN 6,,,,40.477921408095,50.125221209372
OBA-YENI YASAMAL 38,,,,40.381793341056,49.802138899998
OBA-MEHDIABAD 1,,,,40.500407097545,49.856036
OBA-BINEQEDI 17,,,,40.471172978401,49.825079004981
OBA-BILECERI 4,,,,40.431852097545,49.804124
OBA-ALATAVA 3,,,,40.406012077209,49.799417846551
OBA-BUZOVNA 3,,,,40.489003097545,50.115404
OBA-TURKAN 5,,,,40.369597324556,50.152064984017
OBA-YENI YASAMAL 39,,,,40.394370977875,49.799023988361
OBA-ALATAVA 2,,,,40.404426052123,49.798633855874
OBA-BUZOVNA 4,,,,40.518019097545,50.072847
OBA-BINEQEDI 24,,,,40.465949404382,49.819215568741
OBA-BINEQEDI 25,,,,40.462468888581,49.816704495688
OBA-BAYIL 2,,,,40.335477097545,49.820343
OBA-BILECERI 5,,,,40.424864097545,49.800506
OBA-YENI YASAMAL 18,,,,40.400187097545,49.797292
OBA-YYASAMAL 26,,,,40.399262097545,49.797072
OBA-MEHDIABAD 8,,,,40.498306185964,49.848536658142
OBA-AVTOVAGZAL,,,,40.422075097545,49.79872
OBA-BILECERI 22,,,,40.441685455902,49.804371828834
OBA-BUZOVNA 17,,,,40.502574386672,50.102331370913
OBA-BUZOVNA 15,,,,40.492223655316,50.11545431853
OBA-BINEQEDI 6,,,,40.474128097545,49.823349
OBA-BUZOVNA 7,,,,40.496849097545,50.110325
OBA-YENI YASAMAL 7,,,,40.393940097545,49.795627
OBA-BINEQEDI 14,,,,40.472733097545,49.820933
OBA-BILECERI 19,,,,40.445242094056,49.804453837113
OBA-SHAGAN 5,,,,40.483283465459,50.126387785783
OBA-BILECERI 2,,,,40.437456097545,49.801347
OBA-YENI YASAMAL 40,,,,40.390417242363,49.795522373887
OBA-MASTAGA 17,,,,40.532657537111,50.042504291564
OBA-BAYIL 6,,,,40.326487097545,49.823162
OBA-NARDARAN 4,,,,40.541702080687,49.984351268461
OBA-YYASAMAL 23,,,,40.390078097545,49.794326
OBA-BAYIL 7,,,,40.329810658208,49.819628133395
OBA-BILECERI 18,,,,40.451141203689,49.80494341021
OBA-MERDEKAN 12,,,,40.468700738514,50.141337786508
OBA-YENI YASAMAL 3,,,,40.399925097545,49.792627
OBA-BUZOVNA 13,,,,40.503111801715,50.107749080309
OBA-YENI YASAMAL 2,,,,40.394305097545,49.792344
OBA-BILECERI 14,,,,40.439478491319,49.798609294281
OBA-ALBALILIQ 4,,,,40.526333,50.068472
OBA-YENI YASAMAL 42,,,,40.392205057502,49.791444399998
OBA-QALA 5,,,,40.451928341548,50.153566205271
OBA-BILECERI 11,,,,40.447286097545,49.798599
OBA-YENI YASAMAL 28,,,,40.386878197853,49.78968770167
OBA-BADAMDAR 2,,,,40.340111097545,49.806685
OBA-BAYIL 5,,,,40.323695097545,49.818448
OBA-BILECERI 15,,,,40.44652041193,49.797189035582
OBA-BUZOVNA 8,,,,40.507797097545,50.107917
OBA-SHAGAN 1,,,,40.489924097545,50.129379
OBA-YENI YASAMAL 31,,,,40.390512257358,49.788054622019
BADAMDAR 6,,,,40.338182141328,49.805704216643
OBA-YENI YASAMAL 21,,,,40.388384097545,49.787374
OBA-BADAMDAR 7,,,,40.338025974277,49.805692717609
OBA-YYASAMAL 22,,,,40.389485097545,49.787166
OBA-BILECERI 17,,,,40.439650383719,49.79288473605
OBA-BADAMDAR 8,,,,40.336263670252,49.805534710958
OBA-KURDEXANI 4,,,,40.541871663239,49.921096072485
OBA-MERDEKAN 4,,,,40.476018097545,50.144573
OBA-SHAGAN 3,,,,40.493712097545,50.128611
OBA-BUZOVNA 9,,,,40.518746097545,50.094817
OBA-MERDEKAN 11,,,,40.487516097545,50.137451
OBA-BUZOVNA 11,,,,40.516683097545,50.101774
OBA-MERDEKAN 2,,,,40.487800097545,50.138157
OBA-PIRSAGI 4,,,,40.528201097545,49.874179
OBA-NARDARAN 2,,,,40.550954097545,49.99469
OBA-BUZOVNA,,,,40.519147097545,50.102565
OBA-SHAGAN 7,,,,40.497888885198,50.131526881517
OBA-KURDEXANI 2,,,,40.545770097545,49.916935
OBA-QALA 4,,,,40.446659097545,50.168626
OBA-BILECERI 16,,,,40.443268384541,49.785358415905
OBA-SHAGAN 4,,,,40.496820097545,50.134898
OBA-BINEQEDI 26,,,,40.456082617824,49.790111908596
OBA-BUZOVNA 16,,,,40.525031,50.097809
OBA-XOCASEN 2,,,,40.425224126516,49.778346133819
OBA-BINEQEDI 20,,,,40.448862109588,49.785268404306
OBA-BUZOVNA 5,,,,40.515912097545,50.114505
OBA-MERDEKAN 9,,,,40.487041097545,50.147748
OBA-SHUVELAN 10,,,,40.473540679994,50.159024721521
OBA-BUZOVNA 2,,,,40.527594097545,50.097671
OBA-MERDEKAN 13,,,,40.493547095626,50.142946757731
OBA-BUZOVNA 12,,,,40.52094717765,50.110048724425
OBA-BUZOVNA 14,,,,40.533826386101,50.087710414969
OBA-QALA 7,,,,40.443583053154,50.176324298265
OBA-SULUTEPE 4,,,,40.431247097545,49.775143
OBA-NARDARAN 1,,,,40.557623097545,50.00796
OBA-MERDEKAN 8,,,,40.481854097545,50.157116
OBA-BUZOVNA 6,,,,40.510381097545,50.128945
OBA-XOCASEN 1,,,,40.416169292657,49.771375475809
OBA-KURDEXANI 3,,,,40.553793097545,49.918413
OBA-BINEQEDI 15,,,,40.449114097545,49.777835
OBA-MERDEKAN,,,,40.485943097545,50.15665
OBA-MERDEKAN 10,,,,40.484619097545,50.158054
OBA-SULUTEPE 8,,,,40.433386364588,49.771862073644
OBA-BILGEH 4,,,,40.558001532247,50.024935598963
OBA-BILGEH 3,,,,40.557932097545,50.028401
OBA-SULUTEPE 5,,,,40.425455097545,49.768645
OBA-SULUTEPE 2,,,,40.413393097545,49.766554
OBA-FATMAYI 2,,,,40.529252097545,49.846628
OBA-MASAZIR 20,,,,40.463471537539,49.78016382732
OBA-MERDEKAN 5,,,,40.484695097545,50.165514
OBA-BILECERI 21,,,,40.447272840918,49.769703273017
OBA-MASAZIR 16,,,,40.458981925282,49.7746285945
OBA-MERDEKAN 6,,,,40.501017097545,50.151674
OBA-SHUVELAN 6,,,,40.482663097545,50.167758
OBA-SHUVELAN 9,,,,40.476504874063,50.172610238504
OBA-SULUTEPE 7,,,,40.415145379168,49.759359557776
OBA-XIRDALAN 33,,,,40.441060854948,49.764210517211
OBA-MERDEKAN 7,,,,40.492396097545,50.164535
OBA-BILGEH,,,,40.563437097545,50.039382
OBA-SHUVELAN 7,,,,40.485834097545,50.170703
OBA-SULUTEPE 9,,,,40.431943492862,49.758998965084
OBA-MASAZIR 11,,,,40.452381834819,49.765028744539
OBA-XIRDALAN 16,,,,40.441132097545,49.759915
OBA-TURKAN 3,,,,40.367692097545,50.199285
PIRSAGI 5,,,,40.558456366404,49.88423985133
OBA-PIRSAGI 2,,,,40.560594097545,49.890317
OBA-MASAZIR 14,,,,40.462110969182,49.765863055705
OBA-SHUVELAN 4,,,,40.475612097545,50.18381
OBA-SHUVELAN 2,,,,40.485026097545,50.177794
OBA-MASAZIR 19,,,,40.475881123162,49.771002452174
OBA-MASAZIR 9,,,,40.460045097545,49.762421
OBA-MASAZIR 10,,,,40.468119097545,49.765999
OBA-SULUTEPE 1,,,,40.437776097545,49.75361
OBA-XIRDALAN 36,,,,40.447459075954,49.756258773017
OBA-BILGEH 2,,,,40.571964097545,50.039265
OBA-XIRDALAN 37,,,,40.451127320194,49.754104757672
OBA-MASAZIR 12,,,,40.47907,49.768037
OBA-XIRDALAN 5,,,,40.446375097545,49.751326
OBA-XASAXUNA 5,,,,40.427699989847,50.210144415345
OBA-MASAZIR 18,,,,40.483559329906,49.768692846287
OBA-XIRDALAN 27,,,,40.448631516969,49.750794868177
OBA-GORADIL 1,,,,40.544369252873,49.835100371164
OBA-MASAZIR 5,,,,40.485487097545,49.769425
OBA-XIRDALAN 31,,,,40.457332507537,49.753724401614
OBA-XIRDALAN 25,,,,40.449450697563,49.75015396453
OBA-HOKMELI 5,,,,40.421067602496,49.741542065852
OBA-HOKMELI 7,,,,40.441712469581,49.745215776565
OBA-XASAXUNA 3,,,,40.439973279357,50.211767799058
OBA-TURKAN 6,,,,40.359627681879,50.210659697912
OBA-XIRDALAN 2,,,,40.456726097545,49.750055
OBA-QOBUPARK,,,,40.346950212052,49.748881668302
OBA-TURKAN 2,,,,40.365745097545,50.214058
OBA-MASAZIR 22,,,,40.481589524883,49.761569878576
OBA-XIRDALAN 40,,,,40.455509965074,49.747096610508
OBA-HOKMELI 4,,,,40.440076930077,49.741278083138
OBA-XIRDALAN 24,,,,40.449874097545,49.74389
OBA-MASAZIR 8,,,,40.480034097545,49.75762
OBA-XIRDALAN 8,,,,40.461945097545,49.748021
OBA-TURKAN 4,,,,40.362641097545,50.216308
OBA-XIRDALAN 6,,,,40.455482097545,49.743815
OBA-MASAZIR 3,,,,40.476199097545,49.752736
OBA.MASAZIR 13,,,,40.484923,49.758009
OBA-XIRDALAN 18,,,,40.454550097545,49.740328
OBA-MASAZIR 21,,,,40.478884481357,49.750237941759
OBA-XIRDALAN 20,,,,40.454956182015,49.738666040188
OBA-TURKAN 1,,,,40.365154097545,50.223009
OBA-XIRDALAN,,,,40.457259097545,49.739339
OBA-LOKBATAN 6,,,,40.331125097545,49.745696
OBA-XIRDALAN 19,,,,40.460910097545,49.739407
OBA-MASAZIR,,,,40.490714097545,49.755529
OBA-MASAZIR 24,,,,40.47575,49.746167
OBA-ABSHERON GS 3,,,,40.470880549534,49.743046442328
OBA-XIRDALAN 3,,,,40.456174097545,49.736468
OBA-LOKBATAN 8,,,,40.32744328942,49.74569334487
OBA-QRECH,,,,40.495921097545,50.198186
OBA-NOVXANI 3,,,,40.524420097545,49.783265
OBA-XIRDALAN 14,,,,40.457713097545,49.735727
OBA-ABSHERON GS,,,,40.470773097545,49.740451
OBA-MASAZIR 15,,,,40.490697737513,49.75210698125
OBA-MASAZIR 7,,,,40.494124097545,49.754374
OBA-MASAZIR 23,,,,40.489139,49.749861
OBA-XIRDALAN 23,,,,40.456070792668,49.732221925896
OBA-XIRDALAN 22,,,,40.454399097545,49.731467
OBA-LOKBATAN,,,,40.325910097545,49.74209
OBA-TURKAN 7,,,,40.365269245968,50.229938267347
OBA-SHUVELAN 3,,,,40.493404097545,50.205269
OBA-XIRDALAN 29,,,,40.463663972504,49.734296391551
OBA-XIRDALAN 34,,,,40.458827482761,49.732027189944
OBA-ABSHERON GS 2,,,,40.473622737377,49.738746334439
OBA-MASAZIR 2,,,,40.491618097545,49.74879
OBA-XIRDALAN 10,,,,40.451461097545,49.728203
OBA-ZIRE 5,,,,40.423372097545,50.235707
OBA-MASAZIR 4,,,,40.492605097545,49.747374
OBA-NOVXANI 4,,,,40.528592097545,49.778459
OBA-HOKMELI,,,,40.433892097545,49.720978
OBA-QOBU 2,,,,40.391378441593,49.716950980305
OBA-XIRDALAN 26,,,,40.460548079988,49.727688157671
OBA-LOKBATAN 11,,,,40.309860265279,49.744472199997
OBA-XIRDALAN 28,,,,40.456489709489,49.724900036681
OBA-XIRDALAN 39,,,,40.458917,49.725806
OBA-SHUVELAN 8,,,,40.492351232848,50.21305998651
OBA-NOVXANI,,,,40.533829097545,49.779923
OBA-HOKMELI 3,,,,40.433218928131,49.717361100003
OBA-XIRDALAN 41,,,,40.46529310648,49.72759547658
OBA-XIRDALAN 35,,,,40.448932925259,49.72138255767
OBA-QOBU 3,,,,40.396297001971,49.713629633121
OBA-LOKBATAN 2,,,,40.322255097545,49.734829
OBA-XIRDALAN 7,,,,40.459031097545,49.723927
OBA-XIRDALAN 12,,,,40.463278097545,49.724952
OBA-XIRDALAN 21,,,,40.463591097545,49.724338
OBA-XIRDALAN 30,,,,40.458452924446,49.722152544265
OBA-MASAZIR 17,,,,40.493006628754,49.739748056908
OBA-XIRDALAN 13,,,,40.461197097545,49.721627
OBA-HOKMELI 6,,,,40.431240483352,49.712542853218
OBA-LOKBATAN 9,,,,40.328572784983,49.727044871149
OBA-QOBU,,,,40.404895097545,49.708652
OBA-LOKBATAN 7,,,,40.321894429943,49.729890221071
OBA-XIRDALAN 9,,,,40.457496097545,49.717444
OBA-LOKBATAN 5,,,,40.324940097545,49.726655
OBA-NOVXANI 2,,,,40.548519097545,49.781971
OBA-NUBAR 2,,,,40.442700521261,49.706800237916
OBA-LOKBATAN 3,,,,40.327206097545,49.718756
OBA-QOBU 4,,,,40.415588106123,49.701286878958
OBA-ATYALI 2,,,,40.445682932936,49.698100371138
OBA-NOVXANI 5,,,,40.530618263632,49.745723836193
OBA-ATYALI 1,,,,40.443994953876,49.68675291259
OBA-GUZDEK 3,,,,40.370279048053,49.67877181801
OBA-SARAY 14,,,,40.529594060942,49.720194848713
OBA-SARAY 9,,,,40.533667097545,49.723447
OBA-ZIRE 6,,,,40.387909091557,50.290107819912
OBA-SARAY 7,,,,40.537179097545,49.720581
OBA-ZIRE 4,,,,40.364377085065,50.287847226635
OBA-SARAY 6,,,,40.529040097545,49.710552
OBA-ZIRE,,,,40.372329097545,50.291929
OBA-SARAY 17,,,,40.53269349724,49.711444702144
OBA-SARAY 12,,,,40.524179257375,49.704069403706
OBA-SARAY 8,,,,40.534919097545,49.711839
OBA-ZIRE 2,,,,40.365330097545,50.294628
OBA-SARAY 20,,,,40.52149233549,49.697637922089
OBA-SARAY 5,,,,40.539274097545,49.711414
OBA-SARAY 10,,,,40.520883981123,49.696478153249
OBA-SARAY 13,,,,40.54708549427,49.713291763748
OBA-SARAY,,,,40.544689097545,49.710056
OBA-SARAY 11,,,,40.525936947378,49.693201469076
OBA-SARAY 15,,,,40.549241114752,49.712639877913
OBA-GUZDEK 1,,,,40.481531097545,49.665313
OBA-GUZDEK 2,,,,40.482856387955,49.66485296631
OBA-SUMQAYIT 56,,,,40.558656158236,49.715290560337
OBA-SARAY 16,,,,40.546111025467,49.700366497047
OBA-MUSFIQABAD 2,,,,40.462310097545,49.647709
OBA-SUMQAYIT 21,,,,40.557915097545,49.705422
OBA-SUMQAYIT 54,,,,40.562538960019,49.706799257672
OBA-MUSHFIQABAD 9,,,,40.463197578523,49.643910357672
OBA-PUTA 3,,,,40.299676031682,49.661667823692
OBA-SUMQAYIT 36,,,,40.565926667073,49.707491724482
OBA-SUMQAYIT 33,,,,40.552482097545,49.694121
OBA-YENI YASAMAL 41,,,,40.458697462514,49.639837786508
OBA-PUTA 2,,,,40.295919097545,49.660369
OBA-SUMQAYIT 28,,,,40.558100097545,49.696884
OBA-MUSHFIQABAD 13,,,,40.46194352902,49.637172701104
OBA-SUMQAYIT 39,,,,40.561427862158,49.693856713437
OBA-SUMQAYIT 8,,,,40.569534097545,49.699702
OBA-CEYRANBATAN 1,,,,40.546690097545,49.676206
OBA-ARTYOM 4,,,,40.470751097545,50.323434
OBA-CORAT 2,,,,40.574194,49.700444
OBA-MUSHFIGABAD 10,,,,40.469707579266,49.630992239758
OBA-ULD_MUSFIQABAD,,,,40.465428097545,49.629473
OBA-SUMQAYIT 1,,,,40.568267097545,49.69389
OBA-ARTYOM 5,,,,40.468140097545,50.326281
OBA-CEYRANBATAN 3,,,,40.539934668832,49.668500833186
OBA-SUMQAYIT 10,,,,40.561912097545,49.685416
OBA-GURGAN 1,,,,40.395512097545,50.338476
OBA-ARTYOM 7,,,,40.456050490027,50.334848545306
OBA-MUSHFIQABAD 14,,,,40.467081681536,49.623878231571
OBA-SUMQAYIT 27,,,,40.575929097545,49.693544
OBA-ARTYOM,,,,40.453256097545,50.337169
OBA-MUSFIQABAD 4,,,,40.467590097545,49.622716
OBA-ARTYOM 6,,,,40.450063328615,50.338649542366
OBA-MUSHFIQABAD 11,,,,40.466479273365,49.618909160646
OBA-SUMQAYIT 44,,,,40.576834825538,49.689264261463
OBA-SUMQAYIT 43,,,,40.573939193649,49.683153261079
OBA-SUMQAYIT 11,,,,40.578553097545,49.686727
OBA-CEYRANBATAN 4,,,,40.548528,49.658556
OBA-SUMQAYIT 15,,,,40.577145097545,49.683962
OBA-SUMQAYIT 2,,,,40.569691097545,49.67423
OBA-MUSFIQABAD 5,,,,40.472515097545,49.613878
OBA-SUMQAYIT 46,,,,40.581381538859,49.682596191607
OBA-SUMQAYIT 9,,,,40.580626097545,49.680018
OBA-SUMQAYIT 40,,,,40.566403713211,49.665718091048
OBA-SUMQAYIT 45,,,,40.582184390151,49.680706572309
OBA-CEYRANBATAN 2,,,,40.547707097545,49.648956
OBA-SUMQAYIT 41,,,,40.578421635026,49.674748804169
OBA-SUMQAYIT 3,,,,40.583697097545,49.678306
OBA-SUMQAYIT 38,,,,40.586818372511,49.679821151879
OBA-SUMQAYIT 25,,,,40.577024097545,49.668526
OBA-SUMQAYIT 18,,,,40.585668097545,49.670445
SUMQAYIT 37,,,,40.59124604923,49.67572332665
OBA-SUMQAYIT 26,,,,40.589485097545,49.671053
OBA-SUMQAYIT 24,,,,40.587721097545,49.666524
OBA-SUMQAYIT 22,,,,40.592359097545,49.67075
OBA-QIZILDASH 1,,,,40.305875982125,49.596277799996
OBA-SUMQAYIT 12,,,,40.594655097545,49.664469
OBA-SUMQAYIT 16,,,,40.603389097545,49.664709
OBA-SUMQAYIT 57,,,,40.566444,49.628028
OBA-SUMQAYIT 48,,,,40.606968551068,49.666183221716
OBA-SUMQAYIT 47,,,,40.605785391396,49.654479317501
OBA-SUMQAYIT 29,,,,40.606031097545,49.652348
OBA-SUMQAYIT 20,,,,40.607262097545,49.641805
OBA-SUMQAYIT 42,,,,40.558315964042,49.585911047969
OBA-SAHIL 5,,,,40.229372097545,49.581843
OBA-SAHIL 2,,,,40.224585097545,49.577367
OBA-SAHIL 6,,,,40.22368678379,49.576698644144
OBA-SAHIL 9,,,,40.226042697996,49.574422942328
OBA-SAHIL 8,,,,40.224942141287,49.572112447891
OBA-SAHIL 7,,,,40.219751524619,49.569700672257
OBA-NASOSNU 3,,,,40.61714161823,49.575879226217
OBA-NASOSNU 4,,,,40.619513840294,49.576243662673
OBA-MUSHFIQABAD 12,,,,40.494365176671,49.49724195891
OBA-NASOSNU 1,,,,40.620863097545,49.565053
OBA-NASOSNU 6,,,,40.624409958753,49.566138899891
OBA-NASOSNU 5,,,,40.620702392222,49.559470155353
OBA-QARADAG 1,,,,40.199570097545,49.508811
OBA-SANQACAL 1,,,,40.166745097545,49.461456
OBA-SANQACAL 2,,,,40.164406855336,49.462374855522
OBA-QOBUSTAN 4,,,,40.083890856191,49.412637079908
OBA-QOBUSTAN 1,,,,40.081529097545,49.412919
OBA-QOBUSTAN 3,,,,40.078651544118,49.412673465847
OBA-QOBUSTAN 2,,,,40.079700097545,49.406239
OBA-ELET 8,,,,39.973555008596,49.407650194791
OBA-ELET 5,,,,39.969537248386,49.406713245214
OBA-ELET 6,,,,39.956374962674,49.412065008633
OBA-ELET 9,,,,39.956612,49.408707
OBA-ELET 3,,,,39.954761097545,49.408876
OBA-ELET 7,,,,39.950298361864,49.410006342329
OBA-ELET 2,,,,39.947765097545,49.401872
OBA-XIZI 1,,,,40.868833,49.340833
OBA-SALYAN 19,,,,39.843848686209,49.324525540428
OBA-HACIQABUL 3,,,,40.09,49.071015
OBA-HACIQABUL 13,,,,40.031121912807,49.096468888278
OBA-MEREZE 2,,,,40.519856097545,48.938759
OBA-MEREZE 3,,,,40.527560097545,48.937543
OBA-MEREZE 1,,,,40.533112097545,48.926915
OBA-HACIQABUL 9,,,,40.261396423785,48.877046330243
OBA-HACIQABUL 12,,,,40.042780363289,48.940558665412
OBA-HACIQABUL 1,,,,40.044448,48.935333
OBA-HACIQABUL 7,,,,40.04008815802,48.937697957773
OBA-HACIQABUL 11,,,,40.042996411024,48.935190467434
OBA-HACIQABUL 10,,,,40.033283233676,48.940827633508
OBA-HACIQABUL 2,,,,40.032639,48.93512
OBA-HACIQABUL 5,,,,40.04071,48.929465
OBA-SIRVAN 24,,,,39.95774792617,48.970657718902
OBA-SHIRVAN 33,,,,39.953640498549,48.961046736104
OBA-SHIRVAN 15,,,,39.949011,48.962489
OBA-SHIRVAN 14,,,,39.963725129811,48.949284324543
OBA-SHIRVAN 3,,,,39.959229,48.95064
OBA-SHIRVAN 11,,,,39.9621,48.94729
OBA-SHIRVAN 19,,,,39.961488045741,48.947526287274
OBA-SHIRVAN 25,,,,39.94909152489,48.956256342329
OBA-SHIRVAN 9,,,,39.956033,48.949692
OBA-SHIRVAN 23,,,,39.965697246097,48.941317215172
OBA-SHIRVAN,,,,39.96136,48.94406
OBA-SHIRVAN 16,,,,39.952901319052,48.94978342887
OBA-SHIRVAN 17,,,,39.963691,48.941125
OBA-SHIRVAN 7,,,,39.957973,48.943685
OBA-SHIRVAN 27,,,,39.96050282723,48.940173724782
OBA-SHIRVAN 20,,,,39.955337801806,48.943242630165
OBA-SHIRVAN 2,,,,39.956506,48.940557
SIRVAN 21,,,,39.954293818415,48.941059141231
OBA-SHIRVAN 6,,,,39.95305,48.94137
OBA-SHIRVAN 26,,,,39.959240321804,48.936217276357
SHIRVAN 22,,,,39.947553984101,48.932448038971
OBA-SHIRVAN 10,,,,39.93558,48.927974
SIYEZEN 7,,,,41.076498032783,49.133840459143
OBA-SIYEZEN 1,,,,41.068121,49.118723
OBA-HACIQABUL 8,,,,40.097287700356,48.82101874688
OBA-SHIRVAN 29,,,,39.9360327444,48.918028554761
OBA-SIYEZEN 8,,,,41.072291699432,49.117435704466
OBA-SHIRVAN 28,,,,39.927426062926,48.921336790576
OBA-SIYEZEN 4,,,,41.082569,49.128756
OBA-SHIRVAN 13,,,,39.93647,48.91357
OBA-SHIRVAN 18,,,,39.934006828358,48.914124619369
OBA-SIYEZEN 9,,,,41.076699732204,49.112271616523
OBA-SHIRVAN 34,,,,39.935440955172,48.907694196081
OBA-SIYEZEN 2,,,,41.076188,49.110817
OBA-SHIRVAN 31,,,,39.945242870023,48.899716586263
OBA-SIYEZEN 5,,,,41.083464442572,49.104842857621
OBA-SABIRABAD 14,,,,39.923151268211,48.874513463732
OBA.SALYAN 16,,,,39.815627713883,48.954957732119
OBA-SALYAN 21,,,,39.750858283809,49.021884384245
OBA-SALYAN 35,,,,39.706009328478,49.073819523182
OBA-SHAMAXI 16,,,,40.584889,48.705778
OBA-SALYAN 31,,,,39.796373648448,48.96040782699
OBA-SAMAXI 2,,,,40.492407097545,48.680211
OBA-SALYAN 23,,,,39.767647416772,48.978826006851
SAMAXI 10,,,,40.495804725025,48.678016637987
OBA-SHAMAXI 14,,,,40.541260078429,48.679636862544
OBA-SALYAN 14,,,,39.780838,48.935616
OBA-SAMAXI 9,,,,40.634150097545,48.643218
OBA-SHAMAXI 11,,,,40.609721614154,48.636117120843
OBA-SAMAXI 3,,,,40.637675097545,48.643264
OBA-SHAMAXI 15,,,,40.628921248017,48.640204630169
OBA-SAMAXI 6,,,,40.635991097545,48.638678
OBA-SAMAXI 1,,,,40.639345097545,48.638266
OBA-SABIRABAD 8,,,,39.919703,48.762753
OBA-SAMAXI 4,,,,40.631179097545,48.634668
OBA-SHAMAXI  13,,,,40.651838660754,48.64012713886
OBA-SAMAXI 5,,,,40.638884097545,48.631784
OBA-SAMAXI 7,,,,40.644633097545,48.632727
OBA-SABIRABAD 19,,,,39.938593358873,48.731938879273
OBA-SABIRABAD 26,,,,40.043264157266,48.662856684493
OBA-SABIRABAD 11,,,,39.943139,48.710552
OBA-SALYAN 25,,,,39.642050110394,48.971102166497
OBA-SHABRAN 4,,,,41.194832,48.991282
OBA-SABIRABAD 23,,,,40.102009930929,48.595050905194
OBA-SHABRAN 11,,,,41.201869949888,48.985993228198
OBA-SHABRAN 10,,,,41.215675726071,49.003159237604
OBA-SHABRAN 3,,,,41.20232,48.981049
OBA-SHABRAN 6,,,,41.202109,48.98029
OBA-SHABRAN 9,,,,41.219965691221,49.002518540212
OBA-SHABRAN 5,,,,41.207871,48.982651
OBA-SHABRAN 1,,,,41.211655,48.986771
OBA-SALYAN 15,,,,39.597711036631,48.984578612951
OBA-SALYAN 36,,,,39.595502471947,48.983791941211
OBA-SABIRABAD 17,,,,40.058732340845,48.596565387295
OBA-SALYAN 28,,,,39.593755485431,48.984050633426
OBA-SALYAN 22,,,,39.593362392634,48.980581809455
OBA-NEFTCHALA 13,,,,39.57123259724,49.006976741989
OBA-SALYAN 24,,,,39.60277814741,48.962470372346
OBA-SALYAN 10,,,,39.589811,48.97996
OBA-SABIRABAD 37,,,,39.960699323044,48.636930130153
OBA-SABIRABAD 38,,,,40.104308188817,48.56913532405
OBA-SALYAN 26,,,,39.59295320303,48.971713254116
OBA-SALYAN 1,,,,39.59405,48.970019
OBA-SALYAN 29,,,,39.5901111,48.975211471164
OBA-SALYAN 6,,,,39.591435,48.97097
OBA-SALYAN 2,,,,39.587815,48.975772
OBA-SALYAN 27,,,,39.584395717296,48.97991298976
OBA-SALYAN 3,,,,39.578568,48.98164
OBA-SALYAN 12,,,,39.581469,48.970261
OBA-SALYAN 7,,,,39.576546,48.975722
OBA-SALYAN 18,,,,39.574458048813,48.97220074231
OBA-SAATLI 9,,,,39.908126078207,48.64654759397
OBA-NEFTCHALA 11,,,,39.411422898016,49.249848876089
OBA-SALYAN 20,,,,39.576902447346,48.948173920211
OBA-SALYAN 9,,,,39.56407,48.96087
OBA-NEFTCHALA 15,,,,39.408620484652,49.235304459009
OBA-NEFTCALA 10,,,,39.396084,49.241495
OBA-NEFTCHALA 17,,,,39.385162923042,49.247104757672
OBA-NEFTCALA 1,,,,39.385695,49.242911
OBA-NEFTCALA 2,,,,39.38058,49.246787
OBA-NEFTCHALA 18,,,,39.37940562654,49.247251272496
OBA-NEFTCALA 3,,,,39.376317,49.247875
OBA-NEFTCALA 5,,,,39.37662,49.243564
OBA-SABIRABAD 16,,,,40.014616807665,48.519778138105
OBA-NEFTCHALA 12,,,,39.465439297919,49.036939830271
OBA-SHABRAN 2,,,,41.259565,48.902591
OBA-NEFTCHALA 6,,,,39.482072,49.00195
OBA-NEFTCALA 8,,,,39.423914,49.100384
OBA-NEFTCHALA 16,,,,39.352066391136,49.247969982911
OBA-SABIRABAD 3,,,,40.049519041347,48.479468619021
SABIRABAD 18,,,,40.004351610679,48.4889722
OBA-AGSU 1,,,,40.5561,48.406205
OBA-AGSU 8,,,,40.558838596203,48.403216895244
OBA-SABIRABAD 30,,,,40.008890561848,48.481688938226
OBA-SABIRABAD 31,,,,40.017008337747,48.475572702171
OBA-NEFTCALA 4,,,,39.438929,49.019966
OBA-AGSU 6,,,,40.574980952609,48.401609008577
OBA-SABIRABAD 24,,,,40.013975828004,48.47241944185
OBA-SABIRABAD 32,,,,40.006602957451,48.47566153527
OBA-NEFTCHALA 7,,,,39.336579,49.217247
OBA-SABIRABAD 35,,,,40.008294342165,48.47098437301
OBA-AGSU 3,,,,40.580474,48.395099
OBA-AGSU 7,,,,40.564901657665,48.391386050731
OBA-AGSU 10,,,,40.567758501419,48.391416250843
OBA-SABIRABAD 21,,,,40.004183947328,48.469638900004
OBA-SABIRABAD 27,,,,40.01352722286,48.465034203801
OBA-SABIRABAD 33,,,,40.002234396752,48.468830092863
OBA-SABIRABAD 20,,,,40.00737532934,48.46627034024
OBA-SABIRABAD 5,,,,40.027369461561,48.456428195774
OBA-AGSU 5,,,,40.565668414793,48.387332155884
OBA-SAATLI 10,,,,39.918561765292,48.503953996648
OBA-SABIRABAD 29,,,,39.992417445143,48.464568706354
OBA-SABIRABAD 34,,,,39.990920310912,48.463886351364
OBA-SABIRABAD 25,,,,39.993652103327,48.458560322631
OBA-SABIRABAD 15,,,,40.035841979176,48.4373929191
OBA-SABIRABAD 2,,,,39.978965,48.447346
OBA-SHABRAN 12,,,,41.330395377753,48.875272780975
OBA-SABIRABAD 22,,,,40.05733747518,48.385552549789
OBA-SALYAN 33,,,,39.432166632501,48.841836466428
SAATLI 5,,,,39.939546769821,48.376883688094
OBA-SAATLI 3,,,,39.9381,48.372786
OBA-KURDEMIR 15,,,,40.303425430455,48.262207952245
OBA-SAATLI 6,,,,39.938290922633,48.367165312448
OBA-QUBA 15,,,,41.341367,48.75666
OBA-SAATLI 1,,,,39.938518,48.361913
OBA-SALYAN 13,,,,39.421779,48.825156
OBA-SAATLI 12,,,,39.936500992417,48.36133242209
OBA-QUBA 10,,,,41.34627,48.725935
OBA-QUBA 25,,,,41.254067285724,48.594155541787
OBA-XACMAZ 23,,,,41.460677227979,48.817118420239
OBA-XACMAZ 1,,,,41.468911,48.817844
OBA-XACMAZ 4,,,,41.46712,48.81208
OBA-XACMAZ 3,,,,41.462673,48.802366
OBA-KURDEMIR 1,,,,40.351331,48.161627
OBA-KURDEMIR 13,,,,40.350839835468,48.161577424836
OBA-KURDEMIR 16,,,,40.354918421602,48.159854757672
OBA-XACMAZ 15,,,,41.461938262509,48.796461471164
OBA-KURDEMIR 2,,,,40.347061,48.159203
OBA-KURDEMIR 10,,,,40.341259,48.156837
OBA-XACMAZ 12,,,,41.40387,48.704039
OBA-KURDEMIR 4,,,,40.339519,48.154874
OBA-XACMAZ 11,,,,41.467189,48.79472
OBA-KURDEMIR 6,,,,40.346469,48.152694
OBA-SAATLI 8,,,,39.880857999271,48.289700742327
OBA-KURDEMIR 3,,,,40.336112,48.151621
OBA-XACMAZ 17,,,,41.465985037027,48.786828913451
OBA-KURDEMIR 7,,,,40.332879,48.150053
OBA-KURDEMIR 9,,,,40.338207,48.144508
OBA-QUBA 6,,,,41.318186,48.581095
OBA-QUBA 20,,,,41.318045,48.577032
OBA-NEFTCHALA 14,,,,39.317475272047,48.80991745386
OBA-KURDEMIR 12,,,,40.339790510288,48.133156156436
OBA-XACMAZ 22,,,,41.47671349353,48.776344028815
OBA-NEFTCALA 9,,,,39.309360871225,48.812237029162
OBA-QUBA 7,,,,41.394083,48.64
OBA-BILESUVAR 10,,,,39.458697576839,48.598169163544
OBA-QUBA 8,,,,41.325888,48.556332
QUBA 23,,,,41.334309700693,48.546679248172
OBA-XACMAZ 20,,,,41.49947228708,48.764980441191
OBA-ISMAYILLI 2,,,,40.781278,48.157244
OBA-ISMAYILLI 8,,,,40.778492224372,48.155418776723
OBA-BILESUVAR 11,,,,39.46187579111,48.562734186612
OBA-BILESUVAR 6,,,,39.461685,48.561175
OBA-QUBA 11,,,,41.371787,48.575683
OBA-ISMAYILLI 6,,,,40.783601,48.153188
OBA-BILESUVAR 5,,,,39.461718,48.558772
OBA-BILESUVAR 12,,,,39.458685177582,48.552435155873
OBA-QUBA 5,,,,41.370735,48.553991
OBA-QUBA 16,,,,41.34846,48.52684
OBA-QUBA 26,,,,41.360419942122,48.528667786313
OBA-QUBA 1,,,,41.362795,48.528183
OBA-QUBA 28,,,,41.361311155333,48.526008046627
OBA-KURDEMIR 8,,,,40.113739,48.103444
OBA-XACMAZ 7,,,,41.532189,48.749264
OBA-QUBA 4,,,,41.362131,48.509538
OBA-QUBA 24,,,,41.357779270623,48.503367270803
OBA-QUBA 18,,,,41.35808,48.497697
OBA-XUDAT 7,,,,41.54774,48.723
OBA-QUBA 21,,,,41.452282074348,48.566507430105
OBA-ISMAYILLI 9,,,,40.675474910218,48.03825097791
OBA-KURDEMIR 14,,,,40.328644480833,48.009998258878
OBA-XUDAT 5,,,,41.569128,48.726314
OBA-GOYCAY 11,,,,40.615152805573,48.013353198175
OBA-IMISHLI 23,,,,39.890368422961,48.118147941421
OBA-XUDAT 8,,,,41.550634,48.659721
OBA-GOYCAY 15,,,,40.559918046112,47.975387686615
OBA-CELILABAD 11,,,,39.32583,48.549752
OBA-IMISHLI 15,,,,39.878837633636,48.071516906849
OBA-QUSAR 3,,,,41.431282,48.443355
OBA-IMISHLI 12,,,,39.865284466839,48.073777314003
OBA-QUSAR 9,,,,41.431982913662,48.441802363877
OBA-CELILABAD 5,,,,39.315641,48.52955
OBA-IMISHLI 22,,,,39.875294926297,48.064268741802
OBA-QUSAR 1,,,,41.418992,48.41736
OBA-IMISHLI 8,,,,39.86835906118,48.063771796059
OBA-IMISHLI,,,,39.869837,48.061772
OBA-IMISHLI 4,,,,39.869395,48.061779
OBA-QUSAR 10,,,,41.428159747125,48.425010416529
OBA-IMISHLI 6,,,,39.870128,48.060639
OBA-IMISHLI 10,,,,39.862231372214,48.062757484041
OBA-IMISHLI 2,,,,39.86711,48.060156
OBA-IMISHLI 21,,,,39.870095715808,48.057309986508
OBA-XUDAT 3,,,,41.631121,48.699789
OBA-XUDAT 1,,,,41.624258,48.685466
OBA-NABRAN 1,,,,41.675921744682,48.773249219314
OBA-XUDAT 6,,,,41.632677,48.687114
OBA-IMISHLI 9,,,,39.860895820735,48.050274327072
OBA-IMISHLI 17,,,,39.864879321636,48.048238130127
OBA-XUDAT 9,,,,41.628787,48.678513
OBA-XUDAT 2,,,,41.630559,48.67884
OBA-XUDAT 4,,,,41.632053,48.67332
OBA-CELILABAD 10,,,,39.337278,48.429681
OBA-CELILABAD 18,,,,39.222225796953,48.579240847565
OBA-CELILABAD 21,,,,39.261252612572,48.522627222236
OBA-IMISHLI 14,,,,39.697950304879,48.101747347673
OBA-CELILABAD 17,,,,39.266410923034,48.502719884781
OBA-IMISHLI 11,,,,39.716916897896,48.077192771269
OBA-CEBRAYIL 3,,,,39.673999988851,48.097678684226
OBA-GOYCAY 12,,,,40.554129214882,47.860362783375
OBA-CELILABAD 3,,,,39.235934,48.516891
OBA-MASALLI 28,,,,39.111502683335,48.706524530472
OBA-CELILABAD 12,,,,39.213865,48.541632
OBA-CELILABAD 4,,,,39.225205,48.519787
OBA-CEBRAYIL 2,,,,39.701027,48.06039
OBA-QUSAR 5,,,,41.470413,48.34349
OBA-MASALLI 21,,,,39.113818719221,48.663786697819
OBA-QEBELE 4,,,,40.946431,47.941994
OBA-CELILABAD 16,,,,39.213680858239,48.505643734774
OBA-MASALLI 7,,,,39.041703,48.779214
OBA-GOYCAY 8,,,,40.570268,47.82807
OBA-YALAMA 2,,,,41.694841,48.627688
OBA-CELILABAD 15,,,,39.216631843512,48.489096317392
OBA-CELILABAD 19,,,,39.209247733066,48.498134563219
OBA-CELILABAD 14,,,,39.258239075796,48.430307002933
OBA-CELILABAD 22,,,,39.207852353311,48.490940013492
OBA-CELILABAD 1,,,,39.20754,48.489676
OBA-CELILABAD 6,,,,39.206432,48.483422
OBA-GOYTEPE 1,,,,39.116574586198,48.599172345677
OBA-GOYTEPE 3,,,,39.118987291055,48.594207084657
OBA-CELILABAD 20,,,,39.192182390726,48.484272611861
OBA-MASALLI 25,,,,39.021905376649,48.758579760599
OBA-GOYTEPE 2,,,,39.111840081982,48.600850371164
OBA-IMISHLI 16,,,,39.76418348432,47.956103990192
OBA-IMISHLI 13,,,,39.742559812684,47.960047283545
OBA-MASALLI 22,,,,39.091967221791,48.603917953833
OBA-MASALLI 29,,,,39.08426098482,48.611411634022
OBA-QEBELE 16,,,,40.83538471864,47.82884346827
OBA-IMISHLI 18,,,,39.737229687056,47.946610751006
OBA-MASALLI 31,,,,39.038336100861,48.676589642328
OBA-GOYTEPE 4,,,,39.129787096137,48.5246473074
OBA-MASALLI 18,,,,39.036106,48.671357
OBA-MASALLI 20,,,,39.037103603155,48.667424073179
OBA-MASALLI 24,,,,39.030713394611,48.672577590725
OBA-MASALLI 3,,,,39.027537,48.678
OBA-MASALLI 4,,,,39.033116,48.66609
SDK 1,,,,41.635438151355,48.426815297896
OBA-MASALLI 6,,,,39.03725,48.65806
OBA-MASALLI 19,,,,39.011281480226,48.697840226641
OBA-MASALLI 30,,,,39.025741662083,48.667799257672
OBA-MASALLI 34,,,,39.022316734496,48.670726586508
OBA-MASALLI 1,,,,39.022578,48.669561
OBA-GOYCAY 5,,,,40.659565,47.75222
OBA-MASALLI 5,,,,39.02263,48.659088
OBA-GOYCAY 2,,,,40.641108,47.746338
OBA-YALAMA,,,,41.756574,48.586373
OBA-QEBELE 6,,,,40.975633,47.848613
OBA-QEBELE 8,,,,40.982006,47.849973
OBA-GOYCAY 13,,,,40.637677150993,47.742831298203
OBA-GOYCAY 14,,,,40.650987573595,47.743623155459
QEBELE 12,,,,40.968645333736,47.840959687258
OBA-GOYCAY 4,,,,40.648967,47.7428
OBA-MASALLI 35,,,,39.019362530544,48.651316328836
OBA-QEBELE 7,,,,40.975729,47.841961
OBA-GOYCAY 10,,,,40.651990929469,47.739792704908
OBA-MASALLI 26,,,,39.018652521816,48.648323334439
OBA-QEBELE 15,,,,40.947021992488,47.825841630364
OBA-MASALLI 12,,,,39.01029,48.65168
OBA-QEBELE 14,,,,40.92855638358,47.802997612183
OBA-ZERDAB 3,,,,40.228709,47.70737
OBA-ZERDAB 1,,,,40.221777,47.708022
OBA-MASALLI 27,,,,38.999835082126,48.604395522989
OBA-UCAR 5,,,,40.420578,47.67192
OBA-MASALLI 8,,,,38.955979,48.676438
OBA-MASALLI 33,,,,38.963374600061,48.658912040362
OBA-UCAR 10,,,,40.514504362694,47.661914996667
OBA-UCAR 11,,,,40.505,47.658444
OBA-LENKERAN 19,,,,38.878082,48.807265
OBA-UCAR 4,,,,40.509532,47.655479
OBA-MASALLI 17,,,,38.925770722897,48.705886282274
OBA-UCAR 7,,,,40.510460686737,47.653509345768
OBA-UCAR 2,,,,40.520088,47.652427
OBA-QEBELE 13,,,,41.008463116985,47.779899418802
OBA-MASALLI 16,,,,38.9226,48.706486
OBA-UCAR 6,,,,40.51434,47.649804
OBA-UCAR1,,,,40.52481,47.65005
OBA-BEYLEQAN 20,,,,39.803603869146,47.78942154027
OBA-LENKERAN 12,,,,38.890085,48.76114
OBA-BEYLEQAN 15,,,,39.716353591281,47.832235058439
OBA-MASALLI 14,,,,38.907452,48.68907
OBA-MASALLI 23,,,,38.894340765949,48.707819236952
OBA-UCAR 9,,,,40.49647344139,47.616987349426
OBA-BEYLEQAN 10,,,,39.773095,47.76122
OBA-LENKERAN 17,,,,38.855182,48.75123
OBA-LENKERAN 22,,,,38.823267504623,48.747054385857
OBA-LENKERAN 27,,,,38.774125898926,48.840351586098
OBA-LENKERAN 36,,,,38.794559781014,48.789827108903
OBA-LENKERAN 34,,,,38.766512625944,48.84182918494
OBA-LENKERAN 28,,,,38.765951554419,48.84003751377
OBA-LENKERAN 41,,,,38.757089,48.8399521
OBA-LENKERAN 33,,,,38.814699391579,48.708076448491
OBA-BEYLEQAN 14,,,,39.87221257394,47.637495193737
OBA-LENKERAN 38,,,,38.749870680041,48.847666699998
OBA-LENKERAN 30,,,,38.74946618808,48.833966254138
OBA-LENKERAN 21,,,,38.740864382944,48.83248095548
OBA-LENKERAN 32,,,,38.734423434701,48.842164092055
OBA-LENKERAN 40,,,,38.717389,48.837889
OBA-AGDASH 12,,,,40.647076128492,47.498914169311
OBA-BEYLEQAN 9,,,,39.630196764765,47.710051727865
OBA-OGUZ 3,,,,41.03194767813,47.60547196346
OBA-BEYLEQAN 3,,,,39.772958,47.62396
OBA-BEYLEQAN 19,,,,39.775402337946,47.622240197918
OBA-BEYLEQAN 7,,,,39.772854,47.62119
OBA-AGDASH 1,,,,40.648898297061,47.485281807504
OBA-BEYLEQAN 21,,,,39.639944,47.687806
OBA-BEYLEQAN 4,,,,39.769137,47.618836
OBA-BEYLEQAN18,,,,39.769646025041,47.616079039863
OBA-AGDASH 14,,,,40.646532615451,47.477675669311
OBA-BEYLEQAN 2,,,,39.771043,47.611999
OBA-BEYLEQAN 12,,,,39.770284304268,47.612324517583
OBA-BEYLEQAN 11,,,,39.642076,47.678303
OBA-AGDAS 9,,,,40.641558814885,47.474801076392
OBA-AGDASH 6,,,,40.642364,47.473522
OBA-AGDASH 13,,,,40.643561173849,47.473525100596
OBA-LENKERAN 35,,,,38.7212655503,48.77320074233
OBA-AGDASH 4,,,,40.641758519332,47.471300631166
OBA-AGDAS 8,,,,40.641764002912,47.470845148301
OBA-AGDASH 15,,,,40.645889,47.470694
OBA-AGDASH 11,,,,40.655130218277,47.471055797358
OBA-BEYLEQAN 17,,,,39.660570898704,47.659385266542
OBA-BEYLEQAN 13,,,,39.768097134203,47.602266897489
OBA-LENKERAN 29,,,,38.688186306036,48.824788945537
OBA-AGDASH 16,,,,40.649028,47.452111
OBA-LENKERAN 39,,,,38.71663853612,48.735449764418
OBA-FUZULI 15,,,,39.615741183247,47.658509118448
OBA-OGUZ 5,,,,40.960471034303,47.517700742328
OBA-AGDAS 7,,,,40.53849,47.422203
OBA-AGCABEDI 14,,,,40.049091,47.467055
OBA-LENKERAN 20,,,,38.658897,48.841327
OBA-AGCABEDI 15,,,,40.044307,47.4645
OBA-AGCABEDI 16,,,,40.05261,47.45983
OBA-AGCABEDI 24,,,,40.049951070617,47.460079437435
OBA-AGCABEDI 2,,,,40.04807,47.456783
OBA-AGCABEDI 9,,,,40.043128,47.455749
OBA-LENKERAN 13,,,,38.660974,48.803622
OBA-AGCABEDI 4,,,,40.033649,47.453409
OBA-AGCABEDI 10,,,,40.046655,47.445917
OBA-AGCABEDI 27,,,,40.041399338294,47.444252222632
OBA-AGCABEDI 17,,,,40.05295,47.44082
OBA-AGCABEDI 30,,,,40.054035069357,47.434878171162
OBA-OGUZ 4,,,,40.971881384263,47.48740696173
OBA-LENKERAN 31,,,,38.646660531705,48.803013579264
OBA-FUZULI 16,,,,39.588234503165,47.628149628836
OBA-AGCABEDI 29,,,,40.030325841947,47.436263259525
OBA-AGCABEDI 23,,,,39.927504419263,47.467104379275
OBA-AGCABEDI 11,,,,40.058127,47.418022
OBA-XOCAVEND 1,,,,39.747988,47.52914
OBA-AGCABEDI 12,,,,40.040055,47.418894
OBA-AGCABEDI 20,,,,39.975082,47.426719
OBA-FUZULI 11,,,,39.736453107147,47.510663884695
OBA-ASTARA 5,,,,38.607985,48.821237
OBA-YARDIMLI 1,,,,38.907125,48.243341
OBA-ASTARA 12,,,,38.597659248274,48.840251096088
OBA-LENKERAN 3,,,,38.60499,48.811099
OBA-ASTARA 19,,,,38.602917,48.813222
OBA-ASTARA 13,,,,38.602063260134,48.807235297208
OBA-ASTARA 11,,,,38.591615574461,48.821441913064
OBA-OGUZ 7,,,,41.070221690178,47.465062820238
OBA-OGUZ 1,,,,41.068379,47.462966
OBA-OGUZ 6,,,,41.059499047733,47.458600159817
OBA-ASTARA 9,,,,38.592898,48.804577
OBA-LERIK 3,,,,38.771254,48.419236
OBA-FUZULI 3,,,,39.558192112172,47.564614283488
OBA-FUZULI 14,,,,39.564251126253,47.555021111725
OBA-BERDE 18,,,,40.217506,47.310467
OBA-ASTARA 16,,,,38.556427187908,48.823733905913
OBA-SHEKI 12,,,,40.875645646974,47.344271693429
OBA-AGCABEDI 28,,,,40.098185479049,47.316082407381
BERDE 20,,,,40.324763537967,47.271946942979
OBA-AGCABEDI 22,,,,40.059117019006,47.300386556807
OBA-ASTARA 15,,,,38.532514322843,48.807940483406
OBA-BERDE 29,,,,40.328227592905,47.24878989078
OBA-ASTARA 4,,,,38.535672,48.777365
OBA-BERDE 22,,,,40.251807340794,47.247016169848
OBA-ASTARA 7,,,,38.509235,48.829096
OBA-FUZULI 10,,,,39.515981396369,47.49111265077
OBA-ASTARA 17,,,,38.492434597731,48.831886108474
OBA-FUZULI 7,,,,39.509972,47.490514
OBA-ASTARA 3,,,,38.47043,48.870559
OBA-YEVLAX 4,,,,40.708248,47.220096
OBA-YEVLAX 11,,,,40.7138557,47.2162676
OBA-BERDE 26,,,,40.27806688425,47.196012167474
OBA-SHEKI 22,,,,40.85796056962,47.242509589677
OBA-ASTARA 2,,,,38.451177,48.875419
OBA-ASTARA 14,,,,38.4511411598,48.873827448864
OBA-ASTARA 18,,,,38.465541223028,48.810043855278
FUZULI 8,,,,39.568653003502,47.404534142329
OBA-AGCABEDI 25,,,,40.069836965379,47.196192247603
OBA-YEVLAX 15,,,,40.613392298752,47.158076171844
OBA-AGCABEDI 19,,,,40.064720248545,47.189629679344
OBA-FUZULI 17,,,,39.508361,47.414306
OBA-AGDAM 16,,,,40.157800501052,47.166544871126
OBA-YEVLAX 18,,,,40.605797775237,47.151519526211
OBA-YEVLAX 9,,,,40.616893,47.15169
OBA-YEVLAX 1,,,,40.603699,47.150239
OBA-YEVLAX 3,,,,40.612729,47.15042
OBA-AGDAM 7,,,,40.155887,47.163259
OBA-AGDAM 13,,,,40.157225526675,47.161999899893
OBA-YEVLAX 12,,,,40.614887532293,47.147040997865
OBA-BERDE 13,,,,40.360718,47.13852
OBA-FUZULI 12,,,,39.508927762849,47.405400373698
OBA-YEVLAX 2,,,,40.613239,47.144131
OBA-BERDE 16,,,,40.385850439772,47.134630073442
OBA-BERDE 23,,,,40.379921643367,47.134411041383
OBA-AGCABEDI 26,,,,39.982326065859,47.194885719618
OBA-YEVLAX 13,,,,40.606704106763,47.139065100016
OBA-BERDE 11,,,,40.361144704701,47.129000102655
OBA-BERDE 1,,,,40.384497,47.127755
OBA-BERDE 25,,,,40.402382733215,47.127118558987
OBA-BERDE 5,,,,40.36666,47.12708
OBA-BERDE 15,,,,40.370688,47.126776
OBA-BERDE 14,,,,40.319792,47.122991
OBA-BERDE 21,,,,40.391399753187,47.118351600104
OBA-BERDE LISEY,,,,40.378047,47.1174751
OBA-BERDE 10,,,,40.37514,47.113559
OBA-BERDE 3,,,,40.449337,47.112343
OBA-YEVLAX 14,,,,40.502871163624,47.113314697918
OBA-BERDE 28,,,,40.355878256423,47.111297346034
OBA-AGDAM 14,,,,40.100093036892,47.133930786612
OBA-BERDE 27,,,,40.282295536237,47.104549935499
OBA-YEVLAX 6,,,,40.505015,47.093148
OBA-BERDE 12,,,,40.362776,47.086393
OBA-AGDAM 10,,,,40.120758974416,47.111381268965
OBA-BERDE 24,,,,40.459651473944,47.081242295429
OBA-AGDAM 3,,,,40.12144,47.10523
OBA-MINGECEVIR 7,,,,40.751962,47.098817
OBA-AGDAM 4,,,,40.240785,47.076097
OBA-YEVLAX 17,,,,40.512712851477,47.061912270403
OBA-AGDAM 6,,,,40.142314,47.083963
OBA-MINGECEVIR 22,,,,40.757535692338,47.086785899802
OBA-FUZULI 5,,,,39.447979563631,47.340381864985
OBA-FUZULI 6,,,,39.447736,47.338843
OBA-FUZULI 9,,,,39.449462838102,47.336576192928
OBA-MINGECEVIR 23,,,,40.752905454872,47.064977904747
OBA-MINGECEVIR 12,,,,40.761827,47.06616
OBA-FUZULI 13,,,,39.449793619383,47.331940654778
OBA-MINGECEVIR 10,,,,40.758116,47.064374
OBA-MINGECEVIR 19,,,,40.772227065217,47.065165919898
OBA-MINGECEVIR 4,,,,40.761179,47.061146
OBA-MINGECEVIR 13,,,,40.759935,47.059013
OBA-MINGECEVIR 21,,,,40.766051946272,47.059883683591
OBA-MINGECEVIR 8,,,,40.768585,47.058563
OBA-MINGECEVIR 20,,,,40.766175345633,47.0562778
OBA-AGDAM 15,,,,40.023931216072,47.072006474462
OBA-AGDAM 9,,,,40.017420043901,47.073291651965
OBA-MINGECEVIR 14,,,,40.769795,47.052619
OBA-MINGECEVIR 9,,,,40.772374,47.052662
OBA-MINGECEVIR 3,,,,40.764218,47.045967
OBA-MINGECEVIR 15,,,,40.773406,47.0475
OBA-MINGECEVIR 18,,,,40.758092317535,47.044495136615
OBA-MINGECEVIR 16,,,,40.762717,47.044485
OBA-SHEKI 20,,,,41.182316689079,47.180305599998
OBA-SHEKI 18,,,,41.200665423943,47.188845188361
OBA-AGDAM 12,,,,40.050729615633,47.053233547703
OBA-MINGECEVIR 2,,,,40.771665,47.041061
TERTER 9,,,,40.441145481802,47.008566197859
OBA-AGDAM 8,,,,40.109127,47.0389681
OBA-SHEKI 3,,,,41.170421,47.16742
OBA-SHEKI 1,,,,41.203613,47.179909
OBA-SHEKI 10,,,,41.201356,47.177779
OBA-SHEKI 15,,,,41.187192778611,47.170909619782
OBA-YEVLAX 10,,,,40.686634,47.01959
OBA-SHEKI 21,,,,41.210520554545,47.180441762635
OBA-SHEKI 2,,,,41.200513,47.171258
OBA-SHEKI 8,,,,40.99295,47.087158
OBA-SHEKI 17,,,,41.208288673541,47.174395242328
OBA-SHEKI 5,,,,41.226901970926,47.180454790919
OBA-SHEKI 11,,,,41.201972,47.165757
OBA-SHEKI 19,,,,41.1957679,47.1621161
OBA-YEVLAX 5,,,,40.631413,46.98918
OBA-MINGECEVIR,,,,40.769922,47.000294
OBA-TERTER 11,,,,40.326883325726,46.969443355542
OBA-SHEKI 14,,,,41.210197870799,47.1416162603
OBA-MINGECEVIR 11,,,,40.768597,46.995069
OBA-YEVLAX 16,,,,40.715199872351,46.975459729131
OBA-TERTER 5,,,,40.434708,46.95049
OBA-TERTER 15,,,,40.338712657953,46.952048541982
OBA-FUZULI 19,,,,39.598641118338,47.152327335048
OBA-TERTER 13,,,,40.340397197836,46.945087111639
OBA-AGDAM SARICALI,,,,40.007032861502,46.984785538976
OBA-TERTER 12,,,,40.344743685055,46.932273824908
OBA-TERTER 8,,,,40.340870397396,46.932252142691
OBA-TERTER 3,,,,40.340231,46.932233
OBA-TERTER 6,,,,40.340057,46.931456
OBA-TERTER,,,,40.348689,46.930665
OBA-GORANBOY 20,,,,40.480010754915,46.926624857134
OBA-TERTER 14,,,,40.335118116501,46.928801477695
OBA-TERTER 7,,,,40.342882253396,46.927028645042
OBA-AGDAM KENGERLI,,,,40.030952278929,46.967905633684
OBA-TERTER 10,,,,40.339341430919,46.913247403969
OBA-GORANBOY 16,,,,40.498076763962,46.907172996569
OBA-GORANBOY 2,,,,40.500757,46.904709
OBA-AGDAM QK,,,,40.101641516295,46.883775127183
OBA-GORANBOY 12,,,,40.575165860915,46.848447322754
OBA-AGDAM XIDIRLI,,,,40.007852486065,46.887759885679
OBA-SHEKI 6,,,,41.270465,47.012884
OAB-NAFTALAN 3,,,,40.505963367152,46.815270173426
OBA-NAFTALAN 2,,,,40.508226052382,46.815292915343
OBA-NAFTALAN 1,,,,40.508717,46.813332
OBA-GORANBOY 1,,,,40.606557,46.786784
OBA-SHEKI 16,,,,41.302099887667,46.985396534129
OBA-GORANBOY 9,,,,40.596129,46.78191
OBA-GORANBOY 10,,,,40.602555,46.780168
OBA-GORANBOY 18,,,,40.42959017811,46.769168885556
OBA-GORANBOY 5,,,,40.541457,46.76672
OBA-ESGERAN 1,,,,39.939325,46.8273269
OBA-SUQOVUSHAN 1,,,,40.321998997682,46.753189209606
OBA-GORANBOY 22,,,,40.585237289372,46.729325036471
OBA-CEBRAYIL 4,,,,39.400521806134,47.022769834569
OBA-XOCALI 4,,,,39.9119289,46.7991131
OBA-XOCALI 1,,,,39.905438291573,46.799462817714
OBA-XOCALI 3,,,,39.92923016368,46.777166561899
OBA-QAX 4,,,,41.426482949026,46.945025454457
OBA-QAX 7,,,,41.418368616129,46.930271218962
OBA-XANKENDI 2,,,,39.825083,46.766806
OBA-QAX 2,,,,41.418703,46.922658
OBA-QAX 9,,,,41.416111,46.9205
OBA-QAX 6,,,,41.419561058343,46.917155971164
OBA-QAX 8,,,,41.422737612509,46.916497298916
OBA-QAX 3,,,,41.422163,46.914467
OBA-XANKENDI 3,,,,39.8205,46.757444
OBA-XANKENDI 1,,,,39.823328981586,46.752196731962
OBA-XOCALI 2,,,,39.87259149552,46.729163819251
OBA-GORANBOY 15,,,,40.445101441358,46.634987979787
OBA-GORANBOY 14,,,,40.700255512278,46.60702923092
OBA-GORANBOY 3,,,,40.41852,46.573089
OBA-GORANBOY 17,,,,40.696165400769,46.571000199922
OBA-GORANBOY 13,,,,40.698873057811,46.567346628634
OBA-GORANBOY 4,,,,40.692277409437,46.564435051744
OBA-GORANBOY 21,,,,40.690422479263,46.562912456739
OBA-SHEMKIR 40,,,,40.690446940364,46.562903571379
OBA-GORANBOY 23,,,,40.652405868597,46.554025766708
OBA-GORANBOY 19,,,,40.647626662968,46.532041934115
OBA-SAMUX 9,,,,40.715338999326,46.469913812877
OBA-ZAQATALA 18,,,,41.47918126503,46.708686133286
OBA-SAMUX 8,,,,40.753204965925,46.430084648707
OBA-ZAQATALA 23,,,,41.534861,46.702833
OBA-GENCE 91,,,,40.684238100522,46.413444220675
OBA-GOYGOL 8,,,,40.635136538763,46.405007354732
OBA-ZAQATALA 21,,,,41.569929728672,46.708529033979
OBA-SAMUX 12,,,,40.75835564808,46.409578913492
OBA-LACIN 3,,,,39.637525831534,46.550410912971
OBA-ZAQATALA 20,,,,41.461208556275,46.637570567006
OBA-SAMUX 10,,,,40.765294495268,46.405789503235
OBA-GENCE 53,,,,40.721116097324,46.398955975931
OBA-GENCE 68,,,,40.681250093091,46.391681738125
OBA-GENCE 48,,,,40.687558390288,46.388735313488
OBA-GENCE 82,,,,40.678621348428,46.387564187163
OBA-GENCE 69,,,,40.686252462932,46.387311333873
OBA-GENCE 2,,,,40.68047,46.38577
OBA-GENCE 14,,,,40.683063,46.383157
OBA-GENCE 84,,,,40.658625289539,46.380239782802
OBA-GENCE 51,,,,40.664388,46.379168
OBA-GENCE 44,,,,40.69972,46.382799
OBA-GENCE 23,,,,40.679528,46.380514
OBA-LACIN 2,,,,39.635372496895,46.531910551895
OBA-GENCE 9,,,,40.695106,46.380035
OBA-ZAQATALA 12,,,,41.56936771106,46.679125382242
OBA-GENCE 46,,,,40.649696,46.372797
OBA-GENCE 16,,,,40.67703,46.374516
OBA-GENCE 52,,,,40.676204,46.372936
OBA-GENCE 41,,,,40.711387,46.376794
OBA-LACIN 1,,,,39.590366986889,46.542686987434
OBA-GENCE 77,,,,40.677034592747,46.371962508924
OBA-ZAQATALA 16,,,,41.477894081822,46.620830145846
OBA-ZENGILAN 1,,,,39.174583,46.767583
OBA-GENCE 40,,,,40.674491,46.369638
OBA-ZAQATALA 13,,,,41.493277219686,46.627468657139
OBA-GENCE 72,,,,40.656129988032,46.367318118066
OBA-GENCE 12,,,,40.656215,46.366813
OBA-GENCE 71,,,,40.66811990559,46.367662085594
OBA-GENCE 28,,,,40.68956,46.369276
OBA-GENCE 3,,,,40.668928,46.366682
OBA-GENCE 80,,,,40.683047078503,46.366221908293
OBA-GENCE79,,,,40.697592497587,46.3670504429
OBA-GENCE 60,,,,40.715485157525,46.369128283703
OBA-GENCE 74,,,,40.660129381277,46.362454065134
OBA-GENCE 45,,,,40.68863,46.36517
OBA-GENCE 4,,,,40.709743,46.367264
OBA-GENCE 47,,,,40.670043,46.3627
OBA-GENCE 90,,,,40.706908777873,46.366737836248
OBA-GENCE 62,,,,40.712548144962,46.366961471137
OBA-GENCE 8,,,,40.666162,46.361403
OBA-GENCE 6,,,,40.6806,46.362884
OBA-GENCE 81,,,,40.663840754222,46.359243657673
OBA-GENCE 78,,,,40.637139584648,46.353861003004
OBA-GENCE 39,,,,40.67803,46.357309
OBA-GENCE 33,,,,40.673027,46.356704
OBA-SAMUX 11,,,,40.754111698304,46.366242715193
OBA-GENCE 56,,,,40.711507659462,46.359230826703
OBA-GENCE 13,,,,40.68172,46.3557
OBA-GENCE 59,,,,40.658329479898,46.352925473017
OBA-GENCE 30,,,,40.69803,46.355044
OBA-GENCE 67,,,,40.702486854597,46.35509132325
OBA-SAMUX 7,,,,40.766617403776,46.363122410386
OBA-GENCE 18,,,,40.64699,46.347899
OBA-GENCE 73,,,,40.634007412999,46.345515799486
OBA-GENCE 65,,,,40.719108219184,46.35396615287
OBA-GENCE 10,,,,40.695559,46.350866
OBA-GENCE 61,,,,40.644910775835,46.344194091043
OBA-GENCE 19,,,,40.720532,46.35209
OBA-GOYGOL 10,,,,40.543019917128,46.336124838354
OBA-GENCE 29,,,,40.68524,46.346447
OBA-GENCE 11,,,,40.640645,46.34115
OBA-GENCE 1,,,,40.672916,46.342571
OBA-GOYGOL 6,,,,40.587163818875,46.335374527077
OBA-GENCE 32,,,,40.661285,46.340293
OBA-GENCE 50,,,,40.632485,46.335239
OBA-GENCE 75,,,,40.67093704317,46.338405970777
OBA-GENCE 54,,,,40.715682289273,46.341018578848
OBA-GENCE 76,,,,40.670870058461,46.335357628696
OBA-GOYGOL 3,,,,40.570202,46.325247
OBA-GENCE 27,,,,40.680142,46.332783
OBA-GENCE 86,,,,40.667674281367,46.331051113491
OBA-GENCE 64,,,,40.662399332188,46.32977199971
OBA-ZAQATALA 14,,,,41.615224043745,46.655495613406
OBA-GENCE 42,,,,40.707783,46.333165
OBA-ZAQATALA 11,,,,41.604546825449,46.646787810136
OBA-GENCE 63,,,,40.708260342503,46.331874082553
OBA-GENCE 36,,,,40.674817,46.328036
OBA-GOYGOL,,,,40.588893,46.320913
OBA-GOYGOL 2,,,,40.591492,46.320613
OBA-GENCE 7,,,,40.67579,46.326321
OBA-GOYGOL 11,,,,40.586345950979,46.316989271164
OBA-GENCE 85,,,,40.663286883006,46.320065078347
OBA-GENCE 66,,,,40.710177687611,46.323100119573
OBA-ZAQATALA 19,,,,41.634823514461,46.65491880884
OBA-ZAQATALA 7,,,,41.617040489421,46.643508794023
OBA-GENCE 34,,,,40.715801,46.322235
OBA-GENCE 26,,,,40.662464,46.316206
OBA-ZAQATALA 3,,,,41.63208,46.65124
OBA-GOYGOL 9,,,,40.629973697159,46.313083299991
OBA-ZAQATALA 9,,,,41.634341,46.65074
OBA-ZAQATALA 6,,,,41.624858,46.637389
OBA-SAMUX 2,,,,40.788254,46.321862
OBA-ZAQATALA 8,,,,41.634289,46.640027
OBA-ZAQATALA 1,,,,41.62961,46.632701
OBA-GOYGOL 7,,,,40.718145226421,46.29626845992
OBA-ZAQATALA 17,,,,41.630350907399,46.619851982003
OBA-GOYGOL 5,,,,40.650192779089,46.272969904569
OBA-GOYGOL 4,,,,40.67518,46.27432
OBA-ZAQATALA 22,,,,41.5329229,46.5240605
OBA-SAMUX 5,,,,40.809312357417,46.259729800185
OBA-SEMKIR 29,,,,40.784997320342,46.243083353692
OBA-SEMKIR 22,,,,40.844752,46.215055
OBA-ZAQATALA 15,,,,41.55138439563,46.421629012475
OBA-SEMKIR 2,,,,40.905960067228,46.181374613463
OBA-SEMKIR 10,,,,40.906864,46.181381
OBA-SEMKIR 24,,,,40.77296368415,46.146117397245
OBA-SEMKIR 13,,,,40.836309,46.148926
OBA-SHEMKIR 42,,,,40.83575513965,46.1448032739
OBA-SHEMKIR 38,,,,40.779683644181,46.131810363462
OBA-SHEMKIR43,,,,40.757996680087,46.120374364513
OBA-SHEMKIR 50,,,,40.771306561648,46.11239786855
OBA-SEMKIR 16,,,,40.771345,46.111536
OBA-SHEMKIR 36,,,,40.780797953099,46.109551113394
OBA-DASHKESEN 1,,,,40.522015,46.086229
OBA-DASKESEN 2,,,,40.521049163245,46.080262764741
OBA-BALAKEN 8,,,,41.622222,46.388974
OBA-BALAKEN 3,,,,41.708509,46.433157
OBA-BALAKEN 11,,,,41.706065647438,46.425063021899
OBA-SEMKIR 14,,,,40.86037,46.094832
OBA-BALAKEN 10,,,,41.71781150951,46.415501522008
OBA-BALAKEN 2,,,,41.71652,46.413954
OBA-BALAKEN 9,,,,41.713847771417,46.397261549564
OBA-BALAKEN 4,,,,41.723818,46.40278
OBA-BALAKEN 12,,,,41.738297186278,46.409203840208
OBA-BALAKEN 14,,,,41.721334866127,46.395602901845
OBA-SHEMKIR 46,,,,40.831383764033,46.052590444014
OBA-SEMKIR 27,,,,40.832092361725,46.042428735694
OBA-SHEMKIR 34,,,,40.827942059495,46.033484102451
OBA-SEMKIR 28,,,,40.824571376952,46.032132304391
OBA-SHEMKIR 39,,,,40.904553913711,46.045031341038
OBA-SEMKIR 7,,,,40.82404,46.029065
OBA-SHEMKIR 47,,,,40.860749733707,46.032445048168
OBA-SHEMKIR 41,,,,40.846596179876,46.026762684632
OBA-SEMKIR 5,,,,40.88935,46.032633
OBA-SHEMKIR 33,,,,40.877657594916,46.029222199991
OBA-SEMKIR 4,,,,40.84399,46.02169
OBA-SHEMKIR 30,,,,40.829188775153,46.017784934358
OBA-SEMKIR 3,,,,40.858778,46.022543
OBA-SHEMKIR 49,,,,40.805585804248,46.011795400643
OBA-SHEMKIR 44,,,,40.843022521746,46.015536700751
OBA-BALAKEN 13,,,,41.710924814078,46.268353525644
OBA-SHEMKIR 35,,,,40.845892637653,45.927217813403
OBA-SHEMKIR 31,,,,40.904147123294,45.888350371164
OBA-GEDEBEY 6,,,,40.685212,45.826851
OBA-SHEMKIR 32,,,,40.912896826077,45.849447604801
OBA-GEDEBEY 7,,,,40.576419089534,45.809068594467
OBA-GEDEBEY 1,,,,40.577743,45.807804
OBA-GEDEBEY 2,,,,40.65959,45.808329
OBA-SEMKIR 21,,,,40.888061,45.82651
OBA-TOVUZ 10,,,,40.924,45.820228
OBA-TOVUZ 19,,,,40.929266789411,45.821179099479
OBA-GEDEBEY 8,,,,40.503036284287,45.75601224243
OBA-TOVUZ 31,,,,40.943152120551,45.799830895242
OBA-TOVUZ 15,,,,40.899607,45.763312
OBA-TOVUZ 23,,,,40.942585876272,45.750727869144
OBA-TOVUZ 13,,,,40.948263088004,45.736478324818
OBA-TOVUZ 2,,,,40.947345,45.734045
OBA-TOVUZ 26,,,,40.946508333173,45.729925104814
OBA-TOVUZ 18,,,,40.922075126891,45.664940543217
OBA-TOVUZ 16,,,,40.975335,45.663857
OBA-GEDEBEY 4,,,,40.608063,45.609869
OBA-TOVUZ 22,,,,40.99256859557,45.632443270145
OBA-TOVUZ 1,,,,40.979401,45.621969
OBA-TOVUZ 20,,,,40.995470762258,45.624365630593
OBA-TOVUZ 28,,,,40.985527029075,45.621619903228
OBA-TOVUZ 27,,,,40.987577771568,45.621069236326
OBA-TOVUZ 5,,,,40.984013635123,45.617751628518
OBA-TOVUZ 33,,,,40.999348271156,45.619398689173
OBA-TOVUZ 3,,,,40.990102,45.616778
OBA-TOVUZ 25,,,,40.967366423085,45.611843103027
OBA-TOVUZ 17,,,,40.99175,45.61187
OBA-TOVUZ 6,,,,41.022320742589,45.607401408597
OBA-TOVUZ 24,,,,40.975981883178,45.586494632691
OBA-ORDUBAD 3,,,,38.901322567671,46.016814866263
OBA-AGSTAFA 8,,,,41.097089840883,45.519271495211
OBA-ORDUBAD 2,,,,38.932548133516,45.924366684116
OBA-AGSTAFA 11,,,,41.120937,45.46089
OBA-AGSTAFA 7,,,,41.108242409619,45.446828913484
OBA-AGSTAFA 9,,,,41.114594669721,45.4469825966
OBA-AGSTAFA 10,,,,41.153699762719,45.453222871976
OBA-AGSTAFA 3,,,,41.1114,45.438958
OBA-ORDUBAD 1,,,,38.945275285073,45.826477726866
OBA-QAZAX 20,,,,41.093930479005,45.39744007342
OBA-QAZAX 2,,,,41.096963,45.38439
OBA-QAZAX 18,,,,41.102365547378,45.382885804855
OBA-QAZAX 4,,,,41.09346,45.367003
OBA-QAZAX 9,,,,41.093106,45.36673
OBA-QAZAX 22,,,,41.085947618557,45.361049257672
OBA-QAZAX 1,,,,41.089909,45.359454
OBA-QAZAX21,,,,41.090895540613,45.359496603498
OBA-QAZAX 10,,,,41.088397,45.355519
OBA-QAZAX 12,,,,41.08458,45.352957
OBA-QAZAX 8,,,,41.08951,45.352725
OBA-QAZAX 16,,,,41.095963020576,45.350996840552
OBA-QAZAX 24,,,,41.131028,45.354028
OBA-QAZAX 13,,,,41.083856,45.33904
OBA-BABEK 2,,,,39.290549315511,45.506500970564
OBA-QAZAX 14,,,,41.115149179011,45.30272816083
OBA-QAZAX 19,,,,41.168285491457,45.30743916142
OBA-QAZAX 15,,,,41.131760380737,45.266189638718
OBA-BABEK 1,,,,39.22609123465,45.445575101845
OBA-BABEK 4,,,,39.112358542125,45.474907532538
OBA-BABEK 3,,,,39.120656943655,45.466133535583
OBA-KENGERLI 1,,,,39.400150979856,45.111301960113
OBA-SHERUR 1,,,,39.501553561519,45.023083560364
OBA-SHERUR 3,,,,39.562662,44.992359
OBA-SHERUR 2,,,,39.528130786763,44.986303775573
OBA-SEDEREK 1,,,,39.613423418779,44.938272709275
OBA-SEDEREK 2,,,,39.710333,44.88225
