name,address,phone,hours,latitude,longitude
Tamstore Bakıxanov(Super),"<p>Bakıxanov qəs., Nazim İsmayılov küçəsi</p>",,,,
Tamstore Şağan (Super),"<p>Xəzər rayonu, Buzovna qesebesi A.Xelefov 5/6</p>",,,,
Tamstore Qazax 2 (Super),"<p>Qazax ray., Musəvi küç., Mərkəzi bazarın yaxınlığı</p>",,,,
Tamstore - 3-cü MKR (Super),"<p>Bakı şəh, Nəsimi rayonu, A.Məhərrəmov küçəsi 5</p>",,,,
Tamstore Naxçıvan (Super),"<p>Naxçıvan şəh., Heydər Əliyev pr., Təbriz küçəsi</p>",,,,
Tamstore - Göytəpə (super),"<p>Cəlilabad rayonu, Göytəpə şəh., ""Göytəpə"" poçt idarəsinin yaxınlığı</p>",,,,
Tamstore - Bərdə (super),"<p>Bərdə şəh., Nizami və Koroğlu küçələrinin kəsişməsi</p>",,,,
Tamstore - Əhmədli 3 (Mini),"<p>Kənd Əhmədli, Məhəmməd Hadi küçəsi 152</p>",,,,
Tamstore - 9-cu MKR(Super),"<p>Mir Cəlal küç 164, 157 saylı tam orta məktəbin yaxınlığı</p>",,,,
Tamstore - Ağdaş 2 Ləki (Super),"<p>Ağdaş ray., Ləki qəs., Xasılılar küçəsi, Bakı-Ələt-Qazax yolu</p>",,,,
Tamstore - Sumqayıt 5 (Super),"<p>Sumqayıt şəh, Nəriman Nərimanov küç 55</p>",,,,
Tamstore Binəqədi 2,"<p>Binəqədi ray., Biləcəri qəs., F. Vəliyev küçəsi</p>",,,,
Tamstore Masallı(Super),"<p>Masallı ray., Heydər Əliyev pr., Dövlət Sosial Müdafiə Fondunun yaxınlığı</p>",,,,
Tamstore - Binə 2 (Atçılıq) (Super),"<p>Binə 2- Binə qəsəbəsi, Binə ŞTQ, ""Binə Atçılıq İstirahət Mərkəzi""in yaxınlığı</p>",,,,
Tamstore - Salyan (Super),"<p>Salyan şəh., Bakı-Astara yolu 130-cu km, Ə.Quliyev küçəsi</p>",,,,
Tamstore - Sumqayıt 6 (City),"<p>Sumqayıt şəhəri., Birləşmiş məhəllə, Nizami küçəsi 79&nbsp;</p>",,,,
Tamstore Ağstafa (Super),"<p>Ağstafa ray., Rafiq Əlicanov küç. 39</p>",,,,
Tamstore Hacıqabul(Fədək)  (Super),"<p>Hacıqabul - Hacıqabul ray., Pirsaat qəs., Bakı-Ələt-Qazax-gürcüstan yolu, Fədək restoranının yaxınlığı</p>",,,,
Tamstore Qazax (Super),"<p>Qazax ray., Əliağa Şıxlinski küçəsi</p>",,,,
Tamstore - Əhmədli 2 (City),"<p>Xətai rayonu, Nəsrəddin Tusi küçəsi, 62 Nömrəli avtobusun son dayanacağı</p>",,,,
Tamstore Xutor (Super),"<p>Xutor qəsəbəsi, Hüseyn Seyidzadə küçəsi, Yeganə şadlıq sarayının yaxınlığı</p>",,,,
Tamstore Zaqatala 2,"<p>Zaqatala şəh., Faiq Əmirov küç., 197 A, Hərbi Komisarlığın yaxınlığı</p>",,,,
Tamstore Mehdiabad (Super),"<p>Mehdiabad qəsəbəsi, 28 May küçəsi</p>",,,,
Tamstore Şəki 3 (mini),"<p>Mikayıl Müşviq küç., Şəki bazarının yaxınlığı</p>",,,,
Tamstore Şəki 2 (super),"<p>Məmmədəmin Rəsulzadə pr., 29 saylı uşaq bağçasının yaxınlığı</p>",,,,
Tamstore Mərdəkan (city),"<p>Mərdəkan qəsəbəsi., Sergey Yesenin küçəsi.,92</p>",,,,
Tamstore Şamaxinka 3 (Super),"<p>9-cu MKR., Mir Cəlal küç., 1</p><p>&nbsp;</p>",,,,
Tamstore Bakıxanov 2 (Super),"<p>Bakıxanov qəs., Sakit Qocayev küç., Kaspi liseyinin yanı</p>",,,,
"""Tamstore"" Şəki 1 (Super)","<p>M.Rasulov küç., Heydər Əliyev parkının yaxınlığı<br>&nbsp;</p>",,,,
"Tamstore ""Xankəndi 2""","<p>Xankəndi 2 - Pənahəli Xan Küçəsi, 16, Xankəndi şəhər Prokurorluğu yaxınlığı<br>&nbsp;</p>",,,,
"Tamstore ""Xankəndi 1""","<p>Xankəndi 1 - Xankəndi şəh., Xankəndi Notariat şöbəsinin yaxınlığı</p>",,,,
Tamstore Binə (Super),"<p>Binə qəsəbəsi, Əli İsazadə küçəsi, 121 saylı məktəbhin yaxınlığı</p>",,,,
"Tamstore ""Binəqədi 3""","<p>Binəqədi qəs., Araz küç., 346</p>",,,,
Tamstore - Zaqatala (Super),"<p>Zaqatala şəhəri., Tala küçəsi, Tala Ticarət Mərkəzinin yaxınlığı</p>",,,,
Tamstore - Ağdaş 3(Mini),"<p>Ağdaş rayonu., Müşviq İsayev küç.,8</p>",,,,
Tamstore - Yeni Yasamal(Super),"<p>Yeni Yasamal qəs., Dadaş Bünyadzadə küç 11.</p>",,,,
Tamstore - Ramana(City),"<p>Ramana qəsəbəsi, Şuşa sarayının yaxınlığı</p>",,,,
Tamstore - Savalan (Super),"<p>Maştağa qəs., Zabrat-Maştağa ş., ""Maştağa İdman Kompleksi""in yaxınlığı</p>",,,,
Tamstore - Xırdalan 4 (Super),"<p>Xırdalan şəh., Həzi aslanov küç., Misir parkının yaxınlığı</p>",,,,
Tamstore - Şərur(Super),"<p>Naxçıvan MR., Şərur şəhəri, Heydər Əliyev pr 49, N&amp;N Residence</p>",,,,
Tamstore - 1-ci MKR / Super,"<p>1-ci MKR, Moskva prospekti, 14 Saylı Notariat şöbəsinin yaxınlığı</p>",,,,
Tamstore Badamdar (Super),"<p>Badamdar qəsəbəsi, Rafiq İsgəndərov küçəsi</p>",,,,
Tamstore 5ci MKR (City),"<p>Nesimi rayonu, 20 yanvar küçesi 30 , Bakı, Azerbaycan</p>",,,,
Tamstore Masazır (Super),"<p>Masazır qəsəbəsi, Əliağa Vahid küçəsi</p>",,,,
Nəsimi Olimpik (Super),"<p>Nəsimi rayonu, 244a Səməd Vurğun küçəsi, ""Olimpik Star"" ın yaxınlığı</p>",,,,
Tamstore Neftçilər (City),"<p>Nizami rayonu, Məmmədəli Şərifli küçəsi 78</p>",,,,
Tamstore Xalqlar dostluğu (Mini),"<p>Bəhruz Nuriyev küçəsi, 119 saylı poçt idarəsinin yaxınlığı</p>",,,,
Tamstore - Xırdalan 1 (Super),"<p>Xırdalan şəhəri, Məmmədəmin Rəsulzadə küçəsi 12</p>",,,,
Tamstore Gənclik (City),"<p>Nərimanov rayonu, Həsən Əliyev küçəsi, 90A</p>",,,,
Tamstore Qarayev (City),"<p>Nizami rayonu, Əliağa Kürçaylı küçəsi</p>",,,,
Tamstore Şamaxinka (Mini),"<p>Nəsimi rayonu, 20 Yanvar küçəsi 2</p>",,,,
Tamstore Əmircan (Super),"<p>Əmircan qəs., Tofiq Bayram küç., 87 saylı tam orta məktəbin yaxınlığı</p>",,,,
Tamstore Sumqayıt 2 (Super),"<p>Sumqayıt şəhəri, Nəriman Nərimanov küçəsi, Sumqayıt bazarı ərazisi</p>",,,,
Tamstore - Xırdalan 2 (Super),"<p>Xırdalan - Xırdalan şəh., Heydər Əliyev pr., Köhnə bazar ərazisi</p>",,,,
Tamstore Qaraçuxur (Super),"<p>Suraxanı rayonu, Qaraçuxur qəsəbəsi, Cəlal qurbanov küçəsi, 104 nömrli məktəbin yaxınlığı</p>",,,,
Tamstore Biləcəri 2 (City),"<p>Biləcəri qəsəbəsi, Xudadat Məlikaslanov küçəsi 5C<br>&nbsp;</p>",,,,
Tamstore Keşlə (Super),"<p>Bakı şəhəri, Keşlə qəsəbəsi, 24 Abdulla Mirzəyev küçəsi</p>",,,,
Tamstore Biləcəri 1 (Super),"<p>Bakı şəhəri, Biləcəri qəsəbəsi, Rəşid İsmayılov küçəsi</p>",,,,
Tamstore Xətai (Super),"<p>Bakı şəhəri, Həsən Salmani küçəsi 5</p>",,,,
Tamstore Sumqayıt (Mini),"<p>Sumqayıt şəhəri, Bakı küçəsi</p>",,,,
Tamstore Xocəsən (Mini),"<p>Bakı şəhəri, Xocəsən qəsəbəsi, Dairəvi yolu</p>",,,,
Tamstore Sulutəpə (City),"<p>Bakı şəhəri, Sulutəpə qəsəbəsi, Şahlar Allahverdiyev</p>",,,,
Tamstore Mingəçevir 2 (City),"<p>Mingəçevir 2 / City market - Mingəçevir şəhəri, Şah İsmayıl Xətai küçəsi</p>",,,,
Tamstore Ağcabədi (Super),"<p>Ağcabədi rayonu, Heydər Əliyev prospekti, 64, Mədəniyyət bağının yaxınlığı</p>",,,,
Tamstore Zirə (City),"<p>Zirə qəsəbəsi, Cəlal Əliyev küçəsi, Zirə bazarının yaxınlığı</p>",,,,
Tamstore Buzovna (Super),"<p>Buzovna qəs., Heydər Eyvazov küçəsi, ""Mədəniyyət və Sənətkarlıq üzrə Bakı Dövlət Peşə Təhsil Mərkəzi"" yaxınlığı</p>",,,,
Tamstore Günəşli (Super),"<p>Suraxanı ray., Yeni Günəşli qəs., İlqar Musayev küçəsi, ""Qartal"" heykəlinin yaxınlığı</p>",,,,
Tamstore Bayıl (Super),"<p>Səbail ray., Bayıl qəs., Neftçi Qurban Abbasov küçəsi 44., 33 Nömrəli şəhər poliklinikasının yaxınlığı</p>",,,,
Tamstore Novxanı (Super),<p>Abseron r. Novxani kəndi -Super</p>,,,,
Tamstore Sumqayıt 4 (Super),"<p>Sumqayıt şəh., 6-cı Mikrorayon</p>",,,,
Tamstore Sumqayıt 3 (Super),"<p>Sumqayıt şəh., 20 Yanvar küçəsi</p>",,,,
Tamstore Mingəçevir 3 (Mini),"<p>Mingəçevir 3 - Mini market / Mingəçevir şəhəri, 13 Nizami küçəsi, 1941-1945 parkı yaxınlığı</p>",,,,
Tamstore Nərimanov (City),"<p>Bakı şəhəri, Nərimanov rayonu, 2b Həsənoğlu küçəsi</p>",,,,
Tamstore Mingəçevir 1 (Super),"<p>Mingəçevir 1 / Supermarket - Müslüm Magomayev prospekti, “Mingəçevir Dövlət Dram Teatrı”ın arxası</p>",,,,
Tamstore Şəmkir (Super),"<p>Şəmkir rayonu, 20 Yanvar döngəsi, “Şəmkir” bazarının yaxınlığı</p>",,,,
Tamstore Qaraçuxur 2 (Super),"<p>Suraxanı ray., Qaraçuxur qəs., Zaur Şərifov küçəsi 47 A, “Qaraçuxur 1” filialı və “Veteranlar” parkı yaxınlığı</p>",,,,
Tamstore Şamaxinka 2 (Super),"<p>Yasamal ray., 2-ci Alatava qəs., Moskva pr. Main MTK</p>",,,,
Tamstore Ağdaş (Super),"<p>Ağdaş rayonu, Heydər Əliyev pr, Bazarın yaxınlığı</p>",,,,
Tamstore Xırdalan 3 (Super),"<p>Xırdalan şəh., Heydər Əliyev pr., 11</p>",,,,
Tamstore Neftçilər 2 (Super),"<p>Nizami ray., 8-ci km qəs., Qara Qarayev pr. 8-ci km bazarı yaxınlığı</p>",,,,
Tamstore Qaradağ (Super),"<p>Qaradağ rayonu, sahil qəsəbəsi, Bakı-Ələt yolunun 25-ci kilometrliyi</p>",,,,
Tamstore Əhmədli (Super),"<p>Əhmədli qəsəbəsi, Qaçaq Nəbi küçəsi, 47A</p>",,,,
